{"version": 0.6, "generator": "Overpass API 0.7.62.7 375dc00a", "osm3s": {"timestamp_osm_base": "2025-07-19T09:58:11Z", "copyright": "The data included in this document is from www.openstreetmap.org. The data is made available under ODbL."}, "elements": [{"type": "node", "id": 26032673, "lat": 14.5789093, "lon": 120.9783098, "tags": {"addr:city": "Manila", "addr:floor": "G/F", "addr:housenumber": "Manila 1", "addr:province": "Metro Manila", "amenity": "cafe", "brand": "Starbucks", "brand:wikidata": "Q37158", "brand:wikipedia": "en:Starbucks", "check_date": "2024-08-26", "cuisine": "coffee_shop", "internet_access": "wlan", "level": "0", "name": "Starbucks", "name:zh": "\u6d77\u8fb9\u661f\u5df4\u514b\u5496\u5561\u5e97", "official_name": "Starbucks Coffee", "opening_hours": "Mo-Fr 12:30-24:30", "payment:cash": "yes", "payment:credit_cards": "yes", "payment:debit_cards": "yes", "takeaway": "yes"}}, {"type": "node", "id": 459406074, "lat": 14.5709874, "lon": 120.9855688}, {"type": "node", "id": 459406075, "lat": 14.5708833, "lon": 120.9855854}, {"type": "node", "id": 459406076, "lat": 14.5709743, "lon": 120.9855421}, {"type": "node", "id": 517062576, "lat": 14.5627053, "lon": 121.0192303, "tags": {"amenity": "cafe", "name": "Happy Cream Puff", "shop": "confectionery"}}, {"type": "node", "id": 598901916, "lat": 14.5917395, "lon": 120.9743193}, {"type": "node", "id": 598901919, "lat": 14.5918311, "lon": 120.9742351}, {"type": "node", "id": 598901924, "lat": 14.5917362, "lon": 120.9741313}, {"type": "node", "id": 598901929, "lat": 14.5916447, "lon": 120.9742154}, {"type": "node", "id": 655184597, "lat": 14.5626968, "lon": 120.9948528, "tags": {"addr:city": "Manila", "addr:floor": "0", "addr:housename": "Torre Lorenzo Plaza", "addr:street": "Taft Avenue", "addr:street:corner": "Pablo Ocampo Sr. Avenue", "air_conditioning": "yes", "amenity": "cafe", "brand": "Starbucks", "brand:wikidata": "Q37158", "brand:wikipedia": "en:Starbucks", "check_date": "2024-04-12", "cuisine": "coffee_shop", "internet_access": "wlan", "internet_access:fee": "no", "name": "Starbucks", "official_name": "Starbucks Coffee", "opening_hours": "Mo-Fr 06:00-00:00; Sa-Su 06:30-00:00", "outdoor_seating": "yes", "survey:date": "2023-10-10", "takeaway": "yes", "toilets": "yes", "wheelchair": "yes"}}, {"type": "node", "id": 674065381, "lat": 14.5665767, "lon": 121.0134488, "tags": {"addr:city": "Makati", "addr:housename": "Savanah Commercial Center", "addr:street": "Pablo Ocampo Sr. Avenue Extension", "addr:street:corner": "Don Chino Roces Avenue", "amenity": "cafe", "brand": "Dunkin' Donuts", "brand:wikidata": "Q847743", "brand:wikipedia": "en:Dunkin' Donuts", "name": "Dunkin' Donuts"}}, {"type": "node", "id": 704380787, "lat": 14.618411, "lon": 120.9854176, "tags": {"addr:city": "Manila", "addr:province": "Metro Manila", "amenity": "cafe", "brand": "Starbucks", "brand:wikidata": "Q37158", "cuisine": "coffee_shop", "name": "Starbucks", "official_name": "Starbucks Coffee", "takeaway": "yes"}}, {"type": "node", "id": 868208002, "lat": 14.5672721, "lon": 121.0065285, "tags": {"amenity": "cafe", "name": "Offbeat Cafe"}}, {"type": "node", "id": 1034880811, "lat": 14.5926317, "lon": 120.9722611}, {"type": "node", "id": 1038073317, "lat": 14.5901829, "lon": 120.9822269, "tags": {"addr:city": "Manila", "addr:floor": "UG", "addr:housename": "SM City Manila", "addr:postcode": "1000", "addr:province": "Metro Manila", "addr:street": "A. Villegas Street", "amenity": "cafe", "branch": "SM City Manila", "brand": "Starbucks", "brand:website": "https://www.starbucks.ph/", "brand:wikidata": "Q37158", "brand:wikipedia": "en:Starbucks", "cuisine": "coffee_shop", "delivery": "no", "internet_access": "wlan", "level": "0", "name": "Starbucks", "official_name": "Starbucks Coffee", "operator": "Rustan Coffee Corporation", "payment:alipay": "yes", "payment:cash": "yes", "payment:gcash": "yes", "payment:grabpay": "yes", "payment:mastercard": "yes", "payment:mastercard_debit": "yes", "payment:visa": "yes", "payment:visa_debit": "yes", "payment:wechat": "yes", "smoking": "no", "takeaway": "yes", "wheelchair": "yes"}}, {"type": "node", "id": 1044814682, "lat": 14.580341, "lon": 120.9809757, "tags": {"addr:city": "Manila", "addr:province": "Metro Manila", "amenity": "cafe", "brand": "Starbucks", "brand:wikidata": "Q37158", "brand:wikipedia": "en:Starbucks", "cuisine": "coffee_shop", "name": "Starbucks", "official_name": "Starbucks Coffee", "takeaway": "yes"}}, {"type": "node", "id": 1045023510, "lat": 14.578805, "lon": 120.9819758, "tags": {"addr:city": "Manila", "addr:province": "Metro Manila", "amenity": "cafe", "name": "Za's Cafe"}}, {"type": "node", "id": 1054550144, "lat": 14.5915158, "lon": 120.9750377, "tags": {"addr:city": "Manila", "addr:province": "Metro Manila", "amenity": "cafe", "name": "Flower Stories Cafe", "name:it": "Flower Stories"}}, {"type": "node", "id": 1058992592, "lat": 14.5812339, "lon": 120.9875542, "tags": {"addr:city": "Manila", "addr:province": "Metro Manila", "amenity": "cafe", "name": "Gen. Luna Cafe", "source": "Walking Papers"}}, {"type": "node", "id": 1365439191, "lat": 14.5588823, "lon": 120.9839407, "tags": {"addr:city": "Manila", "addr:housename": "Harbour Square", "addr:housenumber": "Manila 1", "addr:province": "Metro Manila", "addr:street": "Pedro Bukaneg", "amenity": "cafe", "brand": "Starbucks", "brand:wikidata": "Q37158", "brand:wikipedia": "en:Starbucks", "cuisine": "coffee_shop", "name": "Starbucks", "official_name": "Starbucks Coffee", "takeaway": "yes"}}, {"type": "node", "id": 1413624671, "lat": 14.5731139, "lon": 120.9815058, "tags": {"addr:city": "Manila", "addr:housename": "Jose P. Laurel Memorial Foundation Building", "addr:province": "Metro Manila", "addr:street": "Roxas Boulevard", "addr:street:corner": "Pedro Gil", "amenity": "cafe", "branch": "JP Laurel Memorial Building", "brand": "Starbucks", "brand:wikidata": "Q37158", "brand:wikipedia": "en:Starbucks", "check_date": "2023-12-29", "cuisine": "coffee_shop", "name": "Starbucks", "official_name": "Starbucks Coffee", "takeaway": "yes", "toilets": "yes", "toilets:access": "customers"}}, {"type": "node", "id": 1525042732, "lat": 14.5749519, "lon": 120.9841752, "tags": {"addr:city": "Manila", "addr:housename": "Robinsons Place Manila", "addr:province": "Metro Manila", "addr:street": "Pedro Gil Street", "amenity": "cafe", "name": "Caf\u00e9 Breton", "name:it": "Breton"}}, {"type": "node", "id": 1736953325, "lat": 14.566727, "lon": 120.9922895}, {"type": "node", "id": 1740306401, "lat": 14.5642099, "lon": 120.9946136, "tags": {"addr:city": "Manila", "addr:province": "Metro Manila", "amenity": "cafe", "brand": "Starbucks", "brand:wikidata": "Q37158", "brand:wikipedia": "en:Starbucks", "check_date": "2025-03-23", "cuisine": "coffee_shop", "name": "Starbucks", "official_name": "Starbucks Coffee", "opening_hours": "Mo-Fr 07:00-01:00; Sa-Su 08:00-24:00", "takeaway": "yes"}}, {"type": "node", "id": 1753547030, "lat": 14.5751508, "lon": 120.9804423, "tags": {"addr:city": "Manila", "addr:floor": "G/F", "addr:housename": "Avenue of the Arts Residences", "addr:housenumber": "1388", "addr:street": "Roxas Boulevard", "addr:street:corner": "Santa Monica Street", "amenity": "cafe", "cuisine": "coffee_shop", "level": "0", "name": "The Coffee Bean & Tea Leaf"}}, {"type": "node", "id": 1931786101, "lat": 14.6053179, "lon": 120.9882534, "tags": {"addr:city": "Manila", "addr:province": "Metro Manila", "amenity": "cafe", "cuisine": "coffee_shop", "name": "Dunkin Donuts"}}, {"type": "node", "id": 1933582645, "lat": 14.6047616, "lon": 120.9899731}, {"type": "node", "id": 1933582653, "lat": 14.6048086, "lon": 120.989993}, {"type": "node", "id": 1933582683, "lat": 14.6047916, "lon": 120.9899022}, {"type": "node", "id": 1933582686, "lat": 14.6048354, "lon": 120.9899333}, {"type": "node", "id": 1974799675, "lat": 14.6098103, "lon": 120.9863814}, {"type": "node", "id": 2127116485, "lat": 14.5704275, "lon": 120.9860892, "tags": {"addr:city": "Manila", "addr:province": "Metro Manila", "amenity": "cafe", "cuisine": "coffee_shop", "name": "Cafe Adriatico", "name:it": "Adriatico"}}, {"type": "node", "id": 2127121147, "lat": 14.5704735, "lon": 120.9858715, "tags": {"addr:city": "Manila", "addr:province": "Metro Manila", "amenity": "cafe", "cuisine": "coffee_shop", "name": "Figaro"}}, {"type": "node", "id": 2143784820, "lat": 14.5963182, "lon": 120.9848794, "tags": {"addr:city": "Manila", "addr:province": "Metro Manila", "amenity": "cafe", "mapillary": "171287571449315", "name": "Landap Caf\u00e9", "opening_hours": "08:00-21:00"}}, {"type": "node", "id": 2392308389, "lat": 14.5666199, "lon": 120.992195}, {"type": "node", "id": 2392308390, "lat": 14.5666702, "lon": 120.992314}, {"type": "node", "id": 2392308391, "lat": 14.5666787, "lon": 120.9921696}, {"type": "node", "id": 2394630988, "lat": 14.5630799, "lon": 120.9952252, "tags": {"addr:city": "Manila", "addr:province": "Metro Manila", "air_conditioning": "yes", "amenity": "cafe", "brand": "Seattle's Best Coffee", "brand:wikidata": "Q766329", "cuisine": "coffee_shop", "drive_through": "no", "internet_access": "yes", "name": "Seattle's Best Coffee", "takeaway": "yes"}}, {"type": "node", "id": 2394631510, "lat": 14.5665572, "lon": 120.9925652, "tags": {"addr:city": "Manila", "addr:province": "Metro Manila", "addr:street": "Fidel A. Reyes Street", "amenity": "cafe", "cuisine": "coffee_shop", "internet_access": "yes", "name": "Obscure Cafe"}}, {"type": "node", "id": 2394631557, "lat": 14.5656106, "lon": 120.9968039, "tags": {"addr:city": "Manila", "addr:province": "Metro Manila", "amenity": "cafe", "name": "Mr Brown's"}}, {"type": "node", "id": 2684848252, "lat": 14.5613432, "lon": 121.0060244}, {"type": "node", "id": 2684848253, "lat": 14.5613952, "lon": 121.0059976}, {"type": "node", "id": 2684848256, "lat": 14.5614613, "lon": 121.0062694}, {"type": "node", "id": 2684848259, "lat": 14.5615133, "lon": 121.0062426}, {"type": "node", "id": 2942128848, "lat": 14.5812135, "lon": 121.012566}, {"type": "node", "id": 2942128849, "lat": 14.581249, "lon": 121.0126674}, {"type": "node", "id": 2942128852, "lat": 14.5814468, "lon": 121.0124788}, {"type": "node", "id": 2942128854, "lat": 14.5814823, "lon": 121.0125802}, {"type": "node", "id": 3074408215, "lat": 14.5818125, "lon": 121.0125719, "tags": {"addr:city": "Manila", "addr:street": "Pedro Gil Street", "amenity": "cafe", "cuisine": "bubble_tea", "name": "Cha Tuk Chak", "outdoor_seating": "no", "website": "https://www.chatukchak.com/"}}, {"type": "node", "id": 3074414135, "lat": 14.5814782, "lon": 121.0136564, "tags": {"amenity": "cafe", "name": "Kai Cha Milk Tea"}}, {"type": "node", "id": 3074540270, "lat": 14.5811705, "lon": 121.0115883, "tags": {"amenity": "cafe", "internet_access": "yes", "name": "Liyah Kaffea", "opening_hours": "Mo-Su 7:00-21:00"}}, {"type": "node", "id": 3164057534, "lat": 14.610896, "lon": 121.0098897}, {"type": "node", "id": 3164057541, "lat": 14.6109538, "lon": 121.0098152}, {"type": "node", "id": 3164057546, "lat": 14.6109988, "lon": 121.0099749}, {"type": "node", "id": 3164057550, "lat": 14.6110566, "lon": 121.0099004}, {"type": "node", "id": 3595628517, "lat": 14.603797, "lon": 120.9882679, "tags": {"amenity": "cafe", "name": "TAMbayan"}}, {"type": "node", "id": 3598009757, "lat": 14.6050321, "lon": 120.988088, "tags": {"addr:street": "P. Paredes", "air_conditioning": "yes", "amenity": "cafe", "indoor_seating": "yes", "name": "Madbrews", "outdoor_seating": "no"}}, {"type": "node", "id": 3598009759, "lat": 14.6054686, "lon": 120.9887296, "tags": {"amenity": "cafe", "name": "DCream"}}, {"type": "node", "id": 3598034995, "lat": 14.6047406, "lon": 120.9876947, "tags": {"air_conditioning": "yes", "amenity": "cafe", "indoor_seating": "yes", "name": "Hoppers", "outdoor_seating": "no", "wheelchair": "no"}}, {"type": "node", "id": 3599760781, "lat": 14.6027302, "lon": 120.9877571, "tags": {"amenity": "cafe"}}, {"type": "node", "id": 3600023237, "lat": 14.609766, "lon": 120.9864201}, {"type": "node", "id": 3600023238, "lat": 14.6097248, "lon": 120.9863699}, {"type": "node", "id": 3600023239, "lat": 14.609769, "lon": 120.9863311}, {"type": "node", "id": 3600128380, "lat": 14.603277, "lon": 120.9902573, "tags": {"addr:city": "Manila", "addr:postcode": "1015", "addr:street": "Dalupan", "addr:street_1": "Gastambide", "amenity": "cafe", "name": "Frappeetea"}}, {"type": "node", "id": 3600536422, "lat": 14.6054716, "lon": 120.987749, "tags": {"amenity": "cafe", "name": "Churros House"}}, {"type": "node", "id": 3601513574, "lat": 14.6025809, "lon": 120.9905585, "tags": {"addr:city": "Manila", "addr:postcode": "1015", "addr:street": "Dalupan", "addr:street_1": "Gastambide", "amenity": "cafe", "cuisine": "Milk_Tea", "name": "D'Cream"}}, {"type": "node", "id": 3601535847, "lat": 14.6051196, "lon": 120.9890237, "tags": {"amenity": "cafe", "name": "The Wicked Waffle"}}, {"type": "node", "id": 3601536646, "lat": 14.6044866, "lon": 120.9878943, "tags": {"air_conditioning": "yes", "amenity": "cafe", "indoor_seating": "yes", "name": "It's Caffeine", "opening_hours": "Mo-Fr 08:00-24:00, Sa 08:30-24:00, Su 09:30-23:00", "outdoor_seating": "no"}}, {"type": "node", "id": 3601536672, "lat": 14.6035635, "lon": 120.9882449, "tags": {"addr:city": "Manila", "addr:street": "R. Papa", "amenity": "cafe", "name": "Frappeetea"}}, {"type": "node", "id": 3601536676, "lat": 14.6033238, "lon": 120.9887099, "tags": {"addr:city": "Manila", "addr:street": "R. Papa Street", "amenity": "cafe", "name": "D'Cream"}}, {"type": "node", "id": 3601558396, "lat": 14.6057951, "lon": 120.9873428, "tags": {"amenity": "cafe", "name": "Brewing beyond coffee"}}, {"type": "node", "id": 3604379103, "lat": 14.6069787, "lon": 120.9667961, "tags": {"amenity": "cafe", "name": "Taste from the Greens"}}, {"type": "node", "id": 3697013225, "lat": 14.565225, "lon": 121.012731, "tags": {"addr:city": "Makati", "addr:housenumber": "7635", "addr:street": "Guijo", "amenity": "cafe", "cuisine": "coffee_shop", "email": "hello@restock.ph", "internet_access": "no", "internet_access:fee": "no", "name": "Restock", "note": "Intimate cafe right at the end of Guijo.", "outdoor_seating": "no", "phone": "+63 917 6631011", "smoking": "no", "source": "Ahn Bustamante date of visit 8/13/2015", "takeaway": "yes", "website": "http://restock.ph", "wheelchair": "no"}}, {"type": "node", "id": 3951630068, "lat": 14.6069767, "lon": 120.9890259, "tags": {"addr:city": "Manila", "addr:street": "P. Noval", "amenity": "cafe", "brand": "Starbucks", "brand:wikidata": "Q37158", "brand:wikipedia": "en:Starbucks", "cuisine": "coffee_shop", "internet_access": "wlan", "name": "Starbucks", "official_name": "Starbucks Coffee", "takeaway": "yes", "website": "https://www.starbucks.com/"}}, {"type": "node", "id": 4066446080, "lat": 14.5749562, "lon": 120.9804781, "tags": {"addr:city": "Manila", "addr:floor": "G/F", "addr:housename": "L&S Building", "addr:housenumber": "1414", "addr:street": "Roxas Boulevard", "amenity": "cafe", "level": "0", "name": "Cameo Caf\u00e9", "name:it": "Cameo"}}, {"type": "node", "id": 4089309862, "lat": 14.5672765, "lon": 120.9922471, "tags": {"addr:city": "Manila", "addr:province": "Metro Manila", "amenity": "cafe", "internet_access": "yes", "name": "Bo's Coffee", "note": "opens april 2016"}}, {"type": "node", "id": 4158776089, "lat": 14.6064279, "lon": 120.9898192, "tags": {"addr:street": "Third Floor, DB Building 1250, Padre Noval Street Corner Espa\u00f1a Boulevard, Sampaloc, Manila", "amenity": "cafe", "cuisine": "coffee_shop;pizza;pasta;burger;cake;ice_cream", "internet_access": "wlan", "name": "Amo Yamie Crib", "opening_hours": "Mo-Su 9:00-21:00", "phone": "+63 9178335017", "website": "https://m.facebook.com/AmoYamieCrib/"}}, {"type": "node", "id": 4158973791, "lat": 14.6000056, "lon": 120.9905635, "tags": {"addr:street": "Second Floor, Gordi Plaza, 2125 Legarda Street, Quiapo, Manila", "amenity": "cafe", "cuisine": "burger;cake;coffee_shop;ice_cream;pizza;sandwich", "internet_access": "wlan", "name": "Amo Yamie Crib", "opening_hours": "Mo-Sa 9:00-21:00, Su 12:00-22:00", "phone": "+63 9178335017", "website": "https://m.facebook.com/AmoYamieCrib/"}}, {"type": "node", "id": 4176622978, "lat": 14.5996731, "lon": 120.9702098, "tags": {"amenity": "cafe", "cuisine": "chinese", "name": "Essense"}}, {"type": "node", "id": 4177666489, "lat": 14.5756777, "lon": 121.0198486, "tags": {"amenity": "cafe", "name": "Coffee Bean and Tea Leaf"}}, {"type": "node", "id": 4178063157, "lat": 14.6037319, "lon": 120.9880952, "tags": {"addr:city": "Manila", "addr:street": "R. Papa", "amenity": "cafe", "name": "ZAGU"}}, {"type": "node", "id": 4185654465, "lat": 14.6008644, "lon": 120.9742539, "tags": {"addr:postcode": "1006", "amenity": "cafe", "cuisine": "snacks", "name": "Moonleaf + Bunnies Cafe"}}, {"type": "node", "id": 4212325392, "lat": 14.6145351, "lon": 120.9934886, "tags": {"addr:housenumber": "1100", "addr:postcode": "1008", "addr:street": "Ruperto Cristobal", "amenity": "cafe", "cuisine": "american", "name": "Cristopiy", "opening_hours": "Mo-Su 12:00-23:00"}}, {"type": "node", "id": 4214681091, "lat": 14.6232425, "lon": 121.0027218, "tags": {"addr:housenumber": "Quezon City 0", "addr:street": "D. Tuazon Street", "amenity": "cafe", "name": "Caerus Coffee"}}, {"type": "node", "id": 4228108290, "lat": 14.602542, "lon": 120.9905579, "tags": {"addr:street": "Dalupan", "amenity": "cafe", "name": "Mineski Infinity"}}, {"type": "node", "id": 4243016791, "lat": 14.5979302, "lon": 120.9931533, "tags": {"amenity": "cafe", "brand": "Starbucks", "brand:wikidata": "Q37158", "brand:wikipedia": "en:Starbucks", "cuisine": "coffee_shop", "internet_access": "wlan", "name": "Starbucks", "official_name": "Starbucks Coffee", "takeaway": "yes"}}, {"type": "node", "id": 4245263789, "lat": 14.6319834, "lon": 120.9803154, "tags": {"amenity": "cafe", "name": "Hugot Cafe"}}, {"type": "node", "id": 4265752903, "lat": 14.6042629, "lon": 120.9856275, "tags": {"amenity": "cafe", "name": "Cafe Alfredo"}}, {"type": "node", "id": 4352511505, "lat": 14.6066775, "lon": 120.990337, "tags": {"addr:housenumber": "863", "addr:street": "Galicia", "amenity": "cafe", "name": "Smynoshery", "opening_hours": "Mo-Su 10:30-22:00"}}, {"type": "node", "id": 4359599292, "lat": 14.608798, "lon": 120.9871248, "tags": {"amenity": "cafe", "name:en": "UK Cafe"}}, {"type": "node", "id": 4364588096, "lat": 14.5876025, "lon": 120.9960193, "tags": {"addr:city": "Manila", "addr:district": "Paco", "addr:postcode": "1007", "addr:street": "Paz Mendoza Guazon Street", "amenity": "cafe", "brand": "Starbucks", "brand:website": "https://www.starbucks.ph/", "brand:wikidata": "Q37158", "brand:wikipedia": "en:Starbucks", "cuisine": "coffee_shop", "delivery": "no", "level": "0", "name": "Starbucks", "name:en": "Starbucks Coffee", "official_name": "Starbucks Coffee", "operator": "Rustan Coffee Corporation", "payment:alipay": "yes", "payment:cash": "yes", "payment:gcash": "yes", "payment:grabpay": "yes", "payment:mastercard": "yes", "payment:mastercard_debit": "yes", "payment:visa": "yes", "payment:visa_debit": "yes", "payment:wechat": "yes", "phone": "+63 2 8559 0733", "takeaway": "yes"}}, {"type": "node", "id": 4376695989, "lat": 14.6083378, "lon": 120.9876337, "tags": {"amenity": "cafe", "name": "Cafe Khivan", "name:en": "Cafe Khivan"}}, {"type": "node", "id": 4376696189, "lat": 14.610604, "lon": 120.9869675, "tags": {"amenity": "cafe", "name": "Starbuck's Coffee", "name:en": "Starbuck's Coffee"}}, {"type": "node", "id": 4419870006, "lat": 14.5659973, "lon": 121.012636, "tags": {"addr:city": "Makati", "addr:street": "Chino Roces Avenue", "amenity": "cafe", "cuisine": "coffee_shop", "name": "Satinka Naturals"}}, {"type": "node", "id": 4426099190, "lat": 14.6105915, "lon": 120.990737, "tags": {"amenity": "cafe", "name": "Starbucks", "name:en": "Starbucks"}}, {"type": "node", "id": 4445618484, "lat": 14.5897318, "lon": 121.0230682, "tags": {"addr:street": "New Panaderos Extension", "amenity": "cafe", "level": "0", "mapillary": "494561218358418", "name": "Dunkin' Donuts"}}, {"type": "node", "id": 4602152189, "lat": 14.5831634, "lon": 120.9734262, "tags": {"addr:housenumber": "1", "addr:street": "Rizal Park", "amenity": "cafe", "name": "Cafe Ilang-Ilang", "name:en": "Cafe Ilang-Ilang"}}, {"type": "node", "id": 4679292491, "lat": 14.6085659, "lon": 120.9936056, "tags": {"amenity": "cafe", "name": "Floticafe", "name:en": "Floticafe"}}, {"type": "node", "id": 4755621644, "lat": 14.5651517, "lon": 120.9950889, "tags": {"addr:street": "Leon Guinto Street", "amenity": "cafe", "check_date": "2025-03-22", "name": "Dakasi", "name:en": "Dakasi", "opening_hours": "Mo-Sa 11:00-21:00; Su 11:00-20:00"}}, {"type": "node", "id": 4809133221, "lat": 14.5835499, "lon": 120.9871709, "tags": {"addr:street": "United Nations Avenue", "amenity": "cafe", "brand": "Tim Hortons", "brand:wikidata": "Q175106", "brand:wikipedia": "en:Tim Hortons", "check_date": "2025-01-04", "cuisine": "coffee_shop", "email": "6\u2076", "internet_access": "wlan", "internet_access:fee": "customers", "name": "Tim Hortons", "name:en": "Tim Hortons", "payment:cash": "yes", "payment:credit_cards": "yes", "payment:debit_cards": "yes", "takeaway": "yes", "toilets:access": "permissive", "wheelchair": "limited"}}, {"type": "node", "id": 4818500022, "lat": 14.6055663, "lon": 120.9932819, "tags": {"addr:postcode": "1008", "addr:street": "Earnshaw", "amenity": "cafe", "cuisine": "chinese;chicken;filipino", "name": "Savory Bustillos", "name:en": "Savory Bustillos"}}, {"type": "node", "id": 4865583221, "lat": 14.5622799, "lon": 120.9947587, "tags": {"addr:floor": "47", "addr:street": "Pablo Ocampo Sr. Avenue", "amenity": "cafe", "check_date": "2024-04-12", "fixme": "location", "internet_access": "no", "level": "47", "name": "The Grand Towers", "name:en": "The Grand Towers", "payment:cards": "no", "payment:cash": "yes", "payment:credit_cards": "no", "payment:debit_cards": "no", "wheelchair": "limited"}}, {"type": "node", "id": 4866726523, "lat": 14.6003751, "lon": 120.9745236, "tags": {"amenity": "cafe", "name": "Cafe aquatica", "name:en": "Cafe aquatica"}}, {"type": "node", "id": 4950010822, "lat": 14.5916293, "lon": 121.0186163, "tags": {"addr:street": "Batas", "amenity": "cafe", "name": "Sabroso's Comfort Food", "name:en": "Sabroso's Comfort Food"}}, {"type": "node", "id": 5024230635, "lat": 14.6328219, "lon": 120.9950676, "tags": {"amenity": "cafe", "name": "Polland Hopia", "name:en": "Polland Hopia"}}, {"type": "node", "id": 5063315722, "lat": 14.6340391, "lon": 120.9938449, "tags": {"addr:housenumber": "99", "addr:street": "Angelo", "amenity": "cafe", "name": "Cody's Delicacies"}}, {"type": "node", "id": 5101171023, "lat": 14.5824381, "lon": 120.9826045, "tags": {"amenity": "cafe", "cuisine": "coffee_shop", "name": "Seattle's Best"}}, {"type": "node", "id": 5225147357, "lat": 14.5661119, "lon": 120.9930029, "tags": {"addr:postcode": "1004", "addr:street": "Fidel A. Reyes Street", "amenity": "cafe", "name": "Aventino\u2019s D\u2019Lounge"}}, {"type": "node", "id": 5235769821, "lat": 14.5667181, "lon": 120.9927148, "tags": {"amenity": "cafe", "name": "Infinitea"}}, {"type": "node", "id": 5246578273, "lat": 14.6034763, "lon": 120.9876539, "tags": {"air_conditioning": "yes", "amenity": "cafe", "brand": "Starbucks", "brand:wikidata": "Q37158", "cuisine": "coffee_shop", "indoor_seating": "yes", "name": "Starbucks", "official_name": "Starbucks Coffee", "opening_hours": "Mo-Sa 08:30-22:00", "outdoor_seating": "no", "takeaway": "yes", "wheelchair": "limited"}}, {"type": "node", "id": 5281241222, "lat": 14.5708484, "lon": 121.0129665, "tags": {"amenity": "cafe"}}, {"type": "node", "id": 5302184707, "lat": 14.5657624, "lon": 120.9930937, "tags": {"amenity": "cafe", "name": "Treehouse"}}, {"type": "node", "id": 5325444422, "lat": 14.5690366, "lon": 121.0010339, "tags": {"amenity": "cafe", "name": "Honesty Cafe", "name:en": "Honesty Cafe"}}, {"type": "node", "id": 5350202321, "lat": 14.5630636, "lon": 120.9947741, "tags": {"addr:city": "Manila", "addr:housenumber": "2587", "addr:postcode": "1004", "addr:street": "Taft Avenue", "addr:unit": "2", "amenity": "cafe", "check_date": "2024-04-12", "contact:facebook": "https://www.facebook.com/coffeeproject.colab", "internet_access": "wlan", "internet_access:fee": "customers", "level": "0", "name": "Coffee Project co-lab", "payment:cash": "yes", "payment:credit_cards": "yes", "payment:debit_cards": "yes", "wheelchair": "limited"}}, {"type": "node", "id": 5521447721, "lat": 14.5750641, "lon": 120.9922774, "tags": {"amenity": "cafe", "name": "Cuervorito"}}, {"type": "node", "id": 5521925021, "lat": 14.5729964, "lon": 120.9919923, "tags": {"amenity": "cafe", "diet:vegetarian": "yes", "name:ru": "\u0432\u0435\u0433\u0435\u0442\u0435\u0440\u0438\u0430\u043d\u0441\u043a\u043e\u0435 \u043a\u0430\u0444\u0435.", "opening_hours": "Mo-Su 09:00-14:00"}}, {"type": "node", "id": 5558725558, "lat": 14.5989419, "lon": 120.9793392, "tags": {"addr:city": "Manila", "addr:housenumber": "413", "addr:postcode": "1006", "addr:street": "Escolta Street", "amenity": "cafe", "cuisine": "coffee_shop", "drink:espresso": "served", "drink:filter_coffee": "served", "facebook": "https://www.facebook.com/TheDenManila/", "internet_access": "yes", "internet_access:fee": "no", "name": "The Den", "note": "Inside the HUB Make Lab, First United Building", "opening_hours": "Tu-Sa 11:00-21:00; Su 11:00-19:00", "outdoor_seating": "yes", "smoking": "no"}}, {"type": "node", "id": 5576214421, "lat": 14.5666102, "lon": 120.9862078, "tags": {"amenity": "cafe"}}, {"type": "node", "id": 5598114423, "lat": 14.5656533, "lon": 121.0023251, "tags": {"addr:street": "Gregorio del Pilar Street", "amenity": "cafe", "contact:instagram": "isaunakapeatbp", "cuisine": "coffee_shop;regional", "name": "Isa Una Kapihan & Atbp", "start_date": "2018"}}, {"type": "node", "id": 5712864416, "lat": 14.5882636, "lon": 120.9784567, "tags": {"amenity": "cafe", "name": "Paper + Caf\u00e9", "opening_hours": "Mo-Th 08:00-20:00; Fr 08:00-21:00; Sa 08:00-17:00; PH off"}}, {"type": "node", "id": 5757535421, "lat": 14.5885008, "lon": 120.9758487, "tags": {"addr:city": "Manila", "addr:district": "Intramuros", "addr:floor": "G/F", "addr:postcode": "1002", "addr:street": "General Luna Street", "amenity": "cafe", "brand": "Starbucks", "brand:facebook": "https://www.facebook.com/StarbucksPhilippines", "brand:website": "https://www.starbucks.ph/", "brand:wikidata": "Q37158", "brand:wikipedia": "en:Starbucks", "cuisine": "coffee_shop", "delivery": "no", "internet_access": "wlan", "level": "0", "name": "Starbucks", "name:zh": "\u661f\u5df4\u514b", "official_name": "Starbucks Coffee", "operator": "Rustans Coffee Corporation", "payment:alipay": "yes", "payment:cash": "yes", "payment:gcash": "yes", "payment:grabpay": "yes", "payment:mastercard": "yes", "payment:mastercard_debit": "yes", "payment:visa": "yes", "payment:visa_debit": "yes", "payment:wechat": "yes", "takeaway": "yes", "wheelchair": "yes"}}, {"type": "node", "id": 5759735251, "lat": 14.5927898, "lon": 120.9720618}, {"type": "node", "id": 5759735252, "lat": 14.5929127, "lon": 120.9721992}, {"type": "node", "id": 5759735254, "lat": 14.5926038, "lon": 120.9722282}, {"type": "node", "id": 5799337318, "lat": 14.5789577, "lon": 121.0112063, "tags": {"amenity": "cafe", "name": "Swig"}}, {"type": "node", "id": 5863182966, "lat": 14.5725766, "lon": 121.0188405, "tags": {"addr:housename": "Circuit Theater Mall", "amenity": "cafe", "brand": "Tim Hortons", "brand:wikidata": "Q175106", "brand:wikipedia": "en:Tim Hortons", "cuisine": "coffee_shop", "name": "Tim Hortons", "takeaway": "yes"}}, {"type": "node", "id": 5981239987, "lat": 14.6183817, "lon": 120.9865488, "tags": {"amenity": "cafe", "cuisine": "coffee_shop;cake;pasta;tea", "name": "Bo's Coffee"}}, {"type": "node", "id": 5981239996, "lat": 14.6126854, "lon": 120.9902749, "tags": {"addr:street": "Arsenio H. Lacson Avenue", "amenity": "cafe", "cuisine": "coffee_shop;pasta;tea;sandwich", "internet_access": "wlan", "internet_access:fee": "yes", "name": "Bo's Coffee", "smoking": "no", "takeaway": "yes", "wheelchair": "yes"}}, {"type": "node", "id": 5982569389, "lat": 14.6132318, "lon": 120.9881694, "tags": {"addr:street": "Gelinos", "amenity": "cafe", "cuisine": "coffee_shop;pasta;japanese;filipino", "name": "MaiCafe"}}, {"type": "node", "id": 6010051986, "lat": 14.6136923, "lon": 120.9904271, "tags": {"addr:street": "Dapitan Street", "amenity": "cafe", "cuisine": "japanese", "name": "Hashi Donburi"}}, {"type": "node", "id": 6010067086, "lat": 14.6118388, "lon": 120.9920602, "tags": {"addr:street": "Dos Castillas Street", "amenity": "cafe", "cuisine": "coffee_shop;pizza;american", "name": "Redbuck's"}}, {"type": "node", "id": 6013021385, "lat": 14.6127646, "lon": 120.987558, "tags": {"addr:street": "Laon Laan Street", "amenity": "cafe", "name": "Starr's Famous Shakes"}}, {"type": "node", "id": 6013686785, "lat": 14.6190583, "lon": 120.9854817, "tags": {"addr:city": "Manila", "addr:postcode": "1014", "addr:province": "Metro Manila", "addr:street": "MJC Drive", "air_conditioning": "yes", "amenity": "cafe", "brand": "Tim Hortons", "brand:facebook": "https://www.facebook.com/TimHortonsPhilippines", "brand:website": "https://timhortons.ph/", "brand:wikidata": "Q175106", "brand:wikipedia": "en:Tim Hortons", "cuisine": "coffee_shop", "drive_through": "no", "name": "Tim Hortons", "payment:cash": "yes", "takeaway": "yes"}}, {"type": "node", "id": 6024191486, "lat": 14.6080618, "lon": 120.9913515, "tags": {"addr:street": "Espa\u00f1a Boulevard", "amenity": "cafe", "cuisine": "coffee_shop;pasta;sandwich", "name": "Starbucks"}}, {"type": "node", "id": 6147388172, "lat": 14.5711453, "lon": 121.0172617, "tags": {"amenity": "cafe", "cuisine": "coffee_shop", "internet_access": "wlan", "name": "T&C Thread and Coffee"}}, {"type": "node", "id": 6148928387, "lat": 14.5980411, "lon": 120.9776668, "tags": {"addr:housenumber": "287", "addr:postcode": "1006", "addr:street": "San Vicente", "amenity": "cafe", "name": "Cool-In Coffee Shop", "opening_hours": "Mo-Sa 07:30-18:00"}}, {"type": "node", "id": 6182656286, "lat": 14.6256795, "lon": 121.0013305, "tags": {"amenity": "cafe", "name": "Serenitea"}}, {"type": "node", "id": 6192290562, "lat": 14.6047016, "lon": 121.0181026, "tags": {"amenity": "cafe", "brand": "Starbucks", "brand:wikidata": "Q37158", "brand:wikipedia": "en:Starbucks", "cuisine": "coffee_shop", "level": "0", "name": "Starbucks", "official_name": "Starbucks Coffee", "takeaway": "yes"}}, {"type": "node", "id": 6192293395, "lat": 14.6045061, "lon": 121.0182869, "tags": {"amenity": "cafe", "level": "-1", "name": "Mr. Park's Bread and Cafe"}}, {"type": "node", "id": 6193831709, "lat": 14.6042839, "lon": 121.0185951, "tags": {"amenity": "cafe", "level": "2", "name": "Grand Duchess Caf\u00e9"}}, {"type": "node", "id": 6193831710, "lat": 14.6042645, "lon": 121.01857, "tags": {"amenity": "cafe", "level": "2", "name": "Gloria Jeans Coffee"}}, {"type": "node", "id": 6212730482, "lat": 14.5929756, "lon": 120.977702, "tags": {"addr:city": "Manila", "addr:district": "Intramuros", "addr:floor": "G/F", "addr:housename": "DMHM Building", "addr:street": "Muralla Street", "amenity": "cafe", "brand": "Starbucks", "brand:wikidata": "Q37158", "brand:wikipedia": "en:Starbucks", "cuisine": "coffee_shop", "level": "0", "name": "Starbucks", "official_name": "Starbucks Coffee", "opening_hours": "Mo-Fr 06:00-21:00; Sa,Su 07:00-20:00", "takeaway": "yes", "wheelchair": "limited"}}, {"type": "node", "id": 6251454787, "lat": 14.5700109, "lon": 120.9848643, "tags": {"amenity": "cafe", "name": "Kei Coffee", "opening_hours": "24/7"}}, {"type": "node", "id": 6337000769, "lat": 14.56613, "lon": 120.9977639, "tags": {"amenity": "cafe", "name": "Cafe Romancon"}}, {"type": "node", "id": 6583366543, "lat": 14.5639584, "lon": 121.007971, "tags": {"addr:city": "Makati", "addr:housename": "8760 Residences", "addr:housenumber": "8760", "addr:street": "Santol", "addr:street:corner": "Sampaloc", "alt_name": "Titatim's Cafe", "amenity": "cafe", "cuisine": "japanese;korean;chinese", "level": "0", "name": "Sekretong hardin", "opening_hours": "24/7", "phone": "02 86711978"}}, {"type": "node", "id": 6630882656, "lat": 14.5892844, "lon": 120.9781466, "tags": {"amenity": "cafe", "cuisine": "bubble_tea", "name": "Moonleaf"}}, {"type": "node", "id": 6630882658, "lat": 14.5898658, "lon": 120.9788274, "tags": {"amenity": "cafe", "name": "Cioccolata", "payment:alipay": "yes", "payment:cash": "yes", "payment:mastercard": "yes", "payment:maya": "yes", "payment:visa": "yes", "smoking": "no", "wheelchair": "yes"}}, {"type": "node", "id": 6755426412, "lat": 14.5902643, "lon": 120.9833249, "tags": {"addr:floor": "L4", "amenity": "cafe", "cuisine": "coffee_shop", "description": "4th floor SM City Manila", "internet_access": "wlan", "internet_access:fee": "no", "level": "4", "name": "Bo's Coffee", "toilets": "yes"}}, {"type": "node", "id": 6765932581, "lat": 14.5836968, "lon": 120.9870709, "tags": {"amenity": "cafe", "cuisine": "asian;coffee_shop;regional", "description": "wifi is one device for one hour", "internet_access": "wlan", "name": "Black Scoop Cafe", "outdoor_seating": "yes", "toilets": "yes", "wheelchair": "yes"}}, {"type": "node", "id": 6794128986, "lat": 14.5912312, "lon": 120.9741211, "tags": {"amenity": "cafe", "contact:facebook": "lacathedralcafe", "contact:phone": "+639774204749", "name": "La Cathedral Cafe", "opening_hours": "08:00-23:00"}}, {"type": "node", "id": 7022813099, "lat": 14.6025511, "lon": 121.0208027, "tags": {"amenity": "cafe", "cuisine": "bubble_tea", "fixme": "name"}}, {"type": "node", "id": 7142353791, "lat": 14.5931329, "lon": 120.9733493, "tags": {"addr:city": "Manila", "addr:floor": "0", "addr:postcode": "1002", "addr:street": "Andres Soriano Avenue", "air_conditioning": "yes", "amenity": "cafe", "bar": "no", "brand": "Figaro", "cuisine": "coffee_shop", "indoor_seating": "yes", "internet_access": "wlan", "level": "0", "mapillary": "466360822811547", "name": "Figaro", "takeaway": "yes", "toilets": "yes", "wheelchair": "yes"}}, {"type": "node", "id": 7564996146, "lat": 14.6068006, "lon": 120.9777572, "tags": {"addr:city": "Manila", "addr:street": "Masangkay Street", "amenity": "cafe", "cuisine": "bubble_tea", "name": "Cha Tuk Chak", "outdoor_seating": "no", "website": "https://www.chatukchak.com/"}}, {"type": "node", "id": 7566025030, "lat": 14.6004366, "lon": 120.9754972, "tags": {"amenity": "cafe", "name": "Cafe Mezzanine"}}, {"type": "node", "id": 7567807767, "lat": 14.5985919, "lon": 120.9757216, "tags": {"amenity": "cafe", "brand": "Starbucks", "brand:wikidata": "Q37158", "brand:wikipedia": "en:Starbucks", "cuisine": "coffee_shop", "name": "Starbucks", "official_name": "Starbucks Coffee", "takeaway": "yes"}}, {"type": "node", "id": 7574592374, "lat": 14.6023647, "lon": 120.9787674, "tags": {"addr:housenumber": "629", "addr:street": "Teodora Alonzo", "amenity": "cafe", "check_date": "2023-11-14", "name": "Eng Ho Cafe & Deli", "opening_hours": "08:00-19:00"}}, {"type": "node", "id": 7608029051, "lat": 14.5650926, "lon": 120.9942038, "tags": {"amenity": "cafe", "check_date": "2025-03-22", "name": "Yi Fang", "opening_hours": "Mo-Fr 10:00-24:00; Sa-Su 10:00-23:00"}}, {"type": "node", "id": 7672563580, "lat": 14.5708937, "lon": 120.9856118}, {"type": "node", "id": 7672563583, "lat": 14.5709586, "lon": 120.9855496}, {"type": "node", "id": 7672591686, "lat": 14.5708982, "lon": 120.9855783}, {"type": "node", "id": 7738634049, "lat": 14.5927038, "lon": 120.9723408}, {"type": "node", "id": 7738634050, "lat": 14.5928501, "lon": 120.9722552}, {"type": "node", "id": 7738634051, "lat": 14.5928276, "lon": 120.9722301}, {"type": "node", "id": 7780828334, "lat": 14.6230988, "lon": 120.992043, "tags": {"amenity": "cafe", "name": "Redbucks Cafe"}}, {"type": "node", "id": 7780828335, "lat": 14.6234026, "lon": 120.992671, "tags": {"amenity": "cafe", "name": "Cafe Tribu"}}, {"type": "node", "id": 7866779222, "lat": 14.6175997, "lon": 121.0010107, "tags": {"addr:city": "Santa Mesa Heights", "addr:postcode": "1114", "addr:street": "Espa\u00f1a Boulevard", "air_conditioning": "yes", "amenity": "cafe", "brand": "Starbucks", "brand:wikidata": "Q37158", "brand:wikipedia": "en:Starbucks", "cuisine": "coffee_shop", "name": "Starbucks", "official_name": "Starbucks Coffee", "takeaway": "yes", "toilets": "yes"}}, {"type": "node", "id": 7878520308, "lat": 14.5818947, "lon": 121.0126915, "tags": {"amenity": "cafe", "brand": "Starbucks", "construction:amenity": "cafe", "cuisine": "coffee_shop", "name": "Starbucks", "takeaway": "yes", "wikidata": "Q37158"}}, {"type": "node", "id": 7880412219, "lat": 14.5814417, "lon": 121.0124154, "tags": {"amenity": "cafe", "cuisine": "bubble_tea", "name": "Happy Cup"}}, {"type": "node", "id": 7881380431, "lat": 14.6047468, "lon": 120.989931}, {"type": "node", "id": 7881380432, "lat": 14.6048172, "lon": 120.9899115}, {"type": "node", "id": 7881380433, "lat": 14.6048279, "lon": 120.9899597}, {"type": "node", "id": 7895964285, "lat": 14.5623907, "lon": 120.9953994, "tags": {"addr:postcode": "1004", "addr:street": "Taft Avenue", "air_conditioning": "yes", "amenity": "cafe", "branch": "R-Square Mall", "brand": "Tim Hortons", "brand:wikidata": "Q175106", "cuisine": "coffee_shop", "level": "0", "name": "Tim Hortons", "name:en": "Tim Hortons - R Sqauare Mall", "opening_hours": "Mo-Su 07:00-21:00", "outdoor_seating": "no", "takeaway": "yes", "toilets": "yes"}}, {"type": "node", "id": 8528710017, "lat": 14.6138846, "lon": 120.9903797, "tags": {"addr:city": "Manila", "addr:postcode": "1015", "addr:street": "Carola Street", "amenity": "cafe", "brand": "BigBrew", "brand:facebook": "https://www.facebook.com/bigbrew.main", "cuisine": "bubble_tea", "facebook": "https://www.facebook.com/BigBrewDapitanMNL", "name": "BigBrew Dapitan", "payment:cash": "yes"}}, {"type": "node", "id": 8629402508, "lat": 14.6041256, "lon": 120.9669305, "tags": {"addr:city": "Manila", "addr:postcode": "1012", "addr:street": "Elcano Street", "amenity": "cafe", "cuisine": "bubble_tea", "facebook": "https://www.facebook.com/LuckyChaiCafe", "level": "0", "name": "Lucky Chai Cafe"}}, {"type": "node", "id": 8768719760, "lat": 14.5682483, "lon": 120.9927414, "tags": {"addr:city": "Manila", "addr:street": "Taft Avenue", "air_conditioning": "yes", "amenity": "cafe", "cuisine": "thai", "name": "Cha Tuk Chak"}}, {"type": "node", "id": 9126140120, "lat": 14.5644767, "lon": 121.0108821, "tags": {"addr:housenumber": "7700", "addr:neighbourhood": "San Antonio", "addr:street": "St Paul Road", "amenity": "cafe", "contact:phone": "+639774938;+63288901369", "name": "8065 Coffee", "opening_hours": "Mo-Sa 09:00-23:00"}}, {"type": "node", "id": 9169800119, "lat": 14.6139988, "lon": 120.9667347, "tags": {"addr:city": "Manila", "addr:postcode": "1012", "addr:street": "Santa Maria Street", "amenity": "cafe", "cuisine": "bubble_tea", "facebook": "https://www.facebook.com/Tap-Tea-107596854966427", "name": "Tap Tea", "payment:cash": "yes"}}, {"type": "node", "id": 9177831338, "lat": 14.6267177, "lon": 120.9960053, "tags": {"addr2:street": "Bulusan", "addr:street": "Calamba", "amenity": "cafe", "contact:facebook": "ahoncafe", "contact:instagram": "ahoncafe", "contact:phone": "+639175026115", "name": "Ahon Cafe", "opening_hours": "We-Su 14:00-20:30"}}, {"type": "node", "id": 9406990624, "lat": 14.5741582, "lon": 121.0193722, "tags": {"amenity": "cafe", "name": "Starbuck's"}}, {"type": "node", "id": 9406990818, "lat": 14.5759042, "lon": 121.0198794, "tags": {"amenity": "cafe", "name": "Black Canyon Thai"}}, {"type": "node", "id": 9504066217, "lat": 14.5909497, "lon": 121.0057308, "tags": {"addr:housenumber": "2387", "addr:street": "Beata Street", "amenity": "cafe", "cuisine": "breakfast;coffee_shop;diner;pancake;pasta;sandwich;savory_pancakes", "name": "Kape Siklo", "opening_hours": "Mo-Su 11:00-23:00", "website": "https://www.facebook.com/Kape.Siklo/"}}, {"type": "node", "id": 9785549707, "lat": 14.5919097, "lon": 120.973632, "tags": {"addr:street": "Cabildo Street", "amenity": "cafe", "check_date": "2024-03-10", "contact:facebook": "belfrycafe", "name": "Belfry Caf\u00e9", "opening_hours": "Mo-Su 09:00-22:00", "outdoor_seating": "patio", "phone": "+63 926 628 7133"}}, {"type": "node", "id": 9897674600, "lat": 14.6069247, "lon": 120.9778193, "tags": {"addr:city": "Manila", "addr:street": "Masangkay Street", "amenity": "cafe", "cuisine": "bubble_tea", "name": "Black Scoop Cafe", "outdoor_seating": "no", "website": "https://www.blackscoopcafe.com/"}}, {"type": "node", "id": 9897807021, "lat": 14.5969994, "lon": 120.9776178, "tags": {"addr:city": "Manila", "addr:street": "Escolta Street", "amenity": "cafe", "cuisine": "bubble_tea", "name": "Bon Appetea", "website": "https://www.bonappetea.com/"}}, {"type": "node", "id": 9898139559, "lat": 14.6000608, "lon": 120.974993, "tags": {"addr:city": "Manila", "addr:housename": "Ramada Manila Central Hotel", "addr:street": "Ongpin Street", "air_conditioning": "yes", "amenity": "cafe", "capacity": "9", "cuisine": "bubble_tea", "indoor_seating": "yes", "name": "Sharetea", "name:zh-Hant": "\u6b47\u8173\u4ead", "outdoor_seating": "no", "payment:credit_cards": "no", "payment:debit_cards": "no", "takeaway": "yes", "toilets": "no", "wheelchair": "no"}}, {"type": "node", "id": 9905385023, "lat": 14.6003699, "lon": 120.9811162, "tags": {"addr:city": "Manila", "addr:street": "Ronquillo Street", "amenity": "cafe", "cuisine": "bubble_tea", "name": "Black Scoop Cafe"}}, {"type": "node", "id": 9991876803, "lat": 14.5856231, "lon": 121.0092923, "tags": {"amenity": "cafe", "cuisine": "coffee_shop", "name": "Kape Barato"}}, {"type": "node", "id": 10079584692, "lat": 14.6150156, "lon": 120.9991803, "tags": {"addr:city": "Manila", "addr:postcode": "1008", "addr:street": "Espa\u00f1a Boulevard", "amenity": "cafe", "cuisine": "donut;coffee_shop", "name": "Dunkin Donut Petron - Espa\u00f1a"}}, {"type": "node", "id": 10158980327, "lat": 14.596345, "lon": 121.0140158, "tags": {"amenity": "cafe", "name": "Tzu Chi Caf\u00e9"}}, {"type": "node", "id": 10170284060, "lat": 14.5646854, "lon": 121.00192, "tags": {"addr:city": "Makati", "addr:floor": "2", "addr:street": "Zobel Roxas Street", "amenity": "cafe", "contact:email": "foundersdonutsPH@gmail.com", "contact:facebook": "foundersdonutsph", "contact:phone": "+63945 882 5167", "cuisine": "donut", "level": "1", "name": "Founders Donut", "opening_hours": "Mo-Sa 09:00-20:00", "outdoor_seating": "no"}}, {"type": "node", "id": 10177457517, "lat": 14.5665637, "lon": 120.9935621, "tags": {"addr:street": "Taft Avenue", "amenity": "cafe", "name": "Kurumi Milk Tea Bar", "opening_hours": "Mo-Su 12:00-20:00"}}, {"type": "node", "id": 10177459817, "lat": 14.5668294, "lon": 120.9934561, "tags": {"addr:street": "Taft Avenue", "amenity": "cafe", "name": "Colobaba Cafe", "opening_hours": "24/7"}}, {"type": "node", "id": 10177462917, "lat": 14.5653511, "lon": 120.9947375, "tags": {"addr:street": "Taft Avenue", "amenity": "cafe", "check_date": "2025-03-22", "internet_access": "wlan", "internet_access:fee": "customers", "name": "Projuice", "opening_hours": "08:00-24:00"}}, {"type": "node", "id": 10177472417, "lat": 14.5683871, "lon": 120.9926533, "tags": {"addr:city": "Manila", "addr:street": "Taft Avenue", "air_conditioning": "yes", "amenity": "cafe", "name": "Kaffeinated"}}, {"type": "node", "id": 10177485917, "lat": 14.5659187, "lon": 120.9933474, "tags": {"addr:street": "Taft Avenue", "amenity": "cafe", "name": "royaltea"}}, {"type": "node", "id": 10180119917, "lat": 14.5618428, "lon": 120.9952306, "tags": {"amenity": "cafe", "name": "Abbyly Tea Cafe"}}, {"type": "node", "id": 10279199461, "lat": 14.608111, "lon": 120.9861626, "tags": {"addr:street": "P. Campa Street", "amenity": "cafe", "name": "Duke's Castle Cafe", "opening_hours": "Mo-Fr 10:00-00:00;Sa-Su 10:00-22:00", "phone": "+639976831545", "source": "interpolation", "source_ref": "https://osm.org/note/3486129", "start_date": "2022-09"}}, {"type": "node", "id": 10558567083, "lat": 14.592638, "lon": 120.9722681}, {"type": "node", "id": 10576031764, "lat": 14.5639572, "lon": 121.0017043, "tags": {"amenity": "cafe", "dog": "yes", "name": "Papa Kape", "opening_hours": "Mo-Su 07:00-11:00, 16:00-20:00", "payment:cards": "no", "payment:cash": "yes", "wheelchair": "limited"}}, {"type": "node", "id": 10603841594, "lat": 14.5661856, "lon": 120.9931512, "tags": {"amenity": "cafe", "name": "Boss Cafe"}}, {"type": "node", "id": 10603857240, "lat": 14.564671, "lon": 120.9947445, "tags": {"amenity": "cafe", "cuisine": "bubble_tea", "internet_access": "no", "name": "Milktea Shop"}}, {"type": "node", "id": 10750196407, "lat": 14.5883521, "lon": 121.0020311, "tags": {"addr:street": "East Zamora Street", "amenity": "cafe", "email": "bonaparteacafe@gmail.com", "name:en": "BonApaTea Caf\u00e9", "opening_hours": "Mo-Su 15:00-23:00", "phone": "09060588900"}}, {"type": "node", "id": 10752370705, "lat": 14.5661946, "lon": 120.9924366, "tags": {"addr:street": "Fidel A. Reyes Street", "amenity": "cafe", "cuisine": "coffee_shop", "name": "Ezpresso"}}, {"type": "node", "id": 10752383411, "lat": 14.5659758, "lon": 120.9930222, "tags": {"amenity": "cafe", "internet_access": "wlan", "name": "Chimmy"}}, {"type": "node", "id": 10752383706, "lat": 14.566626, "lon": 120.9927325, "tags": {"amenity": "cafe", "brand": "Quickly", "brand:en": "Quickly", "brand:wikidata": "Q3771463", "brand:zh": "\u5feb\u53ef\u7acb", "cuisine": "bubble_tea", "name": "Quickly", "name:en": "Quickly", "name:zh": "\u5feb\u53ef\u7acb", "takeaway": "yes"}}, {"type": "node", "id": 10752396505, "lat": 14.5658193, "lon": 120.9930943, "tags": {"addr:street": "Fidel A. Reyes Street", "amenity": "cafe", "name": "Nitro 7 Coffee Bar", "opening_hours": "Mo-Su 07:00-20:00"}}, {"type": "node", "id": 10752396605, "lat": 14.5660753, "lon": 120.9932423, "tags": {"addr:street": "Taft Avenue", "amenity": "cafe", "check_date": "2024-04-12", "internet_access": "no", "level": "0", "name": "BIG BOSS", "payment:cash": "yes", "payment:credit_cards": "yes", "payment:debit_cards": "yes", "wheelchair": "limited"}}, {"type": "node", "id": 10752406805, "lat": 14.5662592, "lon": 120.9926064, "tags": {"amenity": "cafe", "name": "St. Cafe Manila"}}, {"type": "node", "id": 10752434806, "lat": 14.566167, "lon": 120.9924041, "tags": {"addr:street": "Fidel A. Reyes Street", "amenity": "cafe", "name": "Ezpresso"}}, {"type": "node", "id": 11193061174, "lat": 14.6028015, "lon": 120.9738655, "tags": {"addr:floor": "G", "amenity": "cafe", "brand": "Starbucks", "cuisine": "coffee_shop", "level": "0", "name": "Starbucks", "official_name": "Starbucks Coffee", "takeaway": "yes"}}, {"type": "node", "id": 11193061177, "lat": 14.603693, "lon": 120.9736092, "tags": {"amenity": "cafe", "check_date": "2023-11-22", "name": "Royal Tea", "opening_hours": "10:00-21:00"}}, {"type": "node", "id": 11193100093, "lat": 14.603383, "lon": 120.973981, "tags": {"amenity": "cafe", "cuisine": "donut", "name": "J. Co"}}, {"type": "node", "id": 11193100096, "lat": 14.603116, "lon": 120.9730901, "tags": {"addr:floor": "G", "air_conditioning": "yes", "amenity": "cafe", "check_date": "2023-11-22", "cuisine": "coffee_shop", "indoor_seating": "yes", "level": "0", "name": "UCC Coffee Caf\u00e9 Terrace", "opening_hours": "10:00-22:00", "outdoor_seating": "no"}}, {"type": "node", "id": 11193128215, "lat": 14.5650914, "lon": 120.9930681, "tags": {"amenity": "cafe", "brand": "The Coffee Bean & Tea Leaf", "brand:wikidata": "Q1141384", "cuisine": "coffee_shop", "name": "The Coffee Bean & Tea Leaf", "takeaway": "yes"}}, {"type": "node", "id": 11292602404, "lat": 14.5617304, "lon": 120.9945061, "tags": {"amenity": "cafe", "name": "D\u2019 Cream"}}, {"type": "node", "id": 11365940489, "lat": 14.565191, "lon": 120.9943866, "tags": {"addr:housename": "Burgundy Transpacific Place", "addr:street": "Taft Avenue", "amenity": "cafe", "check_date": "2025-03-22", "internet_access": "wlan", "internet_access:fee": "no", "name": "Drip Kofi", "opening_hours": "08:00-24:00", "payment:cards": "no", "payment:cash": "yes", "payment:credit_cards": "no", "payment:debit_cards": "no"}}, {"type": "node", "id": 11370132713, "lat": 14.5987554, "lon": 120.9790215, "tags": {"amenity": "cafe", "check_date": "2023-11-23", "name": "BoredEgg"}}, {"type": "node", "id": 11389903383, "lat": 14.578079, "lon": 120.9811395, "tags": {"addr:city": "Manila", "addr:housenumber": "1200", "addr:postcode": "1000", "addr:street": "A. Mabini Street", "air_conditioning": "yes", "amenity": "cafe", "contact:facebook": "https://www.facebook.com/profile.php?id=100088872506934", "cuisine": "palestinian", "level": "0", "name": "Cafe Habib", "outdoor_seating": "no", "payment:cash": "yes", "smoking": "no"}}, {"type": "node", "id": 11438491595, "lat": 14.585434, "lon": 121.0101358}, {"type": "node", "id": 11438491596, "lat": 14.5854483, "lon": 121.010183}, {"type": "node", "id": 11438491597, "lat": 14.5853814, "lon": 121.0102103}, {"type": "node", "id": 11438491598, "lat": 14.5853784, "lon": 121.0101805}, {"type": "node", "id": 11438491599, "lat": 14.585395, "lon": 121.010151}, {"type": "node", "id": 11495407165, "lat": 14.5634058, "lon": 121.0102984, "tags": {"amenity": "cafe", "cuisine": "bubble_tea", "name": "Tapi Makati"}}, {"type": "node", "id": 11499298245, "lat": 14.619991, "lon": 121.0006884, "tags": {"amenity": "cafe", "name": "Pickup Coffee", "takeaway": "only"}}, {"type": "node", "id": 11536358318, "lat": 14.5878073, "lon": 121.024307, "tags": {"amenity": "cafe", "cuisine": "bubble_tea"}}, {"type": "node", "id": 11536706467, "lat": 14.5917227, "lon": 121.0036472, "tags": {"amenity": "cafe", "internet_access": "no", "name": "Big Brew Cafe"}}, {"type": "node", "id": 11538740972, "lat": 14.584359, "lon": 120.9988117, "tags": {"amenity": "cafe", "cuisine": "coffee_shop", "name": "big brew"}}, {"type": "node", "id": 11543588811, "lat": 14.5850257, "lon": 121.0003566, "tags": {"amenity": "cafe", "name": "Big Brew Cafe"}}, {"type": "node", "id": 11710850481, "lat": 14.5896171, "lon": 120.9750097, "tags": {"addr2:street": "Real Street", "addr:street": "General Luna Street", "amenity": "cafe", "check_date": "2024-03-10", "name": "Cafe Intramuros"}}, {"type": "node", "id": 11729816004, "lat": 14.5916703, "lon": 120.9744016, "tags": {"amenity": "cafe", "cuisine": "coffee_shop", "name": "Cafe Janealo"}}, {"type": "node", "id": 11733705498, "lat": 14.5663499, "lon": 120.9926171, "tags": {"amenity": "cafe", "check_date": "2024-03-15", "name": "Mood Coffee"}}, {"type": "node", "id": 11733705506, "lat": 14.5672799, "lon": 120.9919657, "tags": {"amenity": "cafe", "check_date": "2024-03-15", "name": "Juan Caf\u00e9"}}, {"type": "node", "id": 11733708558, "lat": 14.5667318, "lon": 120.9926611, "tags": {"amenity": "cafe", "check_date": "2024-03-15", "internet_access": "wlan", "internet_access:fee": "no", "level": "2", "name": "Coffee Spot", "payment:cards": "no", "payment:cash": "yes", "payment:credit_cards": "no", "payment:debit_cards": "no"}}, {"type": "node", "id": 11733708565, "lat": 14.5672108, "lon": 120.9918077, "tags": {"amenity": "cafe", "check_date": "2024-03-15", "cuisine": "coffee_shop;bubble_tea", "name": "Juan Cafe", "outdoor_seating": "no", "payment:cards": "no", "payment:cash": "yes", "payment:credit_cards": "no", "payment:debit_cards": "no"}}, {"type": "node", "id": 11733777261, "lat": 14.5672469, "lon": 120.9925192, "tags": {"amenity": "cafe", "check_date": "2024-03-15", "cuisine": "bubble_tea", "name": "Tealive"}}, {"type": "node", "id": 11733777263, "lat": 14.5673899, "lon": 120.9919815, "tags": {"amenity": "cafe", "check_date": "2024-03-15", "cuisine": "bubble_tea", "name": "Hao Ming"}}, {"type": "node", "id": 11733829779, "lat": 14.5648183, "lon": 120.9928876, "tags": {"amenity": "cafe", "check_date": "2024-03-15", "name": "Coffee Bean"}}, {"type": "node", "id": 11736280907, "lat": 14.5795006, "lon": 121.0126483, "tags": {"amenity": "cafe", "check_date": "2024-09-28", "cuisine": "coffee_shop;breakfast", "internet_access": "wlan", "internet_access:fee": "no", "name": "Balai Kaffa", "outdoor_seating": "yes", "payment:cash": "yes", "payment:credit_cards": "yes", "payment:debit_cards": "yes", "wheelchair": "yes"}}, {"type": "node", "id": 11736280912, "lat": 14.5784958, "lon": 121.0118887, "tags": {"amenity": "cafe", "check_date": "2024-03-16", "internet_access": "wlan", "internet_access:fee": "no", "name": "CALLE CAFE", "payment:cards": "no", "payment:cash": "yes", "payment:credit_cards": "no", "payment:debit_cards": "no", "wheelchair": "yes"}}, {"type": "node", "id": 11736280913, "lat": 14.5779648, "lon": 121.0106569, "tags": {"amenity": "cafe", "check_date": "2024-03-16", "internet_access": "wlan", "internet_access:fee": "no", "name": "FaB Caffe", "payment:cards": "no", "payment:cash": "yes", "payment:credit_cards": "no", "payment:debit_cards": "no", "wheelchair": "yes"}}, {"type": "node", "id": 11738049367, "lat": 14.5882058, "lon": 120.9964961, "tags": {"addr:housenumber": "SH-08", "addr:street": "Paz Mendoza Guazon Street", "amenity": "cafe", "check_date": "2024-03-17", "cuisine": "bubble_tea", "name": "My. Girl - Milk Tea and Coffee", "wheelchair": "no"}}, {"type": "node", "id": 11739050956, "lat": 14.5902987, "lon": 120.9823734, "tags": {"addr:floor": "L2", "amenity": "cafe", "name": "Happy Lemon"}}, {"type": "node", "id": 11739060478, "lat": 14.5898185, "lon": 120.9838747, "tags": {"addr:floor": "UG", "amenity": "cafe", "brand": "Chatime", "brand:wikidata": "Q16829306", "cuisine": "bubble_tea", "name": "Chatime", "takeaway": "yes"}}, {"type": "node", "id": 11739060492, "lat": 14.5897562, "lon": 120.9837346, "tags": {"addr:floor": "UG", "amenity": "cafe", "name": "Mary Grace"}}, {"type": "node", "id": 11739060507, "lat": 14.5902649, "lon": 120.983231, "tags": {"addr:floor": "UG", "amenity": "cafe", "name": "The French Baker", "shop": "bakery"}}, {"type": "node", "id": 11754890373, "lat": 14.5900936, "lon": 120.9824297, "tags": {"addr:floor": "L4", "amenity": "cafe", "name": "CoCo Fresh Tea & Juice"}}, {"type": "node", "id": 11754890462, "lat": 14.590121, "lon": 120.9834895, "tags": {"addr:floor": "LG", "amenity": "cafe", "brand": "Gong Cha", "brand:wikidata": "Q5581670", "brand:zh": "\u8ca2\u8336", "cuisine": "bubble_tea", "int_name": "Gong Cha", "name": "Gong Cha", "name:zh": "\u8ca2\u8336", "takeaway": "yes"}}, {"type": "node", "id": 11754890467, "lat": 14.5901803, "lon": 120.9833166, "tags": {"addr:floor": "LG", "amenity": "cafe", "name": "Coffee Corner"}}, {"type": "node", "id": 11754890493, "lat": 14.5901974, "lon": 120.9835405, "tags": {"addr:floor": "LG", "amenity": "cafe", "name": "The Brewed Buddies"}}, {"type": "node", "id": 11757381698, "lat": 14.5593277, "lon": 120.9960653, "tags": {"addr:housenumber": "1768-C", "addr:street": "Taft Avenue", "amenity": "cafe", "check_date": "2024-03-24", "cuisine": "korean;coffee_shop;coffee;bread", "internet_access": "wlan", "internet_access:fee": "customers", "name": "Unnie Cafe", "opening_hours": "Mo-Fr 10:00-20:00", "outdoor_seating": "no", "payment:cards": "no", "payment:cash": "yes", "payment:credit_cards": "no", "payment:debit_cards": "no", "wheelchair": "yes"}}, {"type": "node", "id": 11758290024, "lat": 14.5622789, "lon": 120.9954627, "tags": {"amenity": "cafe", "check_date": "2024-03-24", "cuisine": "bubble_tea", "name": "Coast Milk Tea Shop", "opening_hours": "07:00-22:00"}}, {"type": "node", "id": 11808728491, "lat": 14.5653773, "lon": 120.9941784, "tags": {"addr:floor": "G", "amenity": "cafe", "check_date": "2025-03-22", "cuisine": "bubble_tea", "internet_access": "no", "name": "Gong Cha", "opening_hours": "10:00-20:00", "payment:cash": "yes", "payment:credit_cards": "yes", "payment:debit_cards": "yes", "wheelchair": "yes"}}, {"type": "node", "id": 11868641610, "lat": 14.5764249, "lon": 120.9834798, "tags": {"addr:floor": "1", "amenity": "cafe", "level": "0", "name": "Highlands Coffee"}}, {"type": "node", "id": 11868641644, "lat": 14.5751691, "lon": 120.9840048, "tags": {"addr:floor": "1", "amenity": "cafe", "level": "0", "name": "Starbucks"}}, {"type": "node", "id": 11868650688, "lat": 14.5754975, "lon": 120.9848176, "tags": {"addr:floor": "1", "amenity": "cafe", "level": "0", "name": "BLK 513"}}, {"type": "node", "id": 11868650698, "lat": 14.5760926, "lon": 120.9833899, "tags": {"addr:floor": "1", "amenity": "cafe", "check_date": "April 2024", "level": "0", "name": "J. Co"}}, {"type": "node", "id": 11868650703, "lat": 14.5753028, "lon": 120.9846217, "tags": {"addr:floor": "1", "amenity": "cafe", "check_date": "April 2024", "level": "0", "name": "Lugang Cafe"}}, {"type": "node", "id": 11868650707, "lat": 14.5749822, "lon": 120.9845279, "tags": {"addr:floor": "1", "amenity": "cafe", "check_date": "April 2024", "level": "0", "name": "UCC Clockwork"}}, {"type": "node", "id": 11936997450, "lat": 14.6196451, "lon": 120.98506, "tags": {"amenity": "cafe", "cuisine": "bubble_tea;coffee_shop", "name": "Black Scoop", "outdoor_seating": "no"}}, {"type": "node", "id": 11992607156, "lat": 14.612291, "lon": 120.9915767, "tags": {"amenity": "cafe", "name": "0402 Coffee"}}, {"type": "node", "id": 11993667240, "lat": 14.6161448, "lon": 120.9986312, "tags": {"amenity": "cafe", "name": "Heavens Brew"}}, {"type": "node", "id": 11994767733, "lat": 14.6165316, "lon": 120.9937699, "tags": {"amenity": "cafe", "name": "Cafe Alnardo"}}, {"type": "node", "id": 11994817449, "lat": 14.6178876, "lon": 120.995041, "tags": {"amenity": "cafe", "cuisine": "bubble_tea", "name": "Baa Baa Thai Tea"}}, {"type": "node", "id": 11994867268, "lat": 14.6181047, "lon": 120.9933391, "tags": {"amenity": "cafe", "name": "Perere's Cafe"}}, {"type": "node", "id": 11994901341, "lat": 14.6228819, "lon": 120.9897686, "tags": {"amenity": "cafe", "cuisine": "bubble_tea", "name": "Frapatea"}}, {"type": "node", "id": 11994909130, "lat": 14.6216955, "lon": 120.9912059, "tags": {"amenity": "cafe", "name": "East Cafe"}}, {"type": "node", "id": 11994944749, "lat": 14.6199137, "lon": 120.9929106, "tags": {"amenity": "cafe", "cuisine": "coffee_shop", "name": "Kape Ni Bossing"}}, {"type": "node", "id": 11994973893, "lat": 14.6188544, "lon": 120.993634, "tags": {"amenity": "cafe", "cuisine": "bubble_tea", "name": "BigBrew"}}, {"type": "node", "id": 11997125024, "lat": 14.617389, "lon": 120.9952964, "tags": {"addr:street": "A. Maceda Street", "amenity": "cafe", "name": "Meet Cute Cafe"}}, {"type": "node", "id": 11997196875, "lat": 14.6166746, "lon": 121.0021021, "tags": {"amenity": "cafe", "cuisine": "bubble_tea", "name": "Zagu"}}, {"type": "node", "id": 11997976538, "lat": 14.6183169, "lon": 120.9635195, "tags": {"amenity": "cafe", "cuisine": "bubble_tea", "name": "29:11 Cafe"}}, {"type": "node", "id": 12047820209, "lat": 14.6100843, "lon": 121.0036909, "tags": {"addr:city": "Sampaloc", "addr:housenumber": "437", "addr:postcode": "1008", "addr:province": "Metro Manila", "addr:street": "Calabash B Street", "amenity": "cafe", "contact:facebook": "https://www.facebook.com/p/ZeroDegree-EspressoBar-61561530042268/", "cuisine": "coffee_shop", "name": "Zero Degree Espresso Bar", "opening_hours": "Tu-Su 14:00-22:00", "phone": "+639266014693"}}, {"type": "node", "id": 12061072020, "lat": 14.5955933, "lon": 121.0215055, "tags": {"addr:housename": "Do\u00f1e Elena Tower", "addr:street": "P. Sanchez Street", "air_conditioning": "no", "amenity": "cafe", "check_date": "2024-07-18", "cuisine": "coffee_shop", "delivery": "no", "drive_through": "no", "name": "Pickup Coffee", "outdoor_seating": "yes", "wheelchair": "yes"}}, {"type": "node", "id": 12128146760, "lat": 14.6065947, "lon": 120.9896555, "tags": {"addr:city": "Manila", "addr:district": "Sampaloc", "addr:postcode": "1008", "addr:province": "Metro Manila", "addr:street": "Padre Noval Street", "air_conditioning": "yes", "amenity": "cafe", "branch": "Espa\u00f1a", "cuisine": "coffee_shop", "internet_access": "wlan", "internet_access:fee": "customers", "name": "Calle Cafe by Don Gabriel", "outdoor_seating": "no"}}, {"type": "node", "id": 12128146761, "lat": 14.6063928, "lon": 120.98885, "tags": {"addr:city": "Manila", "addr:district": "Sampaloc", "addr:housename": "Grand Residences Espa\u00f1a 1", "addr:housenumber": "8010", "addr:neighbourhood": "Barangay 469", "addr:postcode": "1008", "addr:province": "Metro Manila", "addr:street": "Espa\u00f1a Boulevard", "addr:unit": "5, 6, 7", "air_conditioning": "yes", "amenity": "cafe", "cuisine": "coffee_shop;pastry", "internet_access": "wlan", "internet_access:fee": "customers", "name": "Sumu Cafe & Creative Space", "opening_hours": "Mo-Su 09:00-03:00", "outdoor_seating": "no", "phone": "+639629732061", "takeaway": "yes"}}, {"type": "node", "id": 12224021519, "lat": 14.5817245, "lon": 121.0121129, "tags": {"amenity": "cafe", "name": "Dunkin'", "opening_hours": "24/7", "wikidata": "Q847743"}}, {"type": "node", "id": 12272195012, "lat": 14.5967563, "lon": 120.9754884, "tags": {"amenity": "cafe", "brand": "Starbucks", "brand:wikidata": "Q37158", "cuisine": "coffee_shop", "name": "Starbucks - Noble Place Binondo", "official_name": "Starbucks Coffee", "opening_hours": "Mo-Su 01:00-22:00", "outdoor_seating": "no", "takeaway": "yes"}}, {"type": "node", "id": 12286400090, "lat": 14.5950665, "lon": 120.9765037, "tags": {"amenity": "cafe", "name": "Brew Point"}}, {"type": "node", "id": 12301296061, "lat": 14.6020555, "lon": 121.0121032, "tags": {"amenity": "cafe", "branch": "Sta. Mesa - Stop and Shop", "brand": "Starbucks", "brand:wikidata": "Q37158", "cuisine": "coffee_shop", "name": "Starbucks", "official_name": "Starbucks Coffee", "takeaway": "yes"}}, {"type": "node", "id": 12312768701, "lat": 14.6122118, "lon": 120.9881095, "tags": {"amenity": "cafe", "cuisine": "japanese", "name": "PapJap", "opening_hours": "24/7"}}, {"type": "node", "id": 12313187501, "lat": 14.6062003, "lon": 120.9892636, "tags": {"amenity": "cafe", "internet_access": "wlan", "name": "Coffee Project", "opening_hours": "Mo-Su 07:00-22:00"}}, {"type": "node", "id": 12342809745, "lat": 14.5752755, "lon": 120.9842321, "tags": {"addr:floor": "2", "amenity": "cafe", "level": "1", "name": "Mary Grace"}}, {"type": "node", "id": 12342809747, "lat": 14.5753662, "lon": 120.9844357, "tags": {"addr:floor": "2", "amenity": "cafe", "level": "1", "name": "Caramia"}}, {"type": "node", "id": 12342809751, "lat": 14.5767859, "lon": 120.9841354, "tags": {"addr:floor": "1", "amenity": "cafe", "level": "0", "name": "Paik's Coffee"}}, {"type": "node", "id": 12342815514, "lat": 14.5749462, "lon": 120.9843538, "tags": {"addr:floor": "2", "amenity": "cafe", "level": "1", "name": "The Coffee Bean & Tea Leaf"}}, {"type": "node", "id": 12342815520, "lat": 14.5750804, "lon": 120.9844393, "tags": {"addr:floor": "2", "amenity": "cafe", "level": "1", "name": "Conti's Bakery and Cafe", "shop": "bakery"}}, {"type": "node", "id": 12397609757, "lat": 14.5744607, "lon": 121.0067057, "tags": {"amenity": "cafe", "check_date": "2024-12-05", "cuisine": "coffee_shop", "internet_access": "wlan", "internet_access:fee": "customers", "name": "Kape Siklo", "payment:cards": "no", "payment:cash": "yes", "payment:credit_cards": "no", "payment:debit_cards": "no"}}, {"type": "node", "id": 12414482572, "lat": 14.6044417, "lon": 120.9878887, "tags": {"amenity": "cafe", "indoor_seating": "no", "name": "D'Urban Cafe", "outdoor_seating": "no", "takeaway": "only"}}, {"type": "node", "id": 12414857139, "lat": 14.6043319, "lon": 120.9878372, "tags": {"air_conditioning": "yes", "amenity": "cafe", "indoor_seating": "yes", "name": "Tomoro Coffee", "opening_hours": "Mo-Sa 07:00-23:00; Su 07:00-22:00", "outdoor_seating": "no", "wheelchair": "yes"}}, {"type": "node", "id": 12414861499, "lat": 14.6047678, "lon": 120.9879466, "tags": {"air_conditioning": "yes", "amenity": "cafe", "indoor_seating": "yes", "name": "Calle Cafe", "outdoor_seating": "no", "smoking": "no", "wheelchair": "no"}}, {"type": "node", "id": 12414883919, "lat": 14.6033851, "lon": 120.9876164, "tags": {"air_conditioning": "yes", "amenity": "cafe", "indoor_seating": "yes", "name": "Obscure Cafe", "opening_hours": "Mo-Sa 06:00-24:00", "outdoor_seating": "no", "wheelchair": "no"}}, {"type": "node", "id": 12453002243, "lat": 14.5793748, "lon": 120.9728056, "tags": {"amenity": "cafe", "name": "Garden Cafe by Hotel H2O"}}, {"type": "node", "id": 12498566932, "lat": 14.5754986, "lon": 120.9842038, "tags": {"addr:street": "Robinsons Place Manila", "amenity": "cafe", "brand": "Tim Hortons", "brand:wikidata": "Q175106", "cuisine": "coffee_shop", "name": "Tim Hortons", "takeaway": "yes"}}, {"type": "node", "id": 12583335679, "lat": 14.5946562, "lon": 120.9697355, "tags": {"amenity": "cafe", "name": "Papa Kape", "opening_hours": "Mo-Su 09:00-21:00", "source_ref": "https://osm.org/notes/4146623"}}, {"type": "node", "id": 12647066223, "lat": 14.5788466, "lon": 120.9956689, "tags": {"addr:housenumber": "1604", "addr:street": "Pedro Gil Steet cor. Paz Street, Barangay 681, Zone 74, District V, Paco", "amenity": "cafe", "name": "Zus Coffee", "opening_hours": "Mo-Su 06:00-21:00", "wikidata": "Q110811473"}}, {"type": "node", "id": 12683935533, "lat": 14.5808605, "lon": 120.9812978, "tags": {"amenity": "cafe", "name": "Bon Appetea"}}, {"type": "node", "id": 12683935536, "lat": 14.5806087, "lon": 120.9809585, "tags": {"amenity": "cafe", "name": "Cafe Esperanza"}}, {"type": "node", "id": 12686141020, "lat": 14.5667119, "lon": 120.9924609, "tags": {"amenity": "cafe", "check_date": "2025-03-21", "cuisine": "coffee_shop", "name": "Auro Chocolate Cafe"}}, {"type": "node", "id": 12690311039, "lat": 14.5652746, "lon": 120.9943778, "tags": {"addr:housename": "Burgundy Transpacific Place", "addr:street": "Taft Avenue", "amenity": "cafe", "check_date": "2025-03-22", "name": "\u00e9llatte coffee", "opening_hours": "08:00-23:00"}}, {"type": "node", "id": 12690400738, "lat": 14.5651881, "lon": 120.9948657, "tags": {"amenity": "cafe", "check_date": "2025-03-22", "name": "Busy Dough", "opening_hours": "11:00-22:00"}}, {"type": "node", "id": 12692449620, "lat": 14.5736233, "lon": 120.9843936, "tags": {"amenity": "cafe", "check_date": "2025-03-23", "name": "Station 85 Cafe", "opening_hours": "24/7"}}, {"type": "node", "id": 12692522687, "lat": 14.5633048, "lon": 120.9946194, "tags": {"amenity": "cafe", "check_date": "2025-03-23", "name": "tomo coffee", "opening_hours": "06:00-23:45"}}, {"type": "node", "id": 12692566016, "lat": 14.5639989, "lon": 120.9947366, "tags": {"amenity": "cafe", "check_date": "2025-03-23", "internet_access": "wlan", "internet_access:fee": "customers", "name": "Calle Cafe by don gabriel", "opening_hours": "08:00-02:00"}}, {"type": "node", "id": 12802006503, "lat": 14.5893586, "lon": 120.9747584, "tags": {"amenity": "cafe", "name": "Los Frailes Cafe"}}, {"type": "node", "id": 12803663501, "lat": 14.5916991, "lon": 120.974185, "tags": {"addr:housenumber": "398", "addr:postcode": "1002", "addr:street": "Cabildo Street", "amenity": "cafe", "contact:facebook": "61574759416664", "contact:instagram": "grottoloungeph", "cuisine": "asian", "email": "grottohookahlounge@gmail.com", "internet_access": "wlan", "name": "Grotto Hookah Lounge", "opening_hours": "Mo-Su 11:00-01:00", "phone": "+639271702485", "website:menu": "https://smartweb-ecms.tabsquare.com/home"}}, {"type": "node", "id": 12828485965, "lat": 14.5631494, "lon": 121.0002194, "tags": {"amenity": "cafe", "name": "Feliza Cafe"}}, {"type": "node", "id": 12954095330, "lat": 14.598986, "lon": 120.9692232, "tags": {"air_conditioning": "no", "amenity": "cafe", "name": "D' Cream"}}, {"type": "way", "id": 38744099, "nodes": [459406076, 459406074, 7672563580, 459406075, 7672591686, 7672563583, 459406076], "tags": {"addr:city": "Manila", "addr:province": "Metro Manila", "amenity": "cafe", "building": "yes", "building:levels": "2", "cuisine": "coffee_shop", "name": "Coffee Bean & Tea Leaf"}}, {"type": "way", "id": 46913648, "nodes": [598901916, 598901919, 598901924, 598901929, 598901916], "tags": {"addr:city": "Manila", "addr:housenumber": "398", "addr:postcode": "1002", "addr:province": "Metro Manila", "addr:street": "Cabildo", "amenity": "cafe", "building": "yes", "cuisine": "coffee_shop", "height": "13", "name": "Aujen's Coffee"}}, {"type": "way", "id": 182994369, "nodes": [1933582683, 7881380432, 1933582686, 7881380433, 1933582653, 1933582645, 7881380431, 1933582683], "tags": {"addr:city": "Manila", "addr:postcode": "1015", "addr:province": "Metro Manila", "addr:street": "KB Lepanto Building, Sergio H. Loyola", "amenity": "cafe", "building": "yes", "cuisine": "coffee_shop", "internet_access": "yes", "name": "John's Sip & Toast", "smoking": "no"}}, {"type": "way", "id": 230778302, "nodes": [2392308391, 2392308389, 2392308390, 1736953325, 2392308391], "tags": {"addr:city": "Manila", "addr:housename": "Green Court Parking", "addr:province": "Metro Manila", "amenity": "cafe", "brand": "Starbucks", "brand:wikidata": "Q37158", "brand:wikipedia": "en:Starbucks", "building": "commercial", "building:levels": "2", "cuisine": "coffee_shop", "name": "Starbucks", "official_name": "Starbucks Coffee", "takeaway": "yes"}}, {"type": "way", "id": 262829240, "nodes": [2684848253, 2684848259, 2684848256, 2684848252, 2684848253], "tags": {"amenity": "cafe", "building": "yes", "cuisine": "bubble_tea", "name": "Big Brew"}}, {"type": "way", "id": 290705851, "nodes": [2942128854, 2942128849, 2942128848, 2942128852, 2942128854], "tags": {"addr:city": "Manila", "addr:postcode": "1009", "addr:province": "Metro Manila", "amenity": "cafe", "branch": "Santa Ana", "brand": "McDonald's", "brand:wikidata": "Q38076", "brand:wikipedia": "en:McDonald's", "brand:wikipedia:es": "McDonald's", "building": "commercial", "building:levels": "2", "cuisine": "bubble_tea", "diet:meat": "yes", "drive_through": "no", "name": "McDonald's", "name:ar": "\u0645\u0643\u062f\u0648\u0646\u0627\u0644\u062f\u0632", "name:en": "McDonald's", "name:es": "McDonald's", "name:ko": "\ub514\ubab0 \ub9e5\ub3c4\ub0a0\ub4dc", "name:ru": "\u041c\u0430\u043a\u0434\u043e\u043d\u0430\u043b\u044c\u0434\u0441", "opening_hours": "24/7", "takeaway": "yes"}}, {"type": "way", "id": 310901957, "nodes": [3164057550, 3164057546, 3164057534, 3164057541, 3164057550], "tags": {"addr:city": "Galas", "addr:housenumber": "66", "addr:postcode": "1113", "addr:street": "Unang Hakbang", "amenity": "cafe", "building": "yes", "building:levels": "0", "name": "Drey & Gab Ihawan"}}, {"type": "way", "id": 354250158, "nodes": [1974799675, 3600023237, 3600023238, 3600023239, 1974799675], "tags": {"amenity": "cafe", "name": "Dakasi"}}, {"type": "way", "id": 607837308, "nodes": [5759735254, 5759735251, 5759735252, 7738634050, 7738634051, 7738634049, 10558567083, 1034880811, 5759735254], "tags": {"amenity": "cafe", "building": "commercial", "building:levels": "1", "cuisine": "coffee_shop", "height": "8", "name": "Beanleaf", "roof:colour": "brown", "roof:shape": "hipped"}}, {"type": "way", "id": 1232948491, "nodes": [11438491595, 11438491596, 11438491597, 11438491598, 11438491599, 11438491595], "tags": {"amenity": "cafe", "building": "house"}}]}