{"version": 0.6, "generator": "Overpass API 0.7.62.7 375dc00a", "osm3s": {"timestamp_osm_base": "2025-07-19T10:05:10Z", "copyright": "The data included in this document is from www.openstreetmap.org. The data is made available under ODbL."}, "elements": [{"type": "node", "id": 1590605800, "lat": 30.3646659, "lon": -87.1693143}, {"type": "node", "id": 1604346143, "lat": 30.3646118, "lon": -87.1692821}, {"type": "node", "id": 1604346145, "lat": 30.3646686, "lon": -87.1691536}, {"type": "node", "id": 1604346146, "lat": 30.3647608, "lon": -87.1691437}, {"type": "node", "id": 2569263836, "lat": 30.4686924, "lon": -87.2387155}, {"type": "node", "id": 2569263837, "lat": 30.468523, "lon": -87.2386256}, {"type": "node", "id": 2569263838, "lat": 30.4684635, "lon": -87.2387725}, {"type": "node", "id": 2569263839, "lat": 30.4686329, "lon": -87.238867}, {"type": "node", "id": 2653124198, "lat": 30.468493, "lon": -87.2386997, "tags": {"drive_through": "yes"}}, {"type": "node", "id": 2653124202, "lat": 30.4685098, "lon": -87.2387983, "tags": {"access": "yes", "entrance": "yes"}}, {"type": "node", "id": 2875623509, "lat": 30.3476418, "lon": -87.2769712}, {"type": "node", "id": 3591076471, "lat": 30.4727385, "lon": -87.2095823}, {"type": "node", "id": 3591076472, "lat": 30.4726882, "lon": -87.2094562}, {"type": "node", "id": 3591076473, "lat": 30.4725684, "lon": -87.2095205}, {"type": "node", "id": 3591076474, "lat": 30.4726186, "lon": -87.2096466}, {"type": "node", "id": 3592619745, "lat": 30.4742935, "lon": -87.2157735}, {"type": "node", "id": 3592619746, "lat": 30.4740983, "lon": -87.2158505}, {"type": "node", "id": 3592619747, "lat": 30.4740762, "lon": -87.2157781}, {"type": "node", "id": 3592619748, "lat": 30.4742734, "lon": -87.2157011}, {"type": "node", "id": 3603373453, "lat": 30.4938078, "lon": -87.2236612}, {"type": "node", "id": 3603373454, "lat": 30.4937895, "lon": -87.2235621}, {"type": "node", "id": 3603373455, "lat": 30.4938749, "lon": -87.2235409}, {"type": "node", "id": 3603373456, "lat": 30.4938581, "lon": -87.2234259}, {"type": "node", "id": 3603373457, "lat": 30.4937879, "lon": -87.2234436}, {"type": "node", "id": 3603373458, "lat": 30.4937834, "lon": -87.2234241}, {"type": "node", "id": 3603373459, "lat": 30.4936538, "lon": -87.2234524}, {"type": "node", "id": 3603373460, "lat": 30.4936461, "lon": -87.2234153}, {"type": "node", "id": 3603373461, "lat": 30.493544, "lon": -87.2234436}, {"type": "node", "id": 3603373462, "lat": 30.4935684, "lon": -87.2235604}, {"type": "node", "id": 3603373463, "lat": 30.4936416, "lon": -87.2235427}, {"type": "node", "id": 3603373464, "lat": 30.4936507, "lon": -87.2235958}, {"type": "node", "id": 3603373465, "lat": 30.4937041, "lon": -87.2235851}, {"type": "node", "id": 3603373466, "lat": 30.4937148, "lon": -87.2236807}, {"type": "node", "id": 3611155875, "lat": 30.4183841, "lon": -87.2054922}, {"type": "node", "id": 3611155876, "lat": 30.418321, "lon": -87.20548}, {"type": "node", "id": 3611155877, "lat": 30.4183298, "lon": -87.2054231}, {"type": "node", "id": 3611155878, "lat": 30.4182614, "lon": -87.2054068}, {"type": "node", "id": 3611155879, "lat": 30.4182491, "lon": -87.2054617}, {"type": "node", "id": 3611155880, "lat": 30.4180791, "lon": -87.205421}, {"type": "node", "id": 3611155881, "lat": 30.4180476, "lon": -87.205604}, {"type": "node", "id": 3611155882, "lat": 30.4180668, "lon": -87.205606}, {"type": "node", "id": 3611155883, "lat": 30.418044, "lon": -87.2057158}, {"type": "node", "id": 3611155884, "lat": 30.4182789, "lon": -87.2057625}, {"type": "node", "id": 3611155886, "lat": 30.4183508, "lon": -87.205667}, {"type": "node", "id": 3625763777, "lat": 30.5318005, "lon": -87.2265455}, {"type": "node", "id": 3625763778, "lat": 30.5316074, "lon": -87.2265514}, {"type": "node", "id": 3625763779, "lat": 30.5316034, "lon": -87.2264813}, {"type": "node", "id": 3625763780, "lat": 30.5317995, "lon": -87.2264755}, {"type": "node", "id": 3663977036, "lat": 30.4072265, "lon": -87.2142143}, {"type": "node", "id": 3663977039, "lat": 30.4071862, "lon": -87.2144298}, {"type": "node", "id": 3663977040, "lat": 30.4071572, "lon": -87.2145908}, {"type": "node", "id": 3663977041, "lat": 30.4072858, "lon": -87.2146208}, {"type": "node", "id": 3663977042, "lat": 30.4073562, "lon": -87.2142407}, {"type": "node", "id": 3971178143, "lat": 30.4182965, "lon": -87.2056548}, {"type": "node", "id": 4215033547, "lat": 30.4078519, "lon": -87.2144044, "tags": {"addr:housenumber": "407", "addr:street": "South Palafox Street", "amenity": "cafe", "name": "Bodacious Brew"}}, {"type": "node", "id": 4732389125, "lat": 30.5298653, "lon": -87.2239094, "tags": {"addr:city": "Pensacola", "addr:housenumber": "1749", "addr:postcode": "32514", "addr:state": "FL", "addr:street": "East Nine Mile Road", "amenity": "cafe", "branch": "Target Pensacola Northeast 1273", "brand": "Starbucks", "brand:wikidata": "Q37158", "cuisine": "coffee_shop", "name": "Starbucks", "name:en": "Starbucks", "official_name": "Starbucks Coffee", "phone": "+1 850-473-8647", "ref": "91352", "takeaway": "yes", "website": "https://www.starbucks.com/store-locator/store/91352/target-pensacola-ne-1273-1749-e-nine-mile-rd-pensacola-fl-32514-us"}}, {"type": "node", "id": 4732543134, "lat": 30.5348111, "lon": -87.3135542, "tags": {"addr:city": "Pensacola", "addr:housenumber": "2200", "addr:postcode": "32534", "addr:state": "FL", "addr:street": "West Nine Mile Road", "addr:unit": "B", "amenity": "cafe", "branch": "Nine Mile & Pine Forest", "brand": "Starbucks", "brand:wikidata": "Q37158", "cuisine": "coffee_shop", "name": "Starbucks", "official_name": "Starbucks Coffee", "opening_hours": "Sa-Th 05:30-20:00; Fr 05:00-20:00", "phone": "+1 850-474-5236", "ref": "10754", "takeaway": "yes", "website": "https://www.starbucks.com/store-locator/store/10754/nine-mile-pine-forest-2200-w-nine-mile-rd-unit-b-pensacola-fl-325349415-"}}, {"type": "node", "id": 4743995125, "lat": 30.3647189, "lon": -87.1692937}, {"type": "node", "id": 4743995126, "lat": 30.3647107, "lon": -87.1692888}, {"type": "node", "id": 4743995127, "lat": 30.3647342, "lon": -87.1692593}, {"type": "node", "id": 4743995128, "lat": 30.3647148, "lon": -87.1692478}, {"type": "node", "id": 4743995129, "lat": 30.3647012, "lon": -87.1693104}, {"type": "node", "id": 4743995130, "lat": 30.3646746, "lon": -87.1692946}, {"type": "node", "id": 4743995131, "lat": 30.364708, "lon": -87.1691123}, {"type": "node", "id": 4743995132, "lat": 30.3646854, "lon": -87.1691635}, {"type": "node", "id": 5220940869, "lat": 30.3476208, "lon": -87.2767995}, {"type": "node", "id": 5220940870, "lat": 30.347505, "lon": -87.2768218}, {"type": "node", "id": 5220940871, "lat": 30.3475252, "lon": -87.2769885}, {"type": "node", "id": 5962170797, "lat": 30.4125257, "lon": -87.2151483, "tags": {"addr:city": "Pensacola", "addr:housenumber": "8", "addr:postcode": "32501", "addr:state": "FL", "addr:street": "South Palafox Street", "amenity": "cafe", "cuisine": "coffee_shop;crepe", "name": "Fosko Coffee Barre", "opening_hours": "Su-Th 06:30-20:00; Fr,Sa 06:30-22:00"}}, {"type": "node", "id": 7546531727, "lat": 30.4009819, "lon": -86.9842207}, {"type": "node", "id": 7546531760, "lat": 30.4007879, "lon": -86.983988}, {"type": "node", "id": 7546531804, "lat": 30.4009286, "lon": -86.9839507}, {"type": "node", "id": 7546531814, "lat": 30.4008412, "lon": -86.9842581}, {"type": "node", "id": 7700024088, "lat": 30.4243433, "lon": -87.2633679, "tags": {"addr:city": "Pensacola", "addr:housenumber": "3801", "addr:postcode": "32505", "addr:state": "FL", "addr:street": "Mobile Highway", "amenity": "cafe", "name": "Sea Barr of Stars", "outdoor_seating": "no"}}, {"type": "node", "id": 9278744317, "lat": 30.4943596, "lon": -87.2220014, "tags": {"addr:housenumber": "6700", "addr:postcode": "32504", "addr:street": "North Davis Highway", "amenity": "cafe", "cuisine": "bagel;cake;coffee_shop;crepe", "internet_access": "wlan", "name": "Coffee Guy Cafe", "opening_hours": "Mo-Fr 06:00-21:00; Sa 07:00-21:00; Su 08:00-21:00", "phone": "+1 (850) 466-2346", "website": "https://coffeeguycafe.com/"}}, {"type": "node", "id": 10091215548, "lat": 30.4076536, "lon": -87.2153827}, {"type": "node", "id": 10091215549, "lat": 30.4075384, "lon": -87.21536}, {"type": "node", "id": 10091215550, "lat": 30.4075113, "lon": -87.2155445}, {"type": "node", "id": 10091215551, "lat": 30.4076264, "lon": -87.2155672}, {"type": "node", "id": 10568992993, "lat": 30.3979529, "lon": -87.0075888}, {"type": "node", "id": 10568992994, "lat": 30.3979496, "lon": -87.0074732}, {"type": "node", "id": 10568992995, "lat": 30.3978778, "lon": -87.007476}, {"type": "node", "id": 10568992996, "lat": 30.3978811, "lon": -87.0075915}, {"type": "node", "id": 11659985291, "lat": 30.5332619, "lon": -87.2996676, "tags": {"addr:housenumber": "1449", "addr:street": "West Nine Mile Road", "addr:unit": "Suite 17", "amenity": "cafe", "check_date": "2024-02-24", "cuisine": "coffee_shop", "internet_access": "wlan", "internet_access:fee": "customers", "name": "Mrs. Jones Cold Brew", "opening_hours": "Mo,Su off; Tu-Sa 07:00-15:00", "outdoor_seating": "no", "website": "https://mrsjonescoldbrew.com", "wheelchair": "yes"}}, {"type": "node", "id": 11722015771, "lat": 30.4008091, "lon": -86.9840955}, {"type": "node", "id": 11999801769, "lat": 30.5332658, "lon": -87.2450279}, {"type": "node", "id": 11999801770, "lat": 30.5331113, "lon": -87.2450289}, {"type": "node", "id": 11999801771, "lat": 30.5331089, "lon": -87.2449034}, {"type": "node", "id": 11999801772, "lat": 30.5332645, "lon": -87.2449002}, {"type": "node", "id": 12455100001, "lat": 30.4359532, "lon": -87.2052636, "tags": {"addr:housenumber": "2050", "addr:postcode": "32503", "addr:street": "North 12th Avenue", "amenity": "cafe", "contact:instagram": "drink.jitterbug", "cuisine": "coffee_shop", "internet_access": "wlan", "name": "Jitterbug Beverage Company", "opening_hours": "Tu-Sa 07:30-18:00; Su 07:30-16:00", "website": "https://drinkjitterbug.com/"}}, {"type": "node", "id": 12801639337, "lat": 30.4817155, "lon": -87.227365, "tags": {"amenity": "cafe", "cuisine": "coffee_shop", "drive_through": "only"}}, {"type": "way", "id": 147222565, "nodes": [1590605800, 4743995130, 4743995129, 4743995126, 4743995125, 4743995127, 4743995128, 1604346146, 4743995131, 4743995132, 1604346145, 1604346143, 1590605800], "tags": {"addr:city": "Gulf Breeze", "addr:country": "US", "addr:housenumber": "346", "addr:postcode": "32561", "addr:state": "FL", "addr:street": "Gulf Breeze Parkway", "amenity": "cafe", "branch": "346 Gulf Breeze Parkway", "brand": "Starbucks", "brand:wikidata": "Q37158", "building": "commercial", "cuisine": "coffee_shop", "drive_through": "yes", "name": "Starbucks", "official_name": "Starbucks Coffee", "phone": "+1 850-934-1649", "ref": "12238", "source": "Bing;survey", "takeaway": "yes", "website": "https://www.starbucks.com/store-locator/store/12238/346-gulf-breeze-pkwy-346-gulf-breeze-pkwy-gulf-breeze-fl-325614492-us"}}, {"type": "way", "id": 250490043, "nodes": [2569263836, 2569263837, 2653124198, 2569263838, 2653124202, 2569263839, 2569263836], "tags": {"amenity": "cafe", "building": "yes", "building:levels": "1", "contact:website": "http://drowsypoetcoffee.com/", "cuisine": "coffee_shop", "internet_access": "wlan", "name": "The Drowsy Poet", "opening_hours": "Mo-Fr 06:00-21:00;Sa 07:00-21:00;Su 08:00-14:00"}}, {"type": "way", "id": 353326471, "nodes": [3591076471, 3591076472, 3591076473, 3591076474, 3591076471], "tags": {"addr:city": "Pensacola", "addr:housenumber": "5040", "addr:postcode": "32503", "addr:state": "FL", "addr:street": "Bayou Boulevard", "amenity": "cafe", "branch": "Bayou Boulevard & 9th Avenue", "brand": "Starbucks", "brand:wikidata": "Q37158", "building": "yes", "cuisine": "coffee_shop", "name": "Starbucks", "official_name": "Starbucks Coffee", "phone": "+1 850-484-8547", "ref": "16116", "takeaway": "yes", "website": "https://www.starbucks.com/store-locator/store/16116/bayou-blvd-9th-ave-5040-bayou-blvd-pensacola-fl-325032504-us"}}, {"type": "way", "id": 353479308, "nodes": [3592619745, 3592619746, 3592619747, 3592619748, 3592619745], "tags": {"addr:city": "Pensacola", "addr:housenumber": "5145", "addr:postcode": "32503", "addr:state": "FL", "addr:street": "Bayou Boulevard", "amenity": "cafe", "branch": "Bayou Boulevard & Rave Access Drive", "brand": "Starbucks", "brand:wikidata": "Q37158", "building": "commercial", "cuisine": "coffee_shop", "name": "Starbucks", "official_name": "Starbucks Coffee", "phone": "+1 850-484-2473", "ref": "7533", "takeaway": "yes", "website": "https://www.starbucks.com/store-locator/store/7533/bayou-blvd-rave-access-dr-5145-bayou-blvd-pensacola-fl-325032101-us"}}, {"type": "way", "id": 354655670, "nodes": [3603373453, 3603373454, 3603373455, 3603373456, 3603373457, 3603373458, 3603373459, 3603373460, 3603373461, 3603373462, 3603373463, 3603373464, 3603373465, 3603373466, 3603373453], "tags": {"addr:city": "Pensacola", "addr:housenumber": "6677", "addr:postcode": "32504", "addr:state": "FL", "addr:street": "North Davis Highway", "amenity": "cafe", "atm": "yes", "building": "yes", "cuisine": "coffee_shop", "drive_through": "yes", "name": "Coffee & Eye Guy"}}, {"type": "way", "id": 355522522, "nodes": [3611155875, 3611155876, 3611155877, 3611155878, 3611155879, 3611155880, 3611155881, 3611155882, 3611155883, 3611155884, 3971178143, 3611155886, 3611155875], "tags": {"addr:city": "Pensacola", "addr:housenumber": "380", "addr:postcode": "32502", "addr:state": "FL", "addr:street": "North 9th Avenue", "amenity": "cafe", "building": "yes", "cuisine": "coffee_shop", "internet_access": "yes", "name": "Single Fin Cafe", "opening_hours": "Mo-Th 08:00-18:00; Fr-Sa 08:00-21:00; Su 09:00-16:00", "smoking": "outside"}}, {"type": "way", "id": 357256751, "nodes": [3625763777, 3625763778, 3625763779, 3625763780, 3625763777], "tags": {"addr:city": "Pensacola", "addr:housenumber": "1701", "addr:postcode": "32514", "addr:state": "FL", "addr:street": "East Nine Mile Road", "amenity": "cafe", "branch": "Nine Mile Road & Hillview Drive", "brand": "Starbucks", "brand:wikidata": "Q37158", "building": "yes", "cuisine": "coffee_shop", "name": "Starbucks", "official_name": "Starbucks Coffee", "outdoor_seating": "yes", "phone": "+1 850-476-6540", "ref": "18238", "takeaway": "yes", "website": "https://www.starbucks.com/store-locator/store/18238/nine-mile-rd-hillview-drive-1701-e-nine-mile-rd-pensacola-fl-325145729-us"}}, {"type": "way", "id": 361999546, "nodes": [3663977036, 3663977039, 3663977040, 3663977041, 3663977042, 3663977036], "tags": {"addr:housenumber": "509", "addr:street": "South Palafox Street", "amenity": "cafe", "building": "yes", "cuisine": "coffee_shop", "name": "The Ruby Slipper Cafe"}}, {"type": "way", "id": 539565436, "nodes": [2875623509, 5220940869, 5220940870, 5220940871, 2875623509], "tags": {"amenity": "cafe", "building": "yes", "check_date": "2019-11-09", "cuisine": "coffee_shop", "internet_access": "wlan", "name": "Green Beans Coffee", "smoking": "no", "takeaway": "yes"}}, {"type": "way", "id": 807004320, "nodes": [7546531814, 11722015771, 7546531760, 7546531804, 7546531727, 7546531814], "tags": {"amenity": "cafe", "building": "retail", "building:levels": "2", "name": "Watering Hole Cafe", "source": "microsoft/BuildingFootprints"}}, {"type": "way", "id": 1102760342, "nodes": [10091215548, 10091215549, 10091215550, 10091215551, 10091215548], "tags": {"amenity": "cafe", "building": "yes", "name": "The Bodacious Brew Thru"}}, {"type": "way", "id": 1133611514, "nodes": [10568992993, 10568992994, 10568992995, 10568992996, 10568992993], "tags": {"amenity": "cafe", "building": "yes", "cuisine": "coffee_shop", "name": "Espresso Lane"}}, {"type": "way", "id": 1294849719, "nodes": [11999801769, 11999801770, 11999801771, 11999801772, 11999801769], "tags": {"amenity": "cafe", "building": "yes", "building:levels": "1", "cuisine": "bubble_tea", "name": "Tru Teas- Tea & Company", "source": "microsoft/BuildingFootprints"}}]}