{"version": 0.6, "generator": "Overpass API 0.7.62.7 375dc00a", "osm3s": {"timestamp_osm_base": "2025-07-19T10:04:10Z", "copyright": "The data included in this document is from www.openstreetmap.org. The data is made available under ODbL."}, "elements": [{"type": "node", "id": 4117025789, "lat": 34.8012928, "lon": -87.6751695, "tags": {"addr:city": "Florence", "addr:housenumber": "117", "addr:postcode": "35630", "addr:state": "AL", "addr:street": "North Seminary Street", "amenity": "cafe", "name": "Rivertown Coffee", "website": "facebook.com/rivertowncoffee"}}, {"type": "node", "id": 4462370029, "lat": 34.821176, "lon": -87.6569721}, {"type": "node", "id": 4462370030, "lat": 34.8211825, "lon": -87.6572013}, {"type": "node", "id": 4462370031, "lat": 34.8210494, "lon": -87.6569769}, {"type": "node", "id": 4462370032, "lat": 34.8210547, "lon": -87.6572066}, {"type": "node", "id": 4477847903, "lat": 34.8007536, "lon": -87.6773985}, {"type": "node", "id": 4477847904, "lat": 34.8010074, "lon": -87.6775647}, {"type": "node", "id": 4477847905, "lat": 34.800782, "lon": -87.6773316}, {"type": "node", "id": 4477847906, "lat": 34.8010358, "lon": -87.6774986}, {"type": "node", "id": 4487440243, "lat": 34.8010765, "lon": -87.6760351, "tags": {"addr:city": "Florence", "addr:housenumber": "106", "addr:postcode": "35630", "addr:state": "AL", "addr:street": "East Mobile Street", "amenity": "cafe", "cuisine": "american", "name": "The Chicago Cafe", "outdoor_seating": "yes"}}, {"type": "node", "id": 4530795049, "lat": 34.8391625, "lon": -87.6358986}, {"type": "node", "id": 4530795050, "lat": 34.8393171, "lon": -87.6357652}, {"type": "node", "id": 4530795051, "lat": 34.8393509, "lon": -87.6358235}, {"type": "node", "id": 4530795052, "lat": 34.8391963, "lon": -87.6359569}, {"type": "node", "id": 6109797274, "lat": 34.7613383, "lon": -87.6981345}, {"type": "node", "id": 6109797275, "lat": 34.7612003, "lon": -87.6981355}, {"type": "node", "id": 6109797276, "lat": 34.7612021, "lon": -87.6984905}, {"type": "node", "id": 6109797277, "lat": 34.76134, "lon": -87.6984895}, {"type": "node", "id": 9316175487, "lat": 34.7298132, "lon": -87.6621802}, {"type": "node", "id": 9316175488, "lat": 34.7296904, "lon": -87.6621756}, {"type": "node", "id": 9316175489, "lat": 34.7296992, "lon": -87.6619754}, {"type": "node", "id": 9316175490, "lat": 34.7298157, "lon": -87.6619815}, {"type": "node", "id": 9316437963, "lat": 34.8013353, "lon": -87.6727354, "tags": {"amenity": "cafe", "cuisine": "coffee_shop", "name": "Turbo Coffee"}}, {"type": "way", "id": 449265453, "nodes": [4462370029, 4462370031, 4462370032, 4462370030, 4462370029], "tags": {"addr:city": "Florence", "addr:housenumber": "1627", "addr:postcode": "35630", "addr:state": "AL", "addr:street": "Darby Drive", "amenity": "cafe", "building": "yes", "cuisine": "regional", "name": "Sweet Basil Cafe", "phone": "+1-256-764-5991"}}, {"type": "way", "id": 450880582, "nodes": [4477847904, 4477847903, 4477847905, 4477847906, 4477847904], "tags": {"addr:city": "Florence", "addr:housenumber": "118", "addr:postcode": "35630", "addr:state": "AL", "addr:street": "West Mobile Street", "amenity": "cafe", "cuisine": "regional", "name": "Jack's Place Bistro", "opening_hours": "Mo-Fr 11:00-15:00", "outdoor_seating": "yes", "website": "http://dishgourmetcafeandcatering.com/"}}, {"type": "way", "id": 456847110, "nodes": [4530795049, 4530795050, 4530795051, 4530795052, 4530795049], "tags": {"addr:city": "Florence", "addr:housenumber": "357", "addr:postcode": "35630", "addr:state": "AL", "addr:street": "Cox Creek Parkway", "amenity": "cafe", "branch": "Florence, AL", "brand": "Starbucks", "brand:wikidata": "Q37158", "building": "yes", "cuisine": "coffee_shop", "name": "Starbucks", "official_name": "Starbucks Coffee", "phone": "+1 256-764-8218", "takeaway": "yes", "website": "https://www.starbucks.com/store-locator/store/1008934/florence-al-357-cox-creek-parkway-florence-al-356301539-us"}}, {"type": "way", "id": 651581007, "nodes": [6109797277, 6109797276, 6109797275, 6109797274, 6109797277], "tags": {"addr:city": "Sheffield", "addr:housenumber": "310", "addr:postcode": "35660", "addr:state": "AL", "addr:street": "North Montgomery Avenue", "amenity": "cafe", "building": "yes", "cuisine": "coffee_shop", "name": "The Rock 310"}}, {"type": "way", "id": 1009698276, "nodes": [9316175487, 9316175488, 9316175489, 9316175490, 9316175487], "tags": {"addr:city": "Muscle Shoals", "addr:housenumber": "710", "addr:postcode": "35661", "addr:state": "AL", "addr:street": "E 6th Street", "amenity": "cafe", "building": "yes", "cuisine": "coffee_shop", "name": "The Coffee Place"}}]}