{"version": 0.6, "generator": "Overpass API 0.7.62.7 375dc00a", "osm3s": {"timestamp_osm_base": "2025-07-19T09:59:10Z", "copyright": "The data included in this document is from www.openstreetmap.org. The data is made available under ODbL."}, "elements": [{"type": "node", "id": 1327204162, "lat": 14.2141575, "lon": 120.9689649}, {"type": "node", "id": 1327204207, "lat": 14.2141575, "lon": 120.9688683}, {"type": "node", "id": 1327204305, "lat": 14.2139261, "lon": 120.9689676}, {"type": "node", "id": 1327204412, "lat": 14.2138767, "lon": 120.9688764}, {"type": "node", "id": 1366360661, "lat": 14.2837258, "lon": 120.9973835, "tags": {"amenity": "cafe", "brand": "Mister Donut", "brand:wikipedia": "en:Mister Donut", "cuisine": "donut", "name": "Mister Donut", "name:en": "Mister Donut", "website": "https://www.mister-donut.com"}}, {"type": "node", "id": 1745707009, "lat": 14.1465663, "lon": 120.9566793}, {"type": "node", "id": 1745707010, "lat": 14.1465805, "lon": 120.956604}, {"type": "node", "id": 1745707017, "lat": 14.1466637, "lon": 120.9566208}, {"type": "node", "id": 1745707018, "lat": 14.1466684, "lon": 120.9565958}, {"type": "node", "id": 1745707023, "lat": 14.1467223, "lon": 120.9566067}, {"type": "node", "id": 1745707024, "lat": 14.1467537, "lon": 120.9564405}, {"type": "node", "id": 2091750754, "lat": 14.1508325, "lon": 120.956659, "tags": {"addr:city": "Silang", "addr:country": "PH", "addr:postcode": "4118", "addr:province": "Cavite", "addr:street": "Aguinaldo Highway", "amenity": "cafe", "cuisine": "coffee_shop", "name": "San Antonio Cafe"}}, {"type": "node", "id": 2271566391, "lat": 14.2237526, "lon": 121.0386175, "tags": {"addr:city": "Silang", "addr:postcode": "4118", "addr:street": "Santa Rosa - Tagaytay Road", "amenity": "cafe", "cuisine": "donut", "name": "Dunkin' Donuts"}}, {"type": "node", "id": 3760647589, "lat": 14.1466949, "lon": 120.9566012, "tags": {"entrance": "yes"}}, {"type": "node", "id": 4104109542, "lat": 14.145183, "lon": 120.9914758, "tags": {"amenity": "cafe", "name": "The Green Olive"}}, {"type": "node", "id": 4104172928, "lat": 14.1869941, "lon": 120.9613659}, {"type": "node", "id": 4104172929, "lat": 14.1870895, "lon": 120.961374}, {"type": "node", "id": 4104172932, "lat": 14.1869973, "lon": 120.9612853}, {"type": "node", "id": 4104172934, "lat": 14.1870918, "lon": 120.9612935}, {"type": "node", "id": 4137695144, "lat": 14.1772104, "lon": 120.9608131}, {"type": "node", "id": 4137695145, "lat": 14.1772104, "lon": 120.9609016}, {"type": "node", "id": 4137695148, "lat": 14.1772234, "lon": 120.9607849}, {"type": "node", "id": 4137695149, "lat": 14.1772273, "lon": 120.9607072}, {"type": "node", "id": 4137695150, "lat": 14.1772299, "lon": 120.9609311}, {"type": "node", "id": 4137695153, "lat": 14.1772377, "lon": 120.9610143}, {"type": "node", "id": 4137695156, "lat": 14.1772429, "lon": 120.9609003}, {"type": "node", "id": 4137695157, "lat": 14.1772468, "lon": 120.9609271}, {"type": "node", "id": 4137695158, "lat": 14.1772494, "lon": 120.9607823}, {"type": "node", "id": 4137695159, "lat": 14.1772494, "lon": 120.9608131}, {"type": "node", "id": 4137695160, "lat": 14.1772793, "lon": 120.9606562}, {"type": "node", "id": 4137695161, "lat": 14.1773001, "lon": 120.961076}, {"type": "node", "id": 4137695166, "lat": 14.1773625, "lon": 120.9606522}, {"type": "node", "id": 4137695167, "lat": 14.1773638, "lon": 120.9610706}, {"type": "node", "id": 4177681100, "lat": 14.2231331, "lon": 120.9683022}, {"type": "node", "id": 4177681162, "lat": 14.2228358, "lon": 120.9681369}, {"type": "node", "id": 4177688638, "lat": 14.2228434, "lon": 120.9682703}, {"type": "node", "id": 4177688639, "lat": 14.2228405, "lon": 120.9682145}, {"type": "node", "id": 4177688644, "lat": 14.2230341, "lon": 120.9683071}, {"type": "node", "id": 4193280176, "lat": 14.283181, "lon": 120.9941588}, {"type": "node", "id": 4193280184, "lat": 14.2832772, "lon": 120.9942002}, {"type": "node", "id": 4193280188, "lat": 14.2832415, "lon": 120.9940093}, {"type": "node", "id": 4193280195, "lat": 14.2833377, "lon": 120.9940507}, {"type": "node", "id": 4223124563, "lat": 14.2003317, "lon": 120.9908991}, {"type": "node", "id": 4223124568, "lat": 14.2003389, "lon": 120.9909833}, {"type": "node", "id": 4223124581, "lat": 14.2004348, "lon": 120.9908852}, {"type": "node", "id": 4223124590, "lat": 14.2004369, "lon": 120.9909667}, {"type": "node", "id": 4227899797, "lat": 14.2295538, "lon": 120.9740801}, {"type": "node", "id": 4227899799, "lat": 14.2295567, "lon": 120.9740153}, {"type": "node", "id": 4227899833, "lat": 14.2296616, "lon": 120.9740203}, {"type": "node", "id": 4229504585, "lat": 14.2291239, "lon": 120.9740563}, {"type": "node", "id": 4229504586, "lat": 14.2296517, "lon": 120.9744208}, {"type": "node", "id": 4229504602, "lat": 14.2296846, "lon": 120.9744195}, {"type": "node", "id": 4229504603, "lat": 14.2292444, "lon": 120.9744716}, {"type": "node", "id": 4229504605, "lat": 14.2292082, "lon": 120.9746612}, {"type": "node", "id": 4229504608, "lat": 14.2296847, "lon": 120.9745121}, {"type": "node", "id": 4229504612, "lat": 14.2296825, "lon": 120.9747531}, {"type": "node", "id": 4229504613, "lat": 14.2296852, "lon": 120.9746671}, {"type": "node", "id": 4229504614, "lat": 14.2294632, "lon": 120.9747439}, {"type": "node", "id": 4416615090, "lat": 14.2229957, "lon": 120.9742688, "tags": {"amenity": "cafe", "name": "Bean Town Cafe", "name:en": "Bean Town Cafe"}}, {"type": "node", "id": 4512934690, "lat": 14.225915, "lon": 120.9748589, "tags": {"amenity": "cafe", "name": "Valerie's Milkshake", "name:en": "Valerie's Milkshake"}}, {"type": "node", "id": 4719485389, "lat": 14.2276769, "lon": 120.9743548, "tags": {"addr:street": "JP Rizal", "amenity": "cafe", "name": "Little Cafe", "opening_hours": "Mo-Su 09:00-22:00"}}, {"type": "node", "id": 4760011922, "lat": 14.1800864, "lon": 121.0082178, "tags": {"addr:street": "Santa Rosa - Tagaytay Road", "amenity": "cafe", "cuisine": "burger;chicken;crepe;ice_cream;pizza;breakfast", "internet_access": "wlan", "name": "Bunch o' Munch"}}, {"type": "node", "id": 4776107773, "lat": 14.2233517, "lon": 121.0380345, "tags": {"amenity": "cafe", "name": "Concha's Garden Cafe", "name:en": "Concha's Garden Cafe"}}, {"type": "node", "id": 5424996532, "lat": 14.2466525, "lon": 120.9535392, "tags": {"addr:housenumber": "288", "addr:postcode": "4118", "addr:street": "Ambid Street", "amenity": "cafe", "name": "7MJ Arts and Drafts Biz Cafe", "opening_hours": "Mo-Su 09:00-20:00", "phone": "+63 46 412 4682"}}, {"type": "node", "id": 5487457695, "lat": 14.2463482, "lon": 120.975067}, {"type": "node", "id": 5487457696, "lat": 14.2462896, "lon": 120.9750715}, {"type": "node", "id": 5487457697, "lat": 14.2462974, "lon": 120.9751798}, {"type": "node", "id": 5487457698, "lat": 14.246356, "lon": 120.9751753}, {"type": "node", "id": 6014758400, "lat": 14.221796, "lon": 120.9739904, "tags": {"addr:housenumber": "4", "addr:postcode": "4118", "addr:street": "J. P. Rizal", "addr:town": "Silang", "amenity": "cafe", "internet_access": "wlan", "name": "Caf\u00e9 Tribu", "opening_hours": "Mo-Su 10:00-21:00", "operator": "BEAM", "phone": "5275254"}}, {"type": "node", "id": 6069522164, "lat": 14.2482226, "lon": 121.0486494}, {"type": "node", "id": 6125057085, "lat": 14.1821322, "lon": 121.0112451, "tags": {"addr:housenumber": "410", "addr:postcode": "4118", "addr:street": "Santa Rosa - Tagaytay Road", "amenity": "cafe", "email": "tabbytowncatcafe@gmail.com", "internet_access": "wlan", "name": "Tabby Town Cat Cafe & Corgi Club", "opening_hours": "Mo-Fr 12:00-19:00; Sa-Su 11:00-20:00"}}, {"type": "node", "id": 7428205349, "lat": 14.2293792, "lon": 120.9744898}, {"type": "node", "id": 7918757355, "lat": 14.2231347, "lon": 120.9683266}, {"type": "node", "id": 7918757356, "lat": 14.2231283, "lon": 120.9682001}, {"type": "node", "id": 7929775892, "lat": 14.1688647, "lon": 121.0002824}, {"type": "node", "id": 7929775893, "lat": 14.1688464, "lon": 121.0003543}, {"type": "node", "id": 7929775894, "lat": 14.1689652, "lon": 121.0003864}, {"type": "node", "id": 7929775895, "lat": 14.1689835, "lon": 121.0003145}, {"type": "node", "id": 8099640780, "lat": 14.1520023, "lon": 120.9568337, "tags": {"amenity": "cafe", "name": "Mariu's Caf\u00e9 and Grill"}}, {"type": "node", "id": 8758968738, "lat": 14.2294253, "lon": 120.9742483}, {"type": "node", "id": 9121590428, "lat": 14.1467695, "lon": 120.9567202}, {"type": "node", "id": 9121590429, "lat": 14.1468199, "lon": 120.9564538}, {"type": "node", "id": 9316811766, "lat": 14.2481056, "lon": 121.0486789}, {"type": "node", "id": 9316811771, "lat": 14.2481186, "lon": 121.0487393}, {"type": "node", "id": 9316811772, "lat": 14.248233, "lon": 121.0487272}, {"type": "node", "id": 9316811773, "lat": 14.2481957, "lon": 121.0485865}, {"type": "node", "id": 9316811774, "lat": 14.2482976, "lon": 121.048546}, {"type": "node", "id": 9316811775, "lat": 14.2480883, "lon": 121.0486292}, {"type": "node", "id": 9316811776, "lat": 14.2480524, "lon": 121.0485327}, {"type": "node", "id": 9316811777, "lat": 14.2482616, "lon": 121.0484496}, {"type": "node", "id": 9796222751, "lat": 14.2296399, "lon": 120.9741906}, {"type": "node", "id": 9796222752, "lat": 14.2299023, "lon": 120.9741782}, {"type": "node", "id": 9796222753, "lat": 14.2298999, "lon": 120.9740211}, {"type": "node", "id": 9796222754, "lat": 14.2296414, "lon": 120.9742224}, {"type": "node", "id": 9796222766, "lat": 14.2299122, "lon": 120.97467}, {"type": "node", "id": 9796222767, "lat": 14.2299104, "lon": 120.9747132}, {"type": "node", "id": 9796222768, "lat": 14.2296839, "lon": 120.9747092}, {"type": "node", "id": 9796222772, "lat": 14.2291205, "lon": 120.9741985}, {"type": "node", "id": 10180253255, "lat": 14.2231238, "lon": 120.9681201}, {"type": "node", "id": 10895947629, "lat": 14.2215478, "lon": 120.9735566, "tags": {"amenity": "cafe", "name": "Forastero Cafe"}}, {"type": "node", "id": 10895947630, "lat": 14.2217899, "lon": 120.9735685, "tags": {"amenity": "cafe", "name": "Cafe del Tea"}}, {"type": "node", "id": 11136066539, "lat": 14.2397011, "lon": 120.9759288, "tags": {"addr:city": "Silang", "addr:postcode": "4118", "addr:province": "Cavite", "addr:street": "J. P. Rizal Street", "addr:street:corner": "G. R. Poblete Avenue", "addr:village": "Sabutan", "amenity": "cafe", "contact:facebook": "https://www.facebook.com/profile.php?id=100093328371979", "contact:mobile": "+63 997 982 6201", "cuisine": "coffee_shop", "delivery": "yes", "gluten_free": "no", "lactose_free": "no", "name": "Haze Coffee House", "opening_hours": "09:00-21:00", "operator:type": "private", "organic": "no", "payment:cash": "yes", "smoking": "no", "surveillance": "indoor", "surveillance:type": "camera", "takeaway": "yes", "wheelchair": "yes"}}, {"type": "node", "id": 12555854423, "lat": 14.1345383, "lon": 120.9564171, "tags": {"amenity": "cafe", "name": "Dear Joe"}}, {"type": "way", "id": 117913579, "nodes": [1327204412, 1327204305, 1327204162, 1327204207, 1327204412], "tags": {"addr:city": "Silang", "addr:country": "PH", "addr:postcode": "4118", "addr:province": "Cavite", "amenity": "cafe", "brand": "Starbucks", "brand:wikidata": "Q37158", "cuisine": "coffee_shop", "name": "Starbucks", "official_name": "Starbucks Coffee", "smoking": "no", "takeaway": "yes", "wheelchair": "yes"}}, {"type": "way", "id": 162728043, "nodes": [9121590429, 1745707024, 1745707023, 3760647589, 1745707018, 1745707017, 1745707010, 1745707009, 9121590428, 9121590429], "tags": {"addr:city": "Silang", "addr:postcode": "4118", "addr:province": "Cavite", "addr:street": "Aguinaldo Highway", "addr:village": "Buho", "amenity": "cafe", "building": "yes", "building:levels": "1", "cuisine": "salad", "email": "info@gourmet.com.ph", "fax": "+63 46 414 0613", "name": "Gourmet's Cafe", "opening_hours": "Mo-Su 10:00-20:30", "phone": "+63 46 414 1049", "website": "http://gourmet.com.ph"}}, {"type": "way", "id": 408504814, "nodes": [4104172934, 4104172932, 4104172928, 4104172929, 4104172934], "tags": {"amenity": "cafe", "name": "Kape Amadeo"}}, {"type": "way", "id": 412303523, "nodes": [4137695166, 4137695167, 4137695161, 4137695153, 4137695150, 4137695157, 4137695156, 4137695145, 4137695144, 4137695159, 4137695158, 4137695148, 4137695149, 4137695160, 4137695166], "tags": {"addr:city": "Silang", "addr:postcode": "4118", "addr:province": "Cavite", "amenity": "cafe", "building": "house", "name": "Cafe Dalgona"}}, {"type": "way", "id": 419207621, "nodes": [4193280188, 4193280195, 4193280184, 4193280176, 4193280188], "tags": {"addr:city": "Silang", "addr:country": "PH", "addr:postcode": "4118", "addr:province": "Cavite", "amenity": "cafe", "bar": "yes", "name": "Migs Cafe", "smoking": "no", "wheelchair": "yes"}}, {"type": "way", "id": 422555490, "nodes": [4223124581, 4223124590, 4223124568, 4223124563, 4223124581], "tags": {"addr:city": "Silang", "addr:postcode": "4118", "addr:province": "Cavite", "addr:street": "Pook Road", "amenity": "cafe", "building": "yes", "cuisine": "burger;coffee_shop;sandwich", "name": "Bing Cha Manila"}}, {"type": "way", "id": 423281676, "nodes": [4229504602, 4229504608, 4229504613, 9796222766, 9796222767, 9796222768, 4229504612, 4229504614, 4229504605, 4229504603, 7428205349, 8758968738, 9796222772, 4229504585, 4227899797, 4227899799, 4227899833, 9796222753, 9796222752, 9796222751, 9796222754, 4229504586, 4229504602], "tags": {"addr:city": "Silang", "addr:country": "PH", "addr:housenumber": "11", "addr:postcode": "4118", "addr:province": "Cavite", "addr:street": "Kapitan Sayas Street", "amenity": "cafe", "name": "Cafe Agapita", "previously": "node:7428205349", "smoking": "no", "wheelchair": "yes"}}, {"type": "way", "id": 570800603, "nodes": [5487457695, 5487457696, 5487457697, 5487457698, 5487457695], "tags": {"addr:city": "Silang", "addr:postcode": "4118", "amenity": "cafe", "building": "yes", "internet_access": "wlan", "name": "Le Don's Garden Caf\u00e9", "opening_hours": "Th-Su 10:00-21:00", "outdoor_seating": "yes", "smoking": "no", "wheelchair": "no"}}, {"type": "way", "id": 849975252, "nodes": [7929775895, 7929775894, 7929775893, 7929775892, 7929775895], "tags": {"addr:city": "Silang", "addr:province": "Cavite", "addr:street": "Santa Rosa-Tagaytay Road", "amenity": "cafe", "cuisine": "filipino", "name": "Leonarda's Brew"}}, {"type": "way", "id": 1009766625, "nodes": [9316811777, 9316811774, 9316811773, 6069522164, 9316811772, 9316811771, 9316811766, 9316811775, 9316811776, 9316811777], "tags": {"addr:city": "Silang", "addr:postcode": "4118", "addr:street": "South Boulevard", "amenity": "cafe", "building": "retail", "name": "The Coffee Bean and Tea Leaf", "previously": "node:6069522164", "smoking": "no", "wheelchair": "yes"}}, {"type": "way", "id": 1112669564, "nodes": [10180253255, 7918757356, 4177681100, 7918757355, 4177688644, 4177688638, 4177688639, 4177681162, 10180253255], "tags": {"addr:city": "Silang", "addr:country": "PH", "addr:postcode": "4118", "addr:province": "Cavite", "addr:street": "Emilio Aguinaldo Highway", "amenity": "cafe", "cuisine": "thai", "name": "Som Thai Cafe", "outdoor_seating": "yes", "payment:cash": "yes", "payment:gcash": "yes", "payment:maya": "yes", "smoking": "no", "takeaway": "yes", "wheelchair": "limited"}}]}