{"version": 0.6, "generator": "Overpass API 0.7.62.7 375dc00a", "osm3s": {"timestamp_osm_base": "2025-07-19T09:54:10Z", "copyright": "The data included in this document is from www.openstreetmap.org. The data is made available under ODbL."}, "elements": [{"type": "node", "id": 370965013, "lat": 7.0757527, "lon": 125.6066216, "tags": {"addr:barangay": "Barangay 9-A", "addr:city": "Davao City", "addr:district": "Poblacion District", "addr:postcode": "8000", "addr:province": "Davao del Sur", "addr:street": "V. Mapa Street", "air_conditioning": "yes", "amenity": "cafe", "internet_access": "wlan", "level": "0", "name": "Coffee at Yellow Hauz"}}, {"type": "node", "id": 370965636, "lat": 7.0619612, "lon": 125.5944529, "tags": {"amenity": "cafe", "name": "Amara Cafe"}}, {"type": "node", "id": 420896617, "lat": 7.0678697, "lon": 125.6061792, "tags": {"amenity": "cafe", "name": "Tata Benitos"}}, {"type": "node", "id": 420896649, "lat": 7.0677625, "lon": 125.6061628, "tags": {"amenity": "cafe", "name": "Basti's Brew"}}, {"type": "node", "id": 421037443, "lat": 7.0784916, "lon": 125.6088825, "tags": {"amenity": "cafe", "cuisine": "singapore", "name": "Kopi lah Roti"}}, {"type": "node", "id": 421038219, "lat": 7.0788941, "lon": 125.6092737, "tags": {"amenity": "cafe", "name": "Lorie's Cafe"}}, {"type": "node", "id": 421047489, "lat": 7.0703944, "lon": 125.6139808, "tags": {"amenity": "cafe", "name": "C5"}}, {"type": "node", "id": 428700184, "lat": 7.0703011, "lon": 125.6055158, "tags": {"addr:barangay": "Barangay 3-A", "addr:city": "Davao City", "addr:district": "Poblacion District", "addr:floor": "GF", "addr:housename": "Goldwin Building", "addr:postcode": "8000", "addr:province": "Davao del Sur", "addr:street": "E. Quirino Avenue", "amenity": "cafe", "contact:phone": "+63 917 703 1653", "contact:website": "https://prokrate.com/", "cuisine": "bakery", "level": "0", "name": "Cafe Rysus", "opening_hours": "Mo-Th 08:00-17:00, Fr-Sa 08:00-19:00, Su off"}}, {"type": "node", "id": 428709519, "lat": 7.0710588, "lon": 125.6059038, "tags": {"amenity": "cafe", "name": "Fagioli's"}}, {"type": "node", "id": 430547456, "lat": 7.0641348, "lon": 125.596699}, {"type": "node", "id": 430547457, "lat": 7.063979, "lon": 125.5967399}, {"type": "node", "id": 430547458, "lat": 7.0639526, "lon": 125.5966374}, {"type": "node", "id": 430547459, "lat": 7.0641084, "lon": 125.5965966}, {"type": "node", "id": 441029574, "lat": 7.0496409, "lon": 125.588137, "tags": {"amenity": "cafe", "name": "Bo's Cafe"}}, {"type": "node", "id": 441029575, "lat": 7.0493055, "lon": 125.5882627, "tags": {"amenity": "cafe", "name": "BluGre"}}, {"type": "node", "id": 441029576, "lat": 7.0504628, "lon": 125.5885735, "tags": {"amenity": "cafe", "name": "Dream Cafe"}}, {"type": "node", "id": 455901467, "lat": 7.0678912, "lon": 125.6084131, "tags": {"addr:street": "F. I\u00f1igo Street", "amenity": "cafe", "name": "Cecil's Snack Inn"}}, {"type": "node", "id": 471443408, "lat": 7.100712, "lon": 125.6296134, "tags": {"addr:city": "Davao City", "addr:postcode": "8000", "addr:province": "Davao del Sur", "addr:street": "J. P. Laurel Avenue", "amenity": "cafe", "name": "Psalms Coffee"}}, {"type": "node", "id": 1125814509, "lat": 7.094697, "lon": 125.6151032, "tags": {"amenity": "cafe", "name": "Coffee Dream"}}, {"type": "node", "id": 1234736827, "lat": 7.0695104, "lon": 125.6145953, "tags": {"amenity": "cafe", "name": "Panadero Expresso"}}, {"type": "node", "id": 1236959435, "lat": 7.0768548, "lon": 125.6097232, "tags": {"amenity": "cafe", "name": "Johnny Cupcakes"}}, {"type": "node", "id": 1236965897, "lat": 7.0774134, "lon": 125.6053314, "tags": {"addr:barangay": "Barangay 9-A", "addr:city": "Davao City", "addr:district": "Poblacion District", "addr:postcode": "8000", "addr:province": "Davao del Sur", "addr:street": "F. Torres Street", "amenity": "cafe", "contact:facebook": "https://www.facebook.com/CafeDemitassePH", "cuisine": "coffee_shop", "name": "Cafe Demitasse"}}, {"type": "node", "id": 1236989535, "lat": 7.0650821, "lon": 125.6138896, "tags": {"amenity": "cafe", "name": "Integrated Bar & Cafe"}}, {"type": "node", "id": 1237073841, "lat": 7.084836, "lon": 125.6126319}, {"type": "node", "id": 1237073842, "lat": 7.0848229, "lon": 125.6123809}, {"type": "node", "id": 1237073844, "lat": 7.0846731, "lon": 125.6124518}, {"type": "node", "id": 1237073848, "lat": 7.0849834, "lon": 125.6125268}, {"type": "node", "id": 1240619195, "lat": 7.0762349, "lon": 125.6194529, "tags": {"addr:barangay": "Barangay 27-C", "addr:city": "Davao City", "addr:district": "Poblacion", "addr:postcode": "8000", "addr:province": "Davao del Sur", "addr:street": "Sales Street", "amenity": "cafe", "brand": "Figaro", "brand:wikidata": "Q17069806", "cuisine": "coffee_shop", "name": "Figaro", "takeaway": "yes"}}, {"type": "node", "id": 1240856910, "lat": 7.0776048, "lon": 125.6072922, "tags": {"addr:city": "Davao City", "addr:district": "Poblacion", "addr:postcode": "8000", "addr:province": "Davao del Sur", "addr:street": "M. Araullo Street", "amenity": "cafe", "name": "Museo Cafe"}}, {"type": "node", "id": 1242793218, "lat": 7.1020871, "lon": 125.6324377, "tags": {"addr:barangay": "Alfonso Angliongto Sr.", "addr:city": "Davao City", "addr:district": "Buhangin District", "addr:housename": "Damosa Gateway", "addr:postcode": "8000", "addr:province": "Davao del Sur", "addr:street": "Angliongto Road", "amenity": "cafe", "name": "Cafe Amoree"}}, {"type": "node", "id": 1242823568, "lat": 7.0702097, "lon": 125.6140399, "tags": {"amenity": "cafe", "name": "Bros Brew"}}, {"type": "node", "id": 1242878454, "lat": 7.0763413, "lon": 125.6175202, "tags": {"amenity": "cafe", "name": "Miko's Brew"}}, {"type": "node", "id": 1242914762, "lat": 7.0856082, "lon": 125.612615, "tags": {"addr:city": "Davao City", "addr:postcode": "8000", "addr:street": "A. Lacson", "amenity": "cafe", "cuisine": "bubble_tea", "name": "Serenitea Davao", "operator": "Serenitea"}}, {"type": "node", "id": 1245744592, "lat": 7.1038922, "lon": 125.6430402, "tags": {"addr:barangay": "Sasa", "addr:city": "Davao City", "addr:district": "Buhangin District", "addr:housename": "K7 Strip", "addr:postcode": "8000", "addr:province": "Davao del Sur", "addr:street": "J. P. Laurel Avenue", "amenity": "cafe", "name": "Ryuma Coffee Shop"}}, {"type": "node", "id": 1248408378, "lat": 7.0855489, "lon": 125.612175, "tags": {"amenity": "cafe", "name": "Basti's Brew"}}, {"type": "node", "id": 1254075415, "lat": 7.0533035, "lon": 125.5974992, "tags": {"amenity": "cafe", "name": "Benz Cafeteria"}}, {"type": "node", "id": 1287438733, "lat": 7.0705526, "lon": 125.6151207, "tags": {"amenity": "cafe", "name": "Digital Scape"}}, {"type": "node", "id": 1301781145, "lat": 7.0907417, "lon": 125.6118058, "tags": {"amenity": "cafe", "brand": "Starbucks", "brand:wikidata": "Q37158", "cuisine": "coffee_shop", "name": "Starbucks", "official_name": "Starbucks Coffee", "takeaway": "yes"}}, {"type": "node", "id": 1301788162, "lat": 7.0883337, "lon": 125.613277, "tags": {"amenity": "cafe", "name": "Miyo Cafe"}}, {"type": "node", "id": 1304531999, "lat": 7.1249593, "lon": 125.6337156, "tags": {"addr:barangay": "Cabantian", "addr:city": "Davao City", "addr:district": "Buhangin District", "addr:postcode": "8000", "addr:province": "Davao del Sur", "addr:street": "C. P. Garcia Highway", "amenity": "cafe", "internet_access": "wlan", "name": "Purple Bean"}}, {"type": "node", "id": 1304929793, "lat": 7.0982181, "lon": 125.6189812, "tags": {"amenity": "cafe"}}, {"type": "node", "id": 1598781097, "lat": 7.0654187, "lon": 125.5295973}, {"type": "node", "id": 1598781131, "lat": 7.0655343, "lon": 125.5294647}, {"type": "node", "id": 1598781143, "lat": 7.0655184, "lon": 125.5296856}, {"type": "node", "id": 1598781169, "lat": 7.065634, "lon": 125.529553}, {"type": "node", "id": 1616564098, "lat": 7.0758782, "lon": 125.6115862, "tags": {"addr:city": "Davao City", "addr:postcode": "8000", "addr:street": "E. Jacinto Extension", "amenity": "cafe", "cuisine": "coffee_shop;dessert", "internet_access": "yes", "name": "Coffeecat", "outdoor_seating": "yes"}}, {"type": "node", "id": 1712661061, "lat": 7.1029544, "lon": 125.632842}, {"type": "node", "id": 1712661062, "lat": 7.1029657, "lon": 125.6330207}, {"type": "node", "id": 1712661064, "lat": 7.1032802, "lon": 125.6328211}, {"type": "node", "id": 1712661065, "lat": 7.1032915, "lon": 125.6329997}, {"type": "node", "id": 1714200674, "lat": 7.07641, "lon": 125.6062499, "tags": {"amenity": "cafe", "name": "Coffee Hut"}}, {"type": "node", "id": 1714210022, "lat": 7.0694108, "lon": 125.607152, "tags": {"amenity": "cafe", "name": "Primo Cafe & Grille"}}, {"type": "node", "id": 1738141426, "lat": 7.0416021, "lon": 125.5794668, "tags": {"addr:barangay": "75-A Matina Aplaya", "addr:city": "Davao City", "addr:district": "Talomo District", "addr:postcode": "8000", "addr:province": "Davao del Sur", "amenity": "cafe", "name": "Buckstab Coffee"}}, {"type": "node", "id": 1742440095, "lat": 7.0916621, "lon": 125.6123502, "tags": {"amenity": "cafe", "brand": "The Coffee Bean & Tea Leaf", "brand:wikidata": "Q1141384", "cuisine": "coffee_shop", "name": "The Coffee Bean & Tea Leaf", "takeaway": "yes"}}, {"type": "node", "id": 1802759779, "lat": 7.0764071, "lon": 125.6088241, "tags": {"addr:housename": "Sanny Sweets", "addr:housenumber": "G/F", "addr:street": "Tionko Street", "amenity": "cafe", "cuisine": "coffee_shop", "internet_access": "wlan", "name": "Tea'amo Cafe", "website": "https://www.facebook.com/pages/Teaamo-Tea-and-Coffeeshop"}}, {"type": "node", "id": 1999557142, "lat": 7.0506624, "lon": 125.588738, "tags": {"amenity": "cafe", "name": "Coffee Dream"}}, {"type": "node", "id": 1999557165, "lat": 7.0508198, "lon": 125.5889718, "tags": {"addr:street": "Quimpo Boulevard", "amenity": "cafe", "brand": "Starbucks", "brand:wikidata": "Q37158", "brand:wikipedia": "en:Starbucks", "cuisine": "coffee_shop", "name": "Starbucks", "official_name": "Starbucks Coffee", "takeaway": "yes", "website": "https://www.starbucks.com/"}}, {"type": "node", "id": 2189226488, "lat": 7.0777594, "lon": 125.6072757, "tags": {"addr:city": "Davao City", "addr:district": "Poblacion", "addr:postcode": "8000", "addr:province": "Davao del Sur", "addr:street": "V. Tionko Avenue", "amenity": "cafe", "name": "Tea Amor"}}, {"type": "node", "id": 2344263045, "lat": 7.0679131, "lon": 125.6168814, "tags": {"amenity": "cafe", "name": "Ching's Resto Caffee", "source": "docsam"}}, {"type": "node", "id": 2445465357, "lat": 7.0711147, "lon": 125.603801, "tags": {"amenity": "cafe", "name": "Blugre Coffee", "source": "docsam"}}, {"type": "node", "id": 2451574713, "lat": 7.0602651, "lon": 125.598529, "tags": {"amenity": "cafe", "cuisine": "cafeteria", "name": "High School Canteen"}}, {"type": "node", "id": 2620931946, "lat": 7.0292899, "lon": 125.5110181, "tags": {"amenity": "cafe", "name": "Villa Cafe"}}, {"type": "node", "id": 2702212629, "lat": 7.1034148, "lon": 125.6333909, "tags": {"addr:barangay": "Alfonso Angliongto Sr.", "addr:city": "Davao City", "addr:district": "Buhangin District", "addr:housename": "Damosa Business Center", "addr:postcode": "8000", "addr:province": "Davao del Sur", "addr:street": "Angliongto Road", "amenity": "cafe", "cuisine": "coffee_shop", "name": "Cafe Firenzo"}}, {"type": "node", "id": 2800158789, "lat": 7.0791308, "lon": 125.5897956}, {"type": "node", "id": 2800158790, "lat": 7.0791534, "lon": 125.5897063}, {"type": "node", "id": 2800158791, "lat": 7.0791324, "lon": 125.5897985}, {"type": "node", "id": 2800158792, "lat": 7.0789828, "lon": 125.5897609}, {"type": "node", "id": 3468855611, "lat": 7.081923, "lon": 125.6017252}, {"type": "node", "id": 3468855612, "lat": 7.0820302, "lon": 125.6015558}, {"type": "node", "id": 3468855613, "lat": 7.0820844, "lon": 125.6018793}, {"type": "node", "id": 3468855614, "lat": 7.0822191, "lon": 125.6017361}, {"type": "node", "id": 3497091328, "lat": 7.0906706, "lon": 125.6104037, "tags": {"addr:floor": "G", "amenity": "cafe", "branch": "Abreeza", "check_date": "2025-06-04", "name": "J.CO Donuts & Coffee", "wheelchair": "yes"}}, {"type": "node", "id": 3830276993, "lat": 7.0982879, "lon": 125.6316387, "tags": {"addr:barangay": "San Antonio", "addr:city": "Davao City", "addr:district": "Agdao District", "addr:housename": "SM Lanang Premier", "addr:neighbourhood": "Lanang", "addr:postcode": "8000", "addr:province": "Davao del Sur", "addr:street": "J. P. Laurel Avenue", "amenity": "cafe", "capacity": "100", "cuisine": "coffee_shop;pastry", "delivery": "no", "level": "0", "name": "The French Baker", "takeaway": "yes"}}, {"type": "node", "id": 4083153088, "lat": 7.0818643, "lon": 125.6136828}, {"type": "node", "id": 4083153094, "lat": 7.0818742, "lon": 125.6138071}, {"type": "node", "id": 4083153097, "lat": 7.0818849, "lon": 125.613573}, {"type": "node", "id": 4083153098, "lat": 7.0818934, "lon": 125.6136804}, {"type": "node", "id": 4083153119, "lat": 7.0819936, "lon": 125.6136389}, {"type": "node", "id": 4083153121, "lat": 7.0819962, "lon": 125.6136722}, {"type": "node", "id": 4083153125, "lat": 7.0820196, "lon": 125.6136703}, {"type": "node", "id": 4083153128, "lat": 7.0820294, "lon": 125.6137947}, {"type": "node", "id": 4083153133, "lat": 7.0820675, "lon": 125.6135584}, {"type": "node", "id": 4083153134, "lat": 7.0820733, "lon": 125.6136325}, {"type": "node", "id": 4083630356, "lat": 7.0553433, "lon": 125.5993219}, {"type": "node", "id": 4083630360, "lat": 7.05542, "lon": 125.599363}, {"type": "node", "id": 4083630363, "lat": 7.0554384, "lon": 125.5991419}, {"type": "node", "id": 4083630365, "lat": 7.055515, "lon": 125.599183}, {"type": "node", "id": 4153272991, "lat": 7.0711804, "lon": 125.6041168, "tags": {"addr:housenumber": "431", "addr:street": "Gen. Malvar Street", "amenity": "cafe", "name": "Annipie", "opening_hours": "Mo-Su 09:00-22:00"}}, {"type": "node", "id": 4153286392, "lat": 7.0907609, "lon": 125.6114366, "tags": {"addr:floor": "2", "air_conditioning": "yes", "amenity": "cafe", "check_date": "2025-05-28", "cuisine": "coffee_shop;bakery", "internet_access": "no", "name": "Annipie", "opening_hours": "Mo-Su 10:00-22:00", "outdoor_seating": "no", "payment:cash": "yes", "payment:credit_cards": "yes", "payment:debit_cards": "yes", "payment:qr_code": "yes", "smoking": "no", "strapline": "Your cinnamon destination", "takeaway": "yes", "wheelchair": "yes"}}, {"type": "node", "id": 4153286393, "lat": 7.0778135, "lon": 125.6137916, "tags": {"amenity": "cafe", "cuisine": "pasta;cake", "name": "Annipie", "opening_hours": "Mo-Su 10:00-22:00"}}, {"type": "node", "id": 4153298389, "lat": 7.0565711, "lon": 125.600399, "tags": {"addr:street": "Quimpo Boulevard", "amenity": "cafe", "cuisine": "sandwich;pasta;filipino;cake;coffee_shop", "internet_access": "wlan", "name": "Annipie", "opening_hours": "Mo-Su 09:00-22:00"}}, {"type": "node", "id": 4153298390, "lat": 7.0989629, "lon": 125.6315342, "tags": {"addr:barangay": "San Antonio", "addr:city": "Davao City", "addr:district": "Agdao District", "addr:housename": "SM Lanang Premier", "addr:neighbourhood": "Lanang", "addr:postcode": "8000", "addr:province": "Davao del Sur", "addr:street": "J. P. Laurel Avenue", "amenity": "cafe", "cuisine": "pastry", "level": "0", "name": "Annipie", "opening_hours": "Mo-Su 10:00-22:00"}}, {"type": "node", "id": 4212057091, "lat": 7.0613308, "lon": 125.5917606, "tags": {"addr:barangay": "Matina Crossing", "addr:city": "Davao City", "addr:district": "Talomo District", "addr:housename": "DBC Building-H", "addr:housenumber": "106", "addr:postcode": "8000", "addr:province": "Davao del Sur", "addr:street": "MacArthur Highway", "amenity": "cafe", "contact:email": "deboerderij@yahoo.com", "contact:phone": "+63 917 143 9690", "cuisine": "burger;sandwich;international;grill;coffee_shop;pasta;pizza;chicken;indian;curry;hot_dog;sausage;indonesian;german", "diet:vegan": "yes", "internet_access": "wlan", "name": "EatCafe De Boerderij", "opening_hours": "Mo-Su 11:00-01:00"}}, {"type": "node", "id": 4281359181, "lat": 7.0721927, "lon": 125.6164168}, {"type": "node", "id": 4281359182, "lat": 7.0721967, "lon": 125.6164625}, {"type": "node", "id": 4281359199, "lat": 7.0722934, "lon": 125.6164063}, {"type": "node", "id": 4281359201, "lat": 7.0723041, "lon": 125.6164546}, {"type": "node", "id": 4281674300, "lat": 7.0823191, "lon": 125.6023508}, {"type": "node", "id": 4326684735, "lat": 7.0623739, "lon": 125.596173, "tags": {"addr:barangay": "Matina Crossing", "addr:city": "Davao City", "addr:district": "Talomo District", "addr:postcode": "8000", "addr:province": "Davao del Sur", "addr:street": "MacArthur Highway", "amenity": "cafe", "contact:phone": "+63 82 296 1053", "contact:website": "https://www.coffeeforpeace.com/", "cuisine": "coffee_shop", "internet_access": "yes", "name": "Coffee for Peace", "opening_hours": "08:00-23:00"}}, {"type": "node", "id": 4352204352, "lat": 7.1053051, "lon": 125.6388592}, {"type": "node", "id": 4352204353, "lat": 7.1053177, "lon": 125.6389289}, {"type": "node", "id": 4352204354, "lat": 7.1052166, "lon": 125.6389475}, {"type": "node", "id": 4352204355, "lat": 7.1051987, "lon": 125.6388485}, {"type": "node", "id": 4352204356, "lat": 7.1052387, "lon": 125.6388411}, {"type": "node", "id": 4352204357, "lat": 7.105244, "lon": 125.6388704}, {"type": "node", "id": 4357348479, "lat": 7.1052615, "lon": 125.6389013, "tags": {"amenity": "cafe", "name": "Popong's Internet Cafe"}}, {"type": "node", "id": 4476544303, "lat": 7.0698676, "lon": 125.6067275, "tags": {"addr:street": "Ilustre Street", "amenity": "cafe", "name:en": "Barrio Bistro Pizza"}}, {"type": "node", "id": 4513298190, "lat": 7.0674182, "lon": 125.6112438, "tags": {"amenity": "cafe", "name": "Laysa's BBQ Grill & Project IB", "name:en": "Laysa's BBQ Grill & Project IB"}}, {"type": "node", "id": 4516787891, "lat": 7.078334, "lon": 125.613329, "tags": {"addr:barangay": "Barangay 13-B", "addr:city": "Davao City", "addr:district": "Poblacion District", "addr:housename": "Gaisano Mall", "addr:neighbourhood": "Bajada", "addr:postcode": "8000", "addr:province": "Davao del Sur", "addr:street": "J. P. Laurel Avenue", "amenity": "cafe", "cuisine": "coffee_shop", "name": "Chicco Di Cafe"}}, {"type": "node", "id": 4637099389, "lat": 7.0561192, "lon": 125.5943938, "tags": {"amenity": "cafe", "name": "Ah Iyoh Bistro", "name:en": "Ah Iyoh Bistro"}}, {"type": "node", "id": 4711780589, "lat": 7.0716827, "lon": 125.6059309, "tags": {"addr:postcode": "8000", "addr:street": "Mt. Mayon Street", "amenity": "cafe", "cuisine": "coffee_shop", "internet_access": "wlan", "name": "MyCoffee Time Bistro", "name:en": "MyCoffee Time Bistro", "opening_hours": "Mo-Sa 11:00-23:00", "phone": "+63 82 321 6475"}}, {"type": "node", "id": 4910992025, "lat": 7.0803853, "lon": 125.6040296, "tags": {"amenity": "cafe", "name": "Batu Cafe+Bakeshop"}}, {"type": "node", "id": 4910992026, "lat": 7.0819915, "lon": 125.6117143, "tags": {"addr:barangay": "Barangay 12-B", "addr:city": "Davao City", "addr:district": "Poblacion District", "addr:housename": "Plaza de Bole", "addr:postcode": "8000", "addr:province": "Davao del Sur", "addr:street": "F. Torres Street", "amenity": "cafe", "contact:phone": "+63 999 007 7061", "cuisine": "cake;coffee_shop", "name": "Kawaii Cafe", "opening_hours": "Mo-Su 12:00-24:00"}}, {"type": "node", "id": 4914313121, "lat": 7.0783297, "lon": 125.6101776, "tags": {"addr:postcode": "8000", "addr:street": "V. Mapa Street", "amenity": "cafe", "cuisine": "coffee_shop", "name": "Kapewe\u00f1oz", "shop": "art"}}, {"type": "node", "id": 4922336527, "lat": 7.1768931, "lon": 125.4674708, "tags": {"addr:postcode": "8000", "addr:street": "Davao-Bukidnon Road", "amenity": "cafe", "name": "The Coffee Spot and Lounge"}}, {"type": "node", "id": 4929036497, "lat": 7.081333, "lon": 125.6100997, "tags": {"entrance": "main"}}, {"type": "node", "id": 4948190396, "lat": 7.0840793, "lon": 125.6109834, "tags": {"addr:city": "Davao City", "addr:neighbourhood": "Bajada", "addr:place": "Pryce Business Park", "addr:postcode": "8000", "addr:province": "Davao del Sur", "amenity": "cafe", "level": "0", "name": "Tiggo's"}}, {"type": "node", "id": 5052468012, "lat": 7.0819621, "lon": 125.6124385, "tags": {"amenity": "cafe", "meet:animal": "cat", "name": "Purr Box"}}, {"type": "node", "id": 5181200142, "lat": 7.0790058, "lon": 125.589673}, {"type": "node", "id": 5203070165, "lat": 7.0819872, "lon": 125.6016015, "tags": {"entrance": "main"}}, {"type": "node", "id": 6026642885, "lat": 7.0815253, "lon": 125.602228, "tags": {"addr:barangay": "8-A", "addr:city": "Davao City", "addr:district": "Poblacion", "addr:housename": "Paseo Uno Building", "addr:neighbourhood": "Marfori Heights", "addr:postcode": "8000", "addr:province": "Davao del Sur", "addr:street": "Ruby Street", "amenity": "cafe", "internet_access": "wlan", "name": "Spark", "official_name": "Spark Coffee + Crafts"}}, {"type": "node", "id": 6794853007, "lat": 7.0984787, "lon": 125.6308848, "tags": {"addr:barangay": "San Antonio", "addr:city": "Davao City", "addr:district": "Agdao District", "addr:housename": "SM Lanang Premier", "addr:neighbourhood": "Lanang", "addr:postcode": "8000", "addr:province": "Davao del Sur", "addr:street": "J. P. Laurel Avenue", "amenity": "cafe", "brand": "Happy Lemon", "brand:wikidata": "Q109968422", "cuisine": "bubble_tea", "name": "Happy Lemon", "takeaway": "yes"}}, {"type": "node", "id": 6885127853, "lat": 7.0919678, "lon": 125.6050631}, {"type": "node", "id": 6885127854, "lat": 7.0920134, "lon": 125.6050082}, {"type": "node", "id": 6885127855, "lat": 7.0919906, "lon": 125.6049852}, {"type": "node", "id": 6885127856, "lat": 7.0919449, "lon": 125.6050383}, {"type": "node", "id": 6885127857, "lat": 7.09198, "lon": 125.6050243, "tags": {"addr:city": "Davao City", "addr:postcode": "8000", "addr:street": "F. S. Dizon Road", "air_conditioning": "yes", "amenity": "cafe", "cuisine": "coffee_shop;coffee;savory_pancakes;pancake;sandwich;pasta;breakfast", "internet_access": "yes", "name": "Silverjade Caf\u00e9", "outdoor_seating": "yes"}}, {"type": "node", "id": 6934790126, "lat": 7.0942773, "lon": 125.6193815, "tags": {"amenity": "cafe"}}, {"type": "node", "id": 6935198892, "lat": 7.0582389, "lon": 125.5936511, "tags": {"addr:street": "University Avenue", "amenity": "cafe", "name": "Jasmin Cameo Apartelle"}}, {"type": "node", "id": 7010260603, "lat": 7.1020957, "lon": 125.6116325}, {"type": "node", "id": 7010260604, "lat": 7.1018497, "lon": 125.6114365}, {"type": "node", "id": 7010260605, "lat": 7.101769, "lon": 125.6115393}, {"type": "node", "id": 7010260606, "lat": 7.1020151, "lon": 125.6117353}, {"type": "node", "id": 7202346587, "lat": 7.0686054, "lon": 125.6062024, "tags": {"amenity": "cafe", "name": "Keepsakes Cafe"}}, {"type": "node", "id": 7623350890, "lat": 7.0128123, "lon": 125.5003062, "tags": {"addr:barangay": "Toril", "addr:city": "Davao City", "addr:district": "Toril District", "addr:housename": "GJ Building", "addr:postcode": "8025", "addr:province": "Davao del Sur", "addr:street": "Juan Dela Cruz Street", "amenity": "cafe", "branch": "Toril", "cuisine": "bubble_tea", "email": "hokkaidotorildc@gmail.com", "internet_access": "no", "name": "Hokkaido Milktea", "opening_hours": "Mo-Su 10:00-22:00", "outdoor_seating": "yes"}}, {"type": "node", "id": 7643177858, "lat": 7.0616994, "lon": 125.5913774, "tags": {"amenity": "cafe", "brand": "Starbucks", "brand:wikidata": "Q37158", "brand:wikipedia": "en:Starbucks", "cuisine": "coffee_shop", "name": "Starbucks", "official_name": "Starbucks Coffee", "opening_hours": "Mo-Th 08:00-25:00; Fr-Sa 08:00-26:00; Su 08:00-24:00", "outdoor_seating": "no", "source": "Esri; survey", "takeaway": "yes"}}, {"type": "node", "id": 7966547928, "lat": 7.1379646, "lon": 125.6615877, "tags": {"addr:barangay": "Sasa", "addr:city": "Davao City", "addr:district": "Buhangin District", "addr:floor": "2/F", "addr:housename": "Tudlasan Building", "addr:postcode": "8000", "addr:province": "Davao del Sur", "addr:unit": "1", "alt_name": "Teacup Time", "amenity": "cafe", "branch": "Sasa", "cuisine": "bubble_tea", "level": "1", "name": "Teacup Time", "opening_hours": "Mo-Su 08:00-20:00", "outdoor_seating": "no"}}, {"type": "node", "id": 8478233351, "lat": 7.0890818, "lon": 125.5050251, "tags": {"addr:city": "Davao City", "addr:housenumber": "purok 5", "addr:postcode": "8000", "addr:street": "Golden Shower Street, Mintal", "amenity": "cafe", "cuisine": "coffee_shop;bubble_tea;snacks", "internet_access": "yes", "internet_access:fee": "customers", "name": "The Basic Tea Cafe", "opening_hours": "Mo-Su 11:30-21:00", "phone": "0965-961-9196"}}, {"type": "node", "id": 8483242752, "lat": 7.0735382, "lon": 125.6065956, "tags": {"addr:city": "Davao", "addr:street": "Pardo de Tavera", "amenity": "cafe", "facebook": "https://www.facebook.com/icefavoritea", "name": "Ice & Tea"}}, {"type": "node", "id": 9111570952, "lat": 7.0847944, "lon": 125.6065456, "tags": {"addr:barangay": "19-B", "addr:city": "Davao City", "addr:district": "Poblacion", "addr:door": "14-A", "addr:housename": "Alcrej Building", "addr:postcode": "8000", "addr:province": "Davao del Sur", "addr:street": "Dr. A. Gahol Avenue", "amenity": "cafe", "branch": "DMSF Bajada", "brand": "Ochado", "cuisine": "bubble_tea", "level": "1", "name": "Ochado"}}, {"type": "node", "id": 9507473317, "lat": 7.0714017, "lon": 125.6054229, "tags": {"addr:postcode": "8000", "addr:street": "General Luna Street", "amenity": "cafe", "name": "Coffee Hub"}}, {"type": "node", "id": 9526527236, "lat": 7.095527, "lon": 125.5034056, "tags": {"addr:barangay": "Catalunan Grande", "addr:city": "Davao City", "addr:district": "Talomo District", "addr:place": "Sitio Kalubihan", "addr:postcode": "8000", "addr:province": "Davao del Sur", "amenity": "cafe", "contact:facebook": "https://www.facebook.com/eeffocspecialty/", "name": "EffoC Specialty"}}, {"type": "node", "id": 9550933817, "lat": 7.1560968, "lon": 125.5518536, "tags": {"amenity": "cafe", "name": "Cliffhanger Caf\u00e9"}}, {"type": "node", "id": 9580735217, "lat": 7.0683886, "lon": 125.6148833, "tags": {"addr:postcode": "8000", "addr:street": "Manuel Roxas Avenue", "amenity": "cafe", "name": "Juice Cubi", "opening_hours": "Mo-Su 10:00-01:00"}}, {"type": "node", "id": 9671526017, "lat": 7.1029057, "lon": 125.5929714, "tags": {"addr:barangay": "Ma-a", "addr:city": "Davao City", "addr:district": "Talomo District", "addr:neighbourhood": "Davao Riverfront Corporate City", "addr:postcode": "8000", "addr:province": "Davao del Sur", "addr:street": "Riverfront Drive", "amenity": "cafe", "contact:email": "coffee.paramountph@gmail.com", "contact:facebook": "https://www.facebook.com/paramountcoffeeph", "contact:phone": "+63 933 864 9710;+63 977 804 5610;+63 82 222 5389;+63 82 222 5873", "name": "Paramount Coffee"}}, {"type": "node", "id": 9739668820, "lat": 7.0505189, "lon": 125.5854024, "tags": {"addr:barangay": "76-A Bucana", "addr:city": "Davao City", "addr:district": "Talomo District", "addr:housename": "Villa Oro Building", "addr:postcode": "8000", "addr:province": "Davao del Sur", "addr:street": "Colonel Emilio D. Escandor Street", "amenity": "cafe", "cuisine": "coffee_shop", "internet_access": "wlan", "level": "0", "name": "Daleachious Caf\u00e9"}}, {"type": "node", "id": 9775082117, "lat": 7.0700573, "lon": 125.6143132, "tags": {"addr:postcode": "8000", "addr:street": "Padre Gomez Street", "amenity": "cafe", "name": "Grind", "opening_hours": "Mo-Su 06:00-20:00"}}, {"type": "node", "id": 9776551617, "lat": 7.0567301, "lon": 125.5996862, "tags": {"amenity": "cafe", "name": "911 Street Caf\u00e9"}}, {"type": "node", "id": 9931428118, "lat": 7.0863874, "lon": 125.5082426, "tags": {"addr:barangay": "Santo Ni\u00f1o", "addr:city": "Davao City", "addr:district": "Tugbok District", "addr:housename": "Vista Mall", "addr:postcode": "8000", "addr:province": "Davao del Sur", "addr:street": "Davao-Bukidnon Road", "amenity": "cafe", "internet_access": "wlan", "name": "Coffee Project", "opening_hours": "Mo-Fr 07:00-22:00; Sa-Su 07:00-23:00"}}, {"type": "node", "id": 10003776503, "lat": 7.0612141, "lon": 125.5568159, "tags": {"amenity": "cafe", "name": "Kingdom Cafe"}}, {"type": "node", "id": 10019758117, "lat": 7.1066335, "lon": 125.5260488, "tags": {"access": "private", "barrier": "gate", "foot": "customers"}}, {"type": "node", "id": 10094931217, "lat": 7.0745458, "lon": 125.6110677, "tags": {"addr:housename": "Poblacion Market Central", "addr:postcode": "8000", "addr:street": "C. Bangoy Street", "air_conditioning": "no", "amenity": "cafe", "brand": "Bo's Coffee", "brand:wikidata": "Q30591352", "check_date": "2025-06-02", "cuisine": "coffee_shop", "internet_access": "no", "name": "Bo's Coffee", "opening_hours": "08:00-22:00", "outdoor_seating": "only", "payment:cash": "yes", "payment:credit_cards": "yes", "payment:debit_cards": "yes", "payment:qr_code": "yes", "smoking": "no", "source": "survey", "takeaway": "yes", "wheelchair": "yes"}}, {"type": "node", "id": 10118256718, "lat": 7.0600518, "lon": 125.5935768, "tags": {"amenity": "cafe", "name": "Kyrre"}}, {"type": "node", "id": 10196009662, "lat": 7.0608908, "lon": 125.554938, "tags": {"addr:barangay": "Talomo Proper", "addr:city": "Davao City", "addr:district": "Talomo District", "addr:housename": "Shell Mobility Central Park", "addr:postcode": "8023", "addr:province": "Davao del Sur", "addr:quarter": "Bangkal", "addr:street": "MacArthur Highway", "addr:street:corner": "Hope Avenue", "amenity": "cafe", "cuisine": "bubble_tea", "level": "1", "name": "Chatime"}}, {"type": "node", "id": 10219440917, "lat": 7.0809941, "lon": 125.6077298, "tags": {"addr:city": "Davao City", "addr:district": "Poblacion District", "addr:neighbourhood": "Do\u00f1a Vicenta Subdivision", "addr:postcode": "8000", "addr:province": "Davao del Sur", "addr:street": "Sputnik Street", "amenity": "cafe", "cuisine": "coffee_shop", "name": "Caf\u00e9 Prelaya", "opening_hours": "Mo-Su 10:00-20:00", "outdoor_seating": "yes"}}, {"type": "node", "id": 10287446509, "lat": 7.1028913, "lon": 125.639573, "tags": {"addr:postcode": "8000", "addr:street": "J. P. Laurel Avenue", "amenity": "cafe", "name": "Green Coffee"}}, {"type": "node", "id": 10299648838, "lat": 7.0814102, "lon": 125.6100528}, {"type": "node", "id": 10299648839, "lat": 7.0813506, "lon": 125.6099751}, {"type": "node", "id": 10299648840, "lat": 7.0815146, "lon": 125.6099714}, {"type": "node", "id": 10299648841, "lat": 7.0812797, "lon": 125.6100303}, {"type": "node", "id": 10299648842, "lat": 7.0813828, "lon": 125.6101647}, {"type": "node", "id": 10299648843, "lat": 7.0815581, "lon": 125.6100281}, {"type": "node", "id": 10574342109, "lat": 7.0574609, "lon": 125.5885328, "tags": {"addr:barangay": "74-A Matina Crossing", "addr:city": "Davao City", "addr:district": "Talomo District", "addr:housename": "Lenma Building", "addr:postcode": "8000", "addr:province": "Davao del Sur", "addr:street": "Carlos Villa-Abrille Drive", "amenity": "cafe", "contact:facebook": "https://www.facebook.com/PurgeCoffeeRoaster", "contact:phone": "+63 945 203 1303", "cuisine": "coffee_shop", "level": "0", "name": "Purge Coffee Roaster"}}, {"type": "node", "id": 10584511157, "lat": 7.0145825, "lon": 125.5048195, "tags": {"addr:city": "Davao City", "addr:postcode": "8000", "addr:street": "St. Michael Village Toril", "air_conditioning": "yes", "amenity": "cafe", "cuisine": "coffee_shop;pasta;sandwich", "internet_access": "yes", "internet_access:fee": "customers", "name": "Caf\u00e9 Sierra", "outdoor_seating": "yes", "phone": "+639153272912"}}, {"type": "node", "id": 10656507105, "lat": 7.0817172, "lon": 125.6016549, "tags": {"addr:barangay": "8-A", "addr:city": "Davao City", "addr:district": "Poblacion", "addr:door": "C", "addr:housename": "Values School Building", "addr:neighbourhood": "Marfori Heights", "addr:postcode": "8000", "addr:province": "Davao del Sur", "addr:street": "Ruby Street", "air_conditioning": "yes", "alt_name": "Mylk Cafe", "amenity": "cafe", "contact:facebook": "https://www.facebook.com/mylkcafeph", "contact:instagram": "https://www.instagram.com/mylkcafeph/", "contact:phone": "+63 945 335 7411", "diet:vegan": "only", "name": "Mylk", "opening_hours": "Mo-Su 07:00-21:00", "start_date": "2023-01-15"}}, {"type": "node", "id": 10656846305, "lat": 7.0783176, "lon": 125.6051078, "tags": {"addr:postcode": "8000", "addr:street": "A. Mabini Extension", "amenity": "cafe", "name": "Paramount Coffee"}}, {"type": "node", "id": 10660125900, "lat": 7.0819432, "lon": 125.6016483}, {"type": "node", "id": 10660125901, "lat": 7.0819706, "lon": 125.6016746}, {"type": "node", "id": 10672962005, "lat": 7.102761, "lon": 125.6440428, "tags": {"addr:barangay": "Vicente Hizon Sr.", "addr:city": "Davao City", "addr:district": "Buhangin District", "addr:place": "Azuela Cove", "addr:postcode": "8000", "addr:province": "Davao del Sur", "addr:suburb": "Lanang", "amenity": "cafe", "cuisine": "coffee_shop", "name": "His Her Cafe"}}, {"type": "node", "id": 10734061405, "lat": 7.0743694, "lon": 125.6169018, "tags": {"addr:postcode": "8000", "addr:street": "Narra Street", "amenity": "cafe", "cuisine": "coffee_shop", "name": "Fourth Street Cafe"}}, {"type": "node", "id": 10739214805, "lat": 7.0446996, "lon": 125.5685366, "tags": {"amenity": "cafe", "name": "Kofi Gram"}}, {"type": "node", "id": 10760541777, "lat": 7.0842646, "lon": 125.609974, "tags": {"addr:housenumber": "Road 1", "addr:street": "3", "amenity": "cafe", "cuisine": "coffee_shop", "name": "Kanto Coffee", "opening_hours": "Mo-Su 09:00-21:00", "outdoor_seating": "yes", "phone": "+639662885813"}}, {"type": "node", "id": 10769856696, "lat": 7.0849991, "lon": 125.6114128, "tags": {"addr:city": "Davao", "addr:street": "J. P. Laurel Avenue", "amenity": "cafe", "brand": "Tom N Toms", "brand:en": "Tom N Toms", "brand:ko": "\ud0d0\uc564\ud0d0\uc2a4", "brand:wikidata": "Q18142418", "contact:facebook": "TomNTomsCoffeeDavao", "cuisine": "coffee_shop;pretzel;smoothie;tea;bread", "email": "tomntomscoffeedavao@gmail.com", "mapillary": "530482111813002", "name": "Tom N Toms", "phone": "+63917 674 4555", "takeaway": "yes"}}, {"type": "node", "id": 10789137049, "lat": 7.0854272, "lon": 125.6139569, "tags": {"addr:city": "Davao", "addr:street": "A. I\u00f1igo Street", "addr:unit": "2-A", "amenity": "cafe", "level": "1", "name": "Stash Coffee Co.", "opening_hours": "Mo-Sa 20:30-21:30", "phone": "+639063674762"}}, {"type": "node", "id": 10861423812, "lat": 7.1299906, "lon": 125.6452364, "tags": {"amenity": "cafe", "internet_access": "wlan", "level": "1", "name": "Sky Go Cafe"}}, {"type": "node", "id": 10875102867, "lat": 7.0805273, "lon": 125.4959609, "tags": {"amenity": "cafe", "check_date": "2023-05-07", "name": "Kapeng Bahay"}}, {"type": "node", "id": 11054590185, "lat": 7.0616866, "lon": 125.5967584, "tags": {"amenity": "cafe", "cuisine": "bubble_tea", "name": "Black Scoop Cafe"}}, {"type": "node", "id": 11113204729, "lat": 7.0637203, "lon": 125.5987633, "tags": {"amenity": "cafe", "internet_access": "yes", "internet_access:fee": "customers", "name": "prin tah printing services", "name:en": "prin tah", "phone": "9171677203"}}, {"type": "node", "id": 11180927514, "lat": 7.0878724, "lon": 125.5717316, "tags": {"addr:city": "Davao City", "addr:district": "Talomo District", "addr:postcode": "8000", "addr:province": "Davao del Sur", "addr:street": "Langub Road", "addr:street:corner": "Diversion Road", "amenity": "cafe", "cuisine": "coffee_shop;cake", "noname": "yes", "operator": "Happy Days Cafe"}}, {"type": "node", "id": 11224062809, "lat": 7.0778577, "lon": 125.5256919, "tags": {"addr:barangay": "Catalunan Peque\u00f1o", "addr:city": "Davao City", "addr:district": "Talomo District", "addr:door": "Door 2", "addr:housename": "Highlands Mini Market", "addr:postcode": "8000", "addr:province": "Davao del Sur", "addr:street": "Prosperity Street", "air_conditioning": "yes", "amenity": "cafe", "contact:email": "fruitshakenmilktea@gmail.com", "contact:facebook": "https://www.facebook.com/shakenteadvo", "cuisine": "bubble_tea", "delivery": "yes", "internet_access": "wlan", "internet_access:fee": "customers", "name": "Shake'NTea", "opening_hours": "Mo-Sa 06:00-20:00; Su 13:00-20:00", "outdoor_seating": "no", "phone": "+639912094555", "takeaway": "yes"}}, {"type": "node", "id": 11234346845, "lat": 7.1114113, "lon": 125.6512159, "tags": {"addr:city": "Davao City", "addr:district": "Pampanga", "addr:housenumber": "8", "addr:province": "Davao del Sur", "addr:street": "Lanang", "addr:unit": "Unit", "air_conditioning": "yes", "amenity": "cafe", "contact:facebook": "https://www.facebook.com/theespressonook.livelife", "cuisine": "coffee_shop;pastry;cakes;ube_creme_brulee;mango_cake;#nookbuns;#nookbites", "internet_access": "yes", "internet_access:fee": "customers", "mobile": "+639639905295", "name": "The Espresso Nook: Live Life Coffee Shop", "opening_hours": "9am to 9pm (MON to SAT)", "phone": "+639369905259", "reservation": "yes", "website": "https://www.facebook.com/theespressonook.livelife"}}, {"type": "node", "id": 11328602973, "lat": 7.0837319, "lon": 125.5875786, "tags": {"addr:barangay": "Ma-a", "addr:city": "Davao City", "addr:district": "Talomo District", "addr:postcode": "8000", "addr:province": "Davao del Sur", "amenity": "cafe", "branch": "Twin Palms", "cuisine": "coffee_shop", "name": "Paramount Coffee"}}, {"type": "node", "id": 11340846669, "lat": 7.0648494, "lon": 125.5563873}, {"type": "node", "id": 11393159669, "lat": 7.0843249, "lon": 125.5097484, "tags": {"addr:barangay": "Santo Ni\u00f1o", "addr:city": "Davao City", "addr:district": "Tugbok District", "addr:neighbourhood": "Bambu Estate", "addr:postcode": "8000", "addr:province": "Davao del Sur", "addr:street": "Davao-Bukidnon Road", "amenity": "cafe", "cuisine": "hot_chocolate", "name": "Sikwatehan sa Dalan", "opening_hours": "Mo-Su 05:00-09:00", "outdoor_seating": "yes", "start_date": "2023", "street_vendor": "yes"}}, {"type": "node", "id": 11416972169, "lat": 7.0574221, "lon": 125.5800019}, {"type": "node", "id": 11416972170, "lat": 7.0574252, "lon": 125.5799957}, {"type": "node", "id": 11416972171, "lat": 7.0574258, "lon": 125.5799866}, {"type": "node", "id": 11416972172, "lat": 7.0574236, "lon": 125.579979}, {"type": "node", "id": 11416972173, "lat": 7.0573821, "lon": 125.5799108}, {"type": "node", "id": 11416972174, "lat": 7.0573746, "lon": 125.579904}, {"type": "node", "id": 11416972175, "lat": 7.057366, "lon": 125.5799002}, {"type": "node", "id": 11416972176, "lat": 7.0574167, "lon": 125.5800072}, {"type": "node", "id": 11416972177, "lat": 7.0569209, "lon": 125.5803088}, {"type": "node", "id": 11416972178, "lat": 7.0569105, "lon": 125.5803125}, {"type": "node", "id": 11416972179, "lat": 7.0569026, "lon": 125.580313}, {"type": "node", "id": 11416972180, "lat": 7.056894, "lon": 125.5803117}, {"type": "node", "id": 11416972181, "lat": 7.0568878, "lon": 125.5803066}, {"type": "node", "id": 11416972182, "lat": 7.0567552, "lon": 125.5800909}, {"type": "node", "id": 11416972183, "lat": 7.0567468, "lon": 125.5800743}, {"type": "node", "id": 11416972184, "lat": 7.056745, "lon": 125.5800638}, {"type": "node", "id": 11416972185, "lat": 7.0567477, "lon": 125.5800552}, {"type": "node", "id": 11416972186, "lat": 7.0567576, "lon": 125.5800463}, {"type": "node", "id": 11416972187, "lat": 7.0567723, "lon": 125.5800421}, {"type": "node", "id": 11416972188, "lat": 7.0573568, "lon": 125.5799006}, {"type": "node", "id": 11484481801, "lat": 7.0638955, "lon": 125.5986325, "tags": {"amenity": "cafe", "cuisine": "coffee_shop", "name": "Kofi Boss"}}, {"type": "node", "id": 11499060860, "lat": 7.0687458, "lon": 125.6020472, "tags": {"amenity": "cafe", "cuisine": "coffee_shop", "name": "Sugbo Macchiato"}}, {"type": "node", "id": 11499749771, "lat": 7.0827071, "lon": 125.6128923, "tags": {"addr:postcode": "8000", "addr:street": "Loyola Street", "amenity": "cafe", "contact:facebook": "cafebloomingdays", "name": "Blooming Days", "opening_hours": "Mo-Sa 08:30-22:00; Su 13:00-20:00"}}, {"type": "node", "id": 11578205718, "lat": 7.0970277, "lon": 125.5809366, "tags": {"amenity": "cafe", "cuisine": "coffee_shop", "name": "Hello Kape atbp", "opening_hours": "Mo-Sa 08:00-18:00"}}, {"type": "node", "id": 11680372977, "lat": 7.0809545, "lon": 125.6129416, "tags": {"addr:barangay": "Barangay 13-B", "addr:city": "Davao City", "addr:district": "Poblacion District", "addr:postcode": "8000", "addr:province": "Davao del Sur", "addr:street": "J. P. Laurel Avenue", "amenity": "cafe", "cuisine": "coffee_shop", "name": "Kopi 82"}}, {"type": "node", "id": 11703284356, "lat": 7.0825475, "lon": 125.6168395, "tags": {"amenity": "cafe", "cuisine": "bubble_tea", "name": "Chachago"}}, {"type": "node", "id": 11721553288, "lat": 7.1000627, "lon": 125.5952191, "tags": {"amenity": "cafe", "name": "Fika Stugan"}}, {"type": "node", "id": 11726465934, "lat": 7.0770135, "lon": 125.6113683, "tags": {"addr:floor": "G", "addr:housename": "Mesatierra Garden Residences", "addr:street": "Ignacio Villamor Street", "air_conditioning": "yes", "amenity": "cafe", "bar": "no", "check_date": "2024-03-14", "cuisine": "coffee_shop;breakfast", "level": "0", "name": "Verde Pianta", "opening_hours": "07:00-22:00", "outdoor_seating": "yes", "smoking": "no", "wheelchair": "limited"}}, {"type": "node", "id": 11730117373, "lat": 7.0799239, "lon": 125.5825949, "tags": {"addr:street": "Don Julian Rodriguez Sr. Avenue", "amenity": "cafe", "check_date": "2024-03-14", "name": "Anniepie"}}, {"type": "node", "id": 11738400123, "lat": 7.0560339, "lon": 125.5941083, "tags": {"addr:housenumber": ".", "addr:street": "University Avenue", "air_conditioning": "yes", "amenity": "cafe", "check_date": "2024-03-17", "name": "Lara \ud83d\udc9b Mia Caf\u00e9 & Bistro", "outdoor_seating": "yes", "payment:cash": "yes", "payment:credit_cards": "yes", "payment:qr_code": "yes", "toilets": "yes", "wheelchair": "limited"}}, {"type": "node", "id": 11740649992, "lat": 7.0841194, "lon": 125.6152812, "tags": {"amenity": "cafe", "branch": "Obrero", "cuisine": "bubble_tea", "name": "Hokkaido Milk Tea"}}, {"type": "node", "id": 11749899435, "lat": 7.0850535, "lon": 125.6183633, "tags": {"amenity": "cafe", "name": "Guzzle"}}, {"type": "node", "id": 11749899436, "lat": 7.0849012, "lon": 125.6189827, "tags": {"amenity": "cafe", "cuisine": "coffee_shop", "name": "Dear Coffee"}}, {"type": "node", "id": 11759462461, "lat": 7.0698769, "lon": 125.6037382, "tags": {"addr:barangay": "Barangay 6-A", "addr:city": "Davao City", "addr:district": "Poblacion District", "addr:postcode": "8000", "addr:province": "Davao del Sur", "addr:street": "Durban Alley", "air_conditioning": "yes", "amenity": "cafe", "contact:facebook": "https://www.facebook.com/profile.php?id=100094609006077", "contact:phone": "+63 926 053 6040", "cuisine": "coffee_shop;brazilian", "internet_access": "wlan", "level": "0", "name": "Caf\u00e9 Fazenda", "opening_hours": "Mo-Sa 08:00-20:00, Su off"}}, {"type": "node", "id": 11760140207, "lat": 7.0827236, "lon": 125.6143185, "tags": {"amenity": "cafe", "cuisine": "bubble_tea", "name": "Tiger Bubble Tea"}}, {"type": "node", "id": 11760140208, "lat": 7.0827061, "lon": 125.6142819, "tags": {"amenity": "cafe", "name": "Cafe Audemars"}}, {"type": "node", "id": 11794179569, "lat": 7.0699693, "lon": 125.5743741, "tags": {"addr:street": "Carlos P. Garcia Highway", "amenity": "cafe", "name": "Bean Xpress"}}, {"type": "node", "id": 11794999869, "lat": 7.0708814, "lon": 125.5486106, "tags": {"addr:postcode": "8000", "amenity": "cafe", "cuisine": "coffee_shop", "name": "Outlook", "opening_hours": "Mo-Su 07:00-00:00"}}, {"type": "node", "id": 11801736966, "lat": 7.0707999, "lon": 125.616494, "tags": {"amenity": "cafe", "cuisine": "coffee_shop", "name": "Tipsy Coffee - 8 flavors Macchiato"}}, {"type": "node", "id": 11827065136, "lat": 7.0845734, "lon": 125.6174918, "tags": {"amenity": "cafe", "cuisine": "coffee_shop", "name": "Darkk Coffee Co."}}, {"type": "node", "id": 11875549304, "lat": 7.0686864, "lon": 125.6109817, "tags": {"amenity": "cafe", "cuisine": "coffee_shop;pastry;bread", "name": "Cafe Gervacios"}}, {"type": "node", "id": 11875621834, "lat": 7.0484046, "lon": 125.5868329, "tags": {"addr:street": "Eco West Drive", "amenity": "cafe", "cuisine": "coffee_shop", "name": "Space-Arabica", "opening_hours": "Mo-Sa 10:30-05:00, Su off"}}, {"type": "node", "id": 11878333168, "lat": 7.085622, "lon": 125.6140027, "tags": {"amenity": "cafe", "cuisine": "bubble_tea", "name": "Des-Tea-Ny"}}, {"type": "node", "id": 11878340370, "lat": 7.084487, "lon": 125.6131506, "tags": {"amenity": "cafe", "name": "Cornerhub"}}, {"type": "node", "id": 11885807134, "lat": 7.0676565, "lon": 125.6164773, "tags": {"amenity": "cafe", "cuisine": "coffee_shop", "name": "Turkish Coffee House"}}, {"type": "node", "id": 11887870824, "lat": 7.0816834, "lon": 125.613084, "tags": {"amenity": "cafe", "cuisine": "coffee_shop", "name": "Palpitate Coffee"}}, {"type": "node", "id": 11888002652, "lat": 7.0790456, "lon": 125.6203743, "tags": {"amenity": "cafe", "branch": "Lapu-Lapu", "name": "Fika Cafe"}}, {"type": "node", "id": 11890129843, "lat": 7.0723679, "lon": 125.6139651, "tags": {"amenity": "cafe", "cuisine": "bubble_tea", "name": "Chachago"}}, {"type": "node", "id": 11896033933, "lat": 7.0832988, "lon": 125.610928, "tags": {"amenity": "cafe", "name": "Mr. Wen Cafe"}}, {"type": "node", "id": 11896033934, "lat": 7.0831218, "lon": 125.6160098, "tags": {"amenity": "cafe", "name": "Rui Cars and Coffee"}}, {"type": "node", "id": 11902568098, "lat": 7.0812581, "lon": 125.612502, "tags": {"amenity": "cafe", "name": "Lifestyle Cafe"}}, {"type": "node", "id": 11908775229, "lat": 7.084167, "lon": 125.6152384, "tags": {"amenity": "cafe", "name": "Binnamon and Coffee"}}, {"type": "node", "id": 11914933459, "lat": 7.0791753, "lon": 125.620112, "tags": {"amenity": "cafe", "name": "Wild Shakes"}}, {"type": "node", "id": 11914933460, "lat": 7.0791398, "lon": 125.6201415, "tags": {"amenity": "cafe", "name": "Thirdy Third Cafe"}}, {"type": "node", "id": 11915039278, "lat": 7.0788257, "lon": 125.6180231, "tags": {"amenity": "cafe", "level": "0", "name": "Icetag Cafe"}}, {"type": "node", "id": 11935271911, "lat": 7.072423, "lon": 125.6154659, "tags": {"amenity": "cafe", "cuisine": "coffee_shop", "name": "Hygge Coffee"}}, {"type": "node", "id": 11935271916, "lat": 7.0639593, "lon": 125.6128435, "tags": {"amenity": "cafe", "cuisine": "coffee_shop", "name": "Daily Grind Coffee"}}, {"type": "node", "id": 11935271920, "lat": 7.0671446, "lon": 125.6132766, "tags": {"amenity": "cafe", "cuisine": "coffee_shop", "name": "Boss Macchiato"}}, {"type": "node", "id": 11941763973, "lat": 7.0760336, "lon": 125.6068308, "tags": {"addr:barangay": "Barangay 9-A", "addr:city": "Davao City", "addr:district": "Poblacion District", "addr:door": "Door 5", "addr:housename": "Mabini Commercial Complex", "addr:postcode": "8000", "addr:province": "Davao del Sur", "addr:street": "A. Mabini Street", "air_conditioning": "yes", "amenity": "cafe", "contact:facebook": "https://www.facebook.com/planbdavao", "cuisine": "coffee_shop", "diet:vegetarian": "no", "level": "0", "name": "Plan B", "official_name": "Plan . B", "opening_hours": "Mo-Sa 09:00-20:00,Su off", "outdoor_seating": "no", "parking": "yes"}}, {"type": "node", "id": 11949845498, "lat": 7.0768213, "lon": 125.615543, "tags": {"amenity": "cafe", "cuisine": "coffee_shop", "name": "Cafe Inizio"}}, {"type": "node", "id": 11949845500, "lat": 7.0767969, "lon": 125.6152541, "tags": {"amenity": "cafe", "cuisine": "coffee_shop", "name": "Hola Coffee"}}, {"type": "node", "id": 11951842541, "lat": 7.0812492, "lon": 125.6075332, "tags": {"addr:city": "Davao City", "addr:district": "Poblacion District", "addr:neighbourhood": "Do\u00f1a Vicenta Subdivision", "addr:postcode": "8000", "addr:province": "Davao del Sur", "addr:street": "Sputnik Street", "amenity": "cafe", "cuisine": "coffee_shop", "name": "Good One"}}, {"type": "node", "id": 11952038400, "lat": 7.0756797, "lon": 125.6089942, "tags": {"amenity": "cafe", "cuisine": "coffee_shop", "name": "Solomon's Brew Cafe"}}, {"type": "node", "id": 11952186008, "lat": 7.0760141, "lon": 125.5982851, "tags": {"amenity": "cafe", "cuisine": "coffee_shop", "name": "Brew University"}}, {"type": "node", "id": 11952186011, "lat": 7.0697564, "lon": 125.6009133, "tags": {"amenity": "cafe", "cuisine": "coffee_shop", "name": "D'Urban Cafe"}}, {"type": "node", "id": 11952186045, "lat": 7.0800353, "lon": 125.6032628, "tags": {"amenity": "cafe", "name": "Bae Bistro"}}, {"type": "node", "id": 11952186047, "lat": 7.0790984, "lon": 125.602425, "tags": {"amenity": "cafe", "name": "Wild Zebra Coffee"}}, {"type": "node", "id": 11952186058, "lat": 7.0685422, "lon": 125.6085168, "tags": {"amenity": "cafe", "cuisine": "coffee_shop", "name": "Tabi-Tabi Po"}}, {"type": "node", "id": 11952186059, "lat": 7.0682404, "lon": 125.6087742, "tags": {"amenity": "cafe", "cuisine": "bubble_tea", "name": "Drip Tea"}}, {"type": "node", "id": 11954995364, "lat": 7.1910034, "lon": 125.6483853, "tags": {"amenity": "cafe", "cuisine": "coffee_shop", "name": "Sugbo Macchiato"}}, {"type": "node", "id": 11958680016, "lat": 7.2353299, "lon": 125.6422393, "tags": {"amenity": "cafe", "name": "Highway 23"}}, {"type": "node", "id": 11962097700, "lat": 7.1980647, "lon": 125.6472744, "tags": {"amenity": "cafe", "name": "Mine Cafe"}}, {"type": "node", "id": 11971025012, "lat": 7.0784113, "lon": 125.6146167, "tags": {"amenity": "cafe", "cuisine": "coffee_shop", "name": "Tomo Kopi"}}, {"type": "node", "id": 11978326796, "lat": 7.0884386, "lon": 125.6144727, "tags": {"amenity": "cafe", "name": "Cup Sawi"}}, {"type": "node", "id": 11983080930, "lat": 7.0781581, "lon": 125.6100366, "tags": {"amenity": "cafe", "name": "Sanbelo's"}}, {"type": "node", "id": 11985834185, "lat": 7.0696245, "lon": 125.616212, "tags": {"amenity": "cafe", "name": "23:5 Cafe"}}, {"type": "node", "id": 11985890289, "lat": 7.0654461, "lon": 125.6090243, "tags": {"amenity": "cafe", "cuisine": "bubble_tea"}}, {"type": "node", "id": 11992366054, "lat": 7.084638, "lon": 125.6163471, "tags": {"amenity": "cafe", "name": "Koopi Princess"}}, {"type": "node", "id": 11994640687, "lat": 7.0835665, "lon": 125.6122054, "tags": {"amenity": "cafe", "name": "Low Carb Coffee (Skin Metro)"}}, {"type": "node", "id": 11994640688, "lat": 7.0828957, "lon": 125.6138073, "tags": {"amenity": "cafe", "name": "Coffee.Smile"}}, {"type": "node", "id": 11998096967, "lat": 7.0857194, "lon": 125.6143499, "tags": {"amenity": "cafe", "name": "MJ's Crepe 23"}}, {"type": "node", "id": 11998114122, "lat": 7.1027898, "lon": 125.6140388, "tags": {"amenity": "cafe", "check_date": "2025-06-10", "cuisine": "coffee_shop", "name": "Coffee Co"}}, {"type": "node", "id": 11998116169, "lat": 7.0858365, "lon": 125.6145275, "tags": {"amenity": "cafe", "cuisine": "coffee_shop", "name": "Dash Coffee"}}, {"type": "node", "id": 11999996798, "lat": 7.0664501, "lon": 125.6088252, "tags": {"amenity": "cafe", "name": "Glasshouse Coffee"}}, {"type": "node", "id": 12002424567, "lat": 7.081817, "lon": 125.6139839, "tags": {"amenity": "cafe", "name": "Laboratoire Cafe"}}, {"type": "node", "id": 12003308909, "lat": 7.0837401, "lon": 125.6106985, "tags": {"amenity": "cafe", "name": "Roadhouse Cafe"}}, {"type": "node", "id": 12013819640, "lat": 7.0901587, "lon": 125.6145736, "tags": {"amenity": "cafe", "name": "Hid'n Coffee"}}, {"type": "node", "id": 12014251199, "lat": 7.0872855, "lon": 125.6165419, "tags": {"amenity": "cafe", "cuisine": "coffee_shop", "name": "Don Macchiatos"}}, {"type": "node", "id": 12020238349, "lat": 7.1089027, "lon": 125.6482393, "tags": {"amenity": "cafe", "cuisine": "coffee_shop", "name": "Grab & Go"}}, {"type": "node", "id": 12025035369, "lat": 7.0532848, "lon": 125.5296107, "tags": {"addr:city": "Davao City", "addr:district": "Talomo District", "amenity": "cafe", "name": "Soleil Cafe"}}, {"type": "node", "id": 12037055338, "lat": 7.0722324, "lon": 125.6162588, "tags": {"amenity": "cafe", "cuisine": "coffee_shop", "name": "Krawd Coffee"}}, {"type": "node", "id": 12088221192, "lat": 7.0811534, "lon": 125.6137627, "tags": {"amenity": "cafe", "name": "Kiel's Coffee"}}, {"type": "node", "id": 12096624700, "lat": 7.1710412, "lon": 125.5286275, "tags": {"amenity": "cafe", "name": "Tambayan Sikwatea"}}, {"type": "node", "id": 12113795666, "lat": 7.0766403, "lon": 125.6162977, "tags": {"amenity": "cafe", "name": "Big Bean Cafe"}}, {"type": "node", "id": 12122337516, "lat": 7.0876161, "lon": 125.609653, "tags": {"amenity": "cafe", "name": "A Zen Cafe"}}, {"type": "node", "id": 12137838874, "lat": 7.0766739, "lon": 125.6111015, "tags": {"amenity": "cafe", "name": "DC Grocers"}}, {"type": "node", "id": 12141670513, "lat": 7.0870334, "lon": 125.6144439, "tags": {"addr:street": "A. Lacson Street", "amenity": "cafe", "check_date": "2024-09-11", "contact:facebook": "tbrewsdvo", "name": "T'Brews Caf\u00e9", "opening_hours": "Mo,We-Su 11:00-20:00; Tu off", "outdoor_seating": "yes", "payment:cards": "no", "payment:cash": "yes", "payment:credit_cards": "no", "payment:debit_cards": "no", "payment:qr_code": "yes", "wheelchair": "limited"}}, {"type": "node", "id": 12143283018, "lat": 7.092733, "lon": 125.6044797, "tags": {"addr:barangay": "Barangay 19-B", "addr:city": "Davao City", "addr:district": "Poblacion District", "addr:postcode": "8000", "addr:province": "Davao del Sur", "addr:street": "F. S. Dizon Road", "air_conditioning": "yes", "amenity": "cafe", "check_date": "2024-08-29", "cuisine": "coffee_shop", "drive_through": "no", "name": "Green Coffee", "opening_hours": "07:00-02:00", "outdoor_seating": "no", "payment:cash": "yes", "payment:credit_cards": "yes", "payment:debit_cards": "yes", "payment:qr_code": "yes", "smoking": "no", "source": "survey", "toilets": "yes", "wheelchair": "limited"}}, {"type": "node", "id": 12150727084, "lat": 7.1084815, "lon": 125.6325489, "tags": {"amenity": "cafe", "name": "Haron's Cafe", "opening_hours": "24/7"}}, {"type": "node", "id": 12150727097, "lat": 7.1136225, "lon": 125.6221257, "tags": {"amenity": "cafe", "name": "Ochado"}}, {"type": "node", "id": 12159689839, "lat": 7.0746227, "lon": 125.6181496, "tags": {"addr:street": "Aklan Street", "amenity": "cafe", "check_date": "2024-09-06", "name": "BeansTalk", "opening_hours": "10:00-22:00", "payment:cash": "yes", "payment:credit_cards": "yes", "payment:debit_cards": "yes", "payment:qr_code": "yes", "wheelchair": "limited"}}, {"type": "node", "id": 12163363656, "lat": 7.1054427, "lon": 125.6007398, "tags": {"addr:street": "Carlos P. Garcia Highway", "amenity": "cafe", "check_date": "2024-09-08", "name": "Echostore", "payment:cash": "yes", "payment:credit_cards": "yes", "payment:debit_cards": "yes", "payment:qr_code": "yes", "wheelchair": "yes"}}, {"type": "node", "id": 12164847334, "lat": 7.0822983, "lon": 125.6116662, "tags": {"addr:barangay": "Barangay 12-B", "addr:city": "Davao City", "addr:district": "Poblacion District", "addr:housename": "Plaza de Bole", "addr:postcode": "8000", "addr:province": "Davao del Sur", "addr:street": "F. Torres Street", "amenity": "cafe", "cuisine": "coffee_shop", "name": "Pickup Coffee"}}, {"type": "node", "id": 12206556187, "lat": 7.0877515, "lon": 125.6166377, "tags": {"amenity": "cafe", "cuisine": "bubble_tea", "level": "0", "name": "ChristianiTea"}}, {"type": "node", "id": 12229903802, "lat": 7.0951207, "lon": 125.6225667, "tags": {"amenity": "cafe", "name": "Cafe Verdania"}}, {"type": "node", "id": 12242762290, "lat": 7.1804865, "lon": 125.4644315, "tags": {"amenity": "cafe", "cuisine": "coffee_shop", "name": "Sprouts Bloom Cafe"}}, {"type": "node", "id": 12249365078, "lat": 7.0843219, "lon": 125.6129416, "tags": {"amenity": "cafe", "name": "Heavenly MC Cafe & Resto"}}, {"type": "node", "id": 12249365081, "lat": 7.0843023, "lon": 125.6129193, "tags": {"amenity": "cafe", "name": "Mother Lou Cafe"}}, {"type": "node", "id": 12249365090, "lat": 7.0629484, "lon": 125.6105469, "tags": {"amenity": "cafe", "name": "Humble Table"}}, {"type": "node", "id": 12249365091, "lat": 7.0632434, "lon": 125.6106419, "tags": {"amenity": "cafe", "cuisine": "coffee_shop", "name": "Humble Coffee PH"}}, {"type": "node", "id": 12249365097, "lat": 7.0647259, "lon": 125.6101142, "tags": {"amenity": "cafe", "name": "Cafe Claveria"}}, {"type": "node", "id": 12249424201, "lat": 7.0720395, "lon": 125.6025085, "tags": {"amenity": "cafe", "branch": "Malvar Street", "cuisine": "coffee_shop", "name": "Dash Coffee"}}, {"type": "node", "id": 12256760301, "lat": 7.0526515, "lon": 125.5919008, "tags": {"addr:postcode": "8000", "addr:street": "Calamansi Street", "amenity": "cafe", "contact:facebook": "Mombakesdvo", "cuisine": "cake;coffee_shop;international", "name": "Mombakes", "opening_hours": "Mo-Th 07:00-22:00; Fr-Su 07:00-23:00"}}, {"type": "node", "id": 12306237415, "lat": 7.0647242, "lon": 125.5561668}, {"type": "node", "id": 12306237416, "lat": 7.0648539, "lon": 125.556092}, {"type": "node", "id": 12306237417, "lat": 7.0649791, "lon": 125.5563126}, {"type": "node", "id": 12311417179, "lat": 7.1102017, "lon": 125.5780769, "tags": {"amenity": "cafe", "name": "Forest Brews Code"}}, {"type": "node", "id": 12311417181, "lat": 7.116919, "lon": 125.5647796, "tags": {"amenity": "cafe", "name": "Wood and Coffee"}}, {"type": "node", "id": 12311479490, "lat": 7.1035493, "lon": 125.5824911, "tags": {"amenity": "cafe", "cuisine": "coffee_shop", "name": "MM Store"}}, {"type": "node", "id": 12311507970, "lat": 7.1001401, "lon": 125.6277342, "tags": {"addr:street": "J. P. Laurel Avenue", "amenity": "cafe", "branch": "Davao", "brand": "UCC", "cuisine": "coffee_shop;japanese", "diet:pescetarian": "yes", "diet:vegan": "no", "diet:vegetarian": "limited", "drink:fresh_juice": "served", "name": "UCC Caf\u00e9 Terrace"}}, {"type": "node", "id": 12323272255, "lat": 7.083863, "lon": 125.615331, "tags": {"amenity": "cafe", "name": "Cuptured Moments Cafe"}}, {"type": "node", "id": 12329958010, "lat": 7.0855189, "lon": 125.6180933, "tags": {"amenity": "cafe", "name": "Cafe Nauticca"}}, {"type": "node", "id": 12333924940, "lat": 7.098765, "lon": 125.6248884, "tags": {"amenity": "cafe", "name": "J.A.S. Caffeinated"}}, {"type": "node", "id": 12343101012, "lat": 7.0856571, "lon": 125.6195266, "tags": {"amenity": "cafe", "cuisine": "bubble_tea", "name": "Teacup Time"}}, {"type": "node", "id": 12348294450, "lat": 7.1121904, "lon": 125.6317456, "tags": {"amenity": "cafe", "name": "Cafe Fragrance"}}, {"type": "node", "id": 12348306731, "lat": 7.0814872, "lon": 125.6062478, "tags": {"amenity": "cafe", "cuisine": "coffee_shop", "name": "Oye Coffee"}}, {"type": "node", "id": 12348306733, "lat": 7.0816119, "lon": 125.6055862, "tags": {"amenity": "cafe", "cuisine": "coffee_shop", "name": "Strict Picks"}}, {"type": "node", "id": 12350570025, "lat": 7.078198, "lon": 125.6072887, "tags": {"amenity": "cafe", "name": "Good Days"}}, {"type": "node", "id": 12350570030, "lat": 7.0778775, "lon": 125.6015239, "tags": {"amenity": "cafe", "name": "Aulson's Cafe"}}, {"type": "node", "id": 12353238069, "lat": 7.0774025, "lon": 125.6080002, "tags": {"amenity": "cafe", "cuisine": "coffee_shop", "name": "Habitat Specialty Coffee"}}, {"type": "node", "id": 12353525202, "lat": 7.0739954, "lon": 125.6059733, "tags": {"amenity": "cafe", "name": "Seattle's Dream Cafe"}}, {"type": "node", "id": 12353525210, "lat": 7.0722388, "lon": 125.6050361, "tags": {"amenity": "cafe", "branch": "Mt. Apo Street", "name": "Big Brew"}}, {"type": "node", "id": 12357261681, "lat": 7.0778822, "lon": 125.6030824, "tags": {"amenity": "cafe", "name": "Smthn Smthn"}}, {"type": "node", "id": 12357261682, "lat": 7.0782861, "lon": 125.6031719, "tags": {"amenity": "cafe", "name": "HQ"}}, {"type": "node", "id": 12357261696, "lat": 7.0837632, "lon": 125.6149707, "tags": {"amenity": "cafe", "name": "Koop Cafe"}}, {"type": "node", "id": 12357261698, "lat": 7.0782304, "lon": 125.6093943, "tags": {"amenity": "cafe", "name": "Confex & Co. Bakehouse"}}, {"type": "node", "id": 12357279406, "lat": 7.078315, "lon": 125.6069678, "tags": {"amenity": "cafe", "cuisine": "coffee_shop", "name": "Tipsy Brews"}}, {"type": "node", "id": 12357464050, "lat": 7.0868472, "lon": 125.6156739, "tags": {"amenity": "cafe", "name": "Lykke Cafe"}}, {"type": "node", "id": 12357464051, "lat": 7.0870217, "lon": 125.6159213, "tags": {"amenity": "cafe"}}, {"type": "node", "id": 12363584723, "lat": 7.0727278, "lon": 125.6108834, "tags": {"amenity": "cafe"}}, {"type": "node", "id": 12364253664, "lat": 7.0651673, "lon": 125.6089304, "tags": {"amenity": "cafe", "cuisine": "bubble_tea", "name": "Tea Heaven"}}, {"type": "node", "id": 12369740648, "lat": 7.0812826, "lon": 125.5833741, "tags": {"amenity": "cafe", "name": "Smacks Bistro"}}, {"type": "node", "id": 12369740649, "lat": 7.0813326, "lon": 125.5834685, "tags": {"amenity": "cafe", "name": "The Cafeteria"}}, {"type": "node", "id": 12369740669, "lat": 7.0720093, "lon": 125.6155114, "tags": {"amenity": "cafe", "name": "Headspace Coffee"}}, {"type": "node", "id": 12372822681, "lat": 7.0882142, "lon": 125.5805474, "tags": {"amenity": "cafe", "cuisine": "bubble_tea", "name": "John Tea"}}, {"type": "node", "id": 12372863705, "lat": 7.0853915, "lon": 125.58115, "tags": {"amenity": "cafe", "name": "Hi-Way Cafe"}}, {"type": "node", "id": 12372863748, "lat": 7.0903324, "lon": 125.5798655, "tags": {"amenity": "cafe", "name": "Brat Coffee & Merchs"}}, {"type": "node", "id": 12372863772, "lat": 7.0925974, "lon": 125.5796878, "tags": {"amenity": "cafe", "name": "Cafe Tadeo"}}, {"type": "node", "id": 12373023701, "lat": 7.0932771, "lon": 125.5801081, "tags": {"amenity": "cafe", "cuisine": "bubble_tea", "name": "We Got Cha!"}}, {"type": "node", "id": 12377572694, "lat": 7.0805806, "lon": 125.6037751, "tags": {"amenity": "cafe", "name": "Baristro"}}, {"type": "node", "id": 12377596581, "lat": 7.0869698, "lon": 125.6210791, "tags": {"amenity": "cafe", "cuisine": "coffee_shop", "name": "Craft Coffee - Roastery", "outdoor_seating": "no"}}, {"type": "node", "id": 12378367423, "lat": 7.0847444, "lon": 125.6181012, "tags": {"amenity": "cafe", "name": "ConnecteaCupz"}}, {"type": "node", "id": 12378367433, "lat": 7.0841076, "lon": 125.6168908, "tags": {"amenity": "cafe", "name": "Mamz Recipe"}}, {"type": "node", "id": 12384081914, "lat": 7.0786715, "lon": 125.624676, "tags": {"amenity": "cafe", "cuisine": "coffee_shop", "name": "Bestie", "opening_hours": "Mo-Su 08:00-19:00"}}, {"type": "node", "id": 12386435592, "lat": 7.0649021, "lon": 125.6128901, "tags": {"amenity": "cafe", "cuisine": "coffee_shop", "name": "Kapepiliin"}}, {"type": "node", "id": 12386435593, "lat": 7.0685413, "lon": 125.6128056, "tags": {"amenity": "cafe", "name": "Cafein"}}, {"type": "node", "id": 12386435594, "lat": 7.0588222, "lon": 125.6014946, "tags": {"amenity": "cafe", "cuisine": "coffee_shop", "name": "Cafe Racer Coffee"}}, {"type": "node", "id": 12386602536, "lat": 7.0627465, "lon": 125.6096656, "tags": {"amenity": "cafe", "name": "Le Cafe"}}, {"type": "node", "id": 12386797629, "lat": 7.0682541, "lon": 125.6125223, "tags": {"amenity": "cafe", "name": "Brewtique Cafe"}}, {"type": "node", "id": 12386797630, "lat": 7.0671276, "lon": 125.6120118, "tags": {"amenity": "cafe", "cuisine": "coffee_shop", "name": "Overdose Coffee"}}, {"type": "node", "id": 12386797639, "lat": 7.0655747, "lon": 125.6109356, "tags": {"amenity": "cafe", "name": "Cuptions Coffee & Resto"}}, {"type": "node", "id": 12386797659, "lat": 7.0661438, "lon": 125.6129702, "tags": {"amenity": "cafe", "cuisine": "coffee_shop", "name": "Coffee Maybe"}}, {"type": "node", "id": 12389802611, "lat": 7.0817802, "lon": 125.6057404, "tags": {"amenity": "cafe", "name": "Coffee Spot"}}, {"type": "node", "id": 12389802627, "lat": 7.054997, "lon": 125.5984298, "tags": {"amenity": "cafe", "cuisine": "coffee_shop", "name": "Pugstreet Cafe"}}, {"type": "node", "id": 12389802660, "lat": 7.1114602, "lon": 125.6057269, "tags": {"amenity": "cafe", "cuisine": "coffee_shop", "name": "Dreamers Coffee 37"}}, {"type": "node", "id": 12389802669, "lat": 7.0663249, "lon": 125.6165139, "tags": {"amenity": "cafe", "name": "10,000 Reasons"}}, {"type": "node", "id": 12389802675, "lat": 7.0687994, "lon": 125.6145319, "tags": {"amenity": "cafe", "name": "Samz de Cafe"}}, {"type": "node", "id": 12393087032, "lat": 7.0753863, "lon": 125.6127589, "tags": {"amenity": "cafe", "name": "Brew Lane Cafe"}}, {"type": "node", "id": 12395635042, "lat": 7.0875376, "lon": 125.6124335, "tags": {"amenity": "cafe", "name": "Cafe Fiesta"}}, {"type": "node", "id": 12395635089, "lat": 7.0834593, "lon": 125.6158221, "tags": {"amenity": "cafe", "name": "D's Lounge Cafe"}}, {"type": "node", "id": 12395637823, "lat": 7.0792994, "lon": 125.619206, "tags": {"amenity": "cafe", "name": "Delizioso"}}, {"type": "node", "id": 12397211842, "lat": 7.08947, "lon": 125.6161997, "tags": {"amenity": "cafe", "name": "Kingdom Laundry Cafe", "shop": "laundry"}}, {"type": "node", "id": 12397211847, "lat": 7.0898001, "lon": 125.6166144, "tags": {"amenity": "cafe", "name": "Kibs"}}, {"type": "node", "id": 12397211848, "lat": 7.0909399, "lon": 125.6177102, "tags": {"amenity": "cafe", "cuisine": "coffee_shop", "name": "Coffee Co."}}, {"type": "node", "id": 12399718963, "lat": 7.0870635, "lon": 125.6147678, "tags": {"amenity": "cafe", "cuisine": "coffee_shop", "name": "Lerus Coffee"}}, {"type": "node", "id": 12399718970, "lat": 7.0875147, "lon": 125.6150832, "tags": {"addr:city": "Davao City", "addr:neighbourhood": "Obrero", "addr:street": "A. Lacson Street", "amenity": "cafe", "branch": "Obrero", "cuisine": "bubble_tea", "name": "Bubble Tribe"}}, {"type": "node", "id": 12399883975, "lat": 7.0818604, "lon": 125.6012144, "tags": {"amenity": "cafe", "name": "Sibs"}}, {"type": "node", "id": 12399883976, "lat": 7.081334, "lon": 125.6007269, "tags": {"amenity": "cafe", "name": "Delicake Cafe"}}, {"type": "node", "id": 12399883978, "lat": 7.0808212, "lon": 125.6004386, "tags": {"amenity": "cafe", "cuisine": "bubble_tea", "name": "Yogu"}}, {"type": "node", "id": 12401545859, "lat": 7.0877519, "lon": 125.6168572, "tags": {"amenity": "cafe", "cuisine": "coffee_shop", "name": "38 Coffee Shop"}}, {"type": "node", "id": 12401545862, "lat": 7.0880753, "lon": 125.6175267, "tags": {"amenity": "cafe", "name": "Fat Bean Cafe"}}, {"type": "node", "id": 12401545864, "lat": 7.0883538, "lon": 125.6175135, "tags": {"amenity": "cafe", "cuisine": "coffee_shop", "name": "Rosita's Unlimited Cafe"}}, {"type": "node", "id": 12406542302, "lat": 7.2150381, "lon": 125.6437939, "tags": {"amenity": "cafe", "name": "Cafe Vania"}}, {"type": "node", "id": 12406638968, "lat": 7.0493078, "lon": 125.5745137, "tags": {"amenity": "cafe", "cuisine": "coffee_shop", "name": "Tazzaa Cafe"}}, {"type": "node", "id": 12406638977, "lat": 7.050864, "lon": 125.5744509, "tags": {"amenity": "cafe", "cuisine": "coffee_shop", "name": "Eight Cafe"}}, {"type": "node", "id": 12406638978, "lat": 7.0504764, "lon": 125.5726589, "tags": {"amenity": "cafe", "cuisine": "coffee_shop", "name": "WKND 1970"}}, {"type": "node", "id": 12406638980, "lat": 7.0480706, "lon": 125.5723899, "tags": {"amenity": "cafe", "name": "Bandejas Cafe, Diner, & Food Trays"}}, {"type": "node", "id": 12406667517, "lat": 7.0557612, "lon": 125.5752769, "tags": {"addr:city": "Davao City", "addr:housename": "Snooze Inn & Suites", "addr:postcode": "8000", "addr:province": "Davao del Sur", "addr:street": "MacArthur Highway", "addr:unit": "GF #2", "amenity": "cafe", "cuisine": "coffee_shop;japanese;pizza;asian;ice_cream;breakfast;dessert;ramen", "internet_access": "yes", "internet_access:fee": "no", "name": "Jaeger's Cafe", "opening_hours": "Mo-Su 11:00-00:00", "outdoor_seating": "no", "phone": "09693822577", "website": "https://jaegerscafe.com/"}}, {"type": "node", "id": 12414135378, "lat": 7.0766792, "lon": 125.6048146, "tags": {"amenity": "cafe", "name": "Lazaro's Cafe"}}, {"type": "node", "id": 12414135383, "lat": 7.0761732, "lon": 125.603807, "tags": {"amenity": "cafe", "cuisine": "bubble_tea", "name": "Bubble Black Milk Tea"}}, {"type": "node", "id": 12414135396, "lat": 7.0748634, "lon": 125.6024887, "tags": {"amenity": "cafe", "cuisine": "coffee_shop", "name": "Koo Zee Coffee"}}, {"type": "node", "id": 12414905613, "lat": 7.0788249, "lon": 125.608835, "tags": {"amenity": "cafe", "name": "We Got Cha! Bistro"}}, {"type": "node", "id": 12418065630, "lat": 7.0582124, "lon": 125.5868487, "tags": {"amenity": "cafe", "name": "Lately Coffee & Pastries"}}, {"type": "node", "id": 12418065631, "lat": 7.0585211, "lon": 125.5883202, "tags": {"amenity": "cafe", "branch": "Tulip Drive", "name": "Habitat Coffee"}}, {"type": "node", "id": 12429028185, "lat": 7.0692039, "lon": 125.6132785, "tags": {"addr:city": "Davao City", "addr:street": "Padre Gomez Street", "amenity": "cafe", "cuisine": "coffee_shop", "name": "Cuppa Cafe"}}, {"type": "node", "id": 12435817901, "lat": 7.0671129, "lon": 125.5913058, "tags": {"addr:barangay": "Ma-a", "addr:city": "Davao City", "addr:district": "Talomo District", "addr:housename": "Limaria Building", "addr:postcode": "8000", "addr:province": "Davao del Sur", "addr:street": "Don Julian Rodriguez Sr. Avenue", "amenity": "cafe", "cuisine": "coffee_shop", "name": "Yesterdays"}}, {"type": "node", "id": 12443763302, "lat": 7.0495531, "lon": 125.5907059, "tags": {"addr:street": "Tulip Drive", "amenity": "cafe", "name": "Pinta Cafe", "opening_hours": "24/7"}}, {"type": "node", "id": 12487847301, "lat": 7.073689, "lon": 125.5466523, "tags": {"amenity": "cafe", "cuisine": "coffee_shop", "name": "Blue Magic"}}, {"type": "node", "id": 12546717401, "lat": 7.0499989, "lon": 125.5880405, "tags": {"amenity": "cafe", "name": "BO'S Caf\u00e9"}}, {"type": "node", "id": 12553555101, "lat": 7.0794767, "lon": 125.6195836, "tags": {"addr:street": "Lapu-Lapu Street", "amenity": "cafe", "cuisine": "coffee_shop", "diet:vegan": "yes", "name": "Thirty Third Caf\u00e9", "opening_hours": "Mo-Su 11:00-23:00"}}, {"type": "node", "id": 12553564701, "lat": 7.1459391, "lon": 125.6613733, "tags": {"amenity": "cafe"}}, {"type": "node", "id": 12557758201, "lat": 7.0954174, "lon": 125.5041416, "tags": {"amenity": "cafe", "cuisine": "coffee_shop", "name": "D' Cups Cafe", "opening_hours": "Mo-Su 07:00-22:00"}}, {"type": "node", "id": 12557868956, "lat": 7.0705312, "lon": 125.5331369, "tags": {"addr:city": "Davao City", "addr:district": "Catalunan Peque\u00f1o", "addr:housenumber": "Blk 17 Lot 9", "addr:neighbourhood": "Granville 3", "addr:street": "Phoenix St.", "amenity": "cafe", "cuisine": "pastry;cake", "name": "Brownies and Co", "opening_hours": "Mo-Su 10:00-00:00"}}, {"type": "node", "id": 12600160780, "lat": 7.0823467, "lon": 125.6023073}, {"type": "node", "id": 12600160781, "lat": 7.0823742, "lon": 125.6023267}, {"type": "node", "id": 12600160782, "lat": 7.0823467, "lon": 125.6023686}, {"type": "node", "id": 12625097501, "lat": 7.114324, "lon": 125.6226459, "tags": {"addr:street": "Carlos P. Garcia Highway", "amenity": "cafe", "cuisine": "coffee_shop", "name": "Pickup Coffee"}}, {"type": "node", "id": 12666500101, "lat": 7.0770906, "lon": 125.5149649, "tags": {"addr:barangay": "Catalunan Peque\u00f1o", "addr:city": "Davao City", "addr:district": "Talomo District", "addr:postcode": "8000", "addr:province": "Davao del Sur", "addr:street": "Davao-Bukidnon Road", "amenity": "cafe", "cuisine": "coffee_shop", "name": "Starwoods Garden Cafe"}}, {"type": "node", "id": 12688636201, "lat": 7.0924805, "lon": 125.6112489, "tags": {"addr:street": "J. P. Laurel Avenue", "amenity": "cafe", "cuisine": "coffee_shop", "name": "Pick-up Coffee"}}, {"type": "node", "id": 12688651101, "lat": 7.1040041, "lon": 125.6441866, "tags": {"amenity": "cafe", "name": "Cafe Vienna"}}, {"type": "node", "id": 12709538502, "lat": 7.0767083, "lon": 125.5457223, "tags": {"amenity": "cafe", "name": "Mac Alister's"}}, {"type": "node", "id": 12773387481, "lat": 7.0991363, "lon": 125.5946635, "tags": {"addr:barangay": "Ma-a", "addr:city": "Davao City", "addr:district": "Talomo District", "addr:neighbourhood": "Riverfront Corporate City", "addr:postcode": "8000", "addr:province": "Davao del Sur", "addr:street": "Mississipi Street", "amenity": "cafe", "cuisine": "coffee_shop", "name": "Hello Kape"}}, {"type": "node", "id": 12785452701, "lat": 7.0560267, "lon": 125.5815921, "tags": {"amenity": "cafe", "cuisine": "coffee_shop", "name": "Pickup Coffee"}}, {"type": "node", "id": 12785494363, "lat": 7.0554127, "lon": 125.5842604, "tags": {"addr:barangay": "74-A Matina Crossing", "addr:city": "Davao City", "addr:district": "Talomo District", "addr:housename": "The 2nd Nook", "addr:postcode": "8021", "addr:province": "Davao del Sur", "addr:quarter": "Davao Global Township", "addr:street": "Colonel Emilio D. Escandor Street", "air_conditioning": "yes", "amenity": "cafe", "level": "1", "name": "Analogue", "opening_hours": "Mo-Sa 16:00-20:00, Su off", "outdoor_seating": "yes"}}, {"type": "node", "id": 12790704601, "lat": 7.0618286, "lon": 125.5528358, "tags": {"addr:barangay": "Talomo Proper", "addr:city": "Davao City", "addr:district": "Talomo District", "addr:postcode": "8023", "addr:province": "Davao del Sur", "addr:quarter": "Bangkal", "addr:street": "Carlos P. Garcia Highway", "amenity": "cafe", "cuisine": "coffee_shop", "name": "Beans & Vines"}}, {"type": "node", "id": 12811125501, "lat": 7.1207801, "lon": 125.6240761, "tags": {"amenity": "cafe", "cuisine": "coffee_shop"}}, {"type": "node", "id": 12839833910, "lat": 7.1066681, "lon": 125.5262041}, {"type": "node", "id": 12839833911, "lat": 7.1066494, "lon": 125.5261249}, {"type": "node", "id": 12839833912, "lat": 7.1066266, "lon": 125.526017}, {"type": "node", "id": 12839833928, "lat": 7.1070444, "lon": 125.5258253}, {"type": "node", "id": 12839833929, "lat": 7.1070889, "lon": 125.5259147}, {"type": "node", "id": 12839833930, "lat": 7.107051, "lon": 125.5259811}, {"type": "node", "id": 12839833931, "lat": 7.1069818, "lon": 125.5260763}, {"type": "node", "id": 12839833932, "lat": 7.1069276, "lon": 125.5261424}, {"type": "node", "id": 12839833933, "lat": 7.1068926, "lon": 125.5261756}, {"type": "node", "id": 12839833934, "lat": 7.1068494, "lon": 125.5262057}, {"type": "node", "id": 12839833935, "lat": 7.1068001, "lon": 125.5262299}, {"type": "node", "id": 12839833936, "lat": 7.1067396, "lon": 125.5262534}, {"type": "node", "id": 12839833937, "lat": 7.1066857, "lon": 125.5262695}, {"type": "node", "id": 12878285679, "lat": 7.091332, "lon": 125.6104425, "tags": {"addr:floor": "3", "addr:housename": "Abreeza Corporate Center", "amenity": "cafe", "check_date": "2025-06-05", "contact:facebook": "@HabiatKape", "level": "2", "name": "Habi at Kape", "wheelchair": "yes"}}, {"type": "node", "id": 12880916441, "lat": 7.0688566, "lon": 125.6150965, "tags": {"addr:floor": "G", "addr:housename": "100 Roxas Avenue", "addr:street": "Roxas Avenue", "amenity": "cafe", "check_date": "2025-06-02", "name": "Annipie", "payment:cash": "yes", "payment:credit_cards": "yes", "payment:debit_cards": "yes", "payment:qr_code": "yes", "wheelchair": "yes"}}, {"type": "node", "id": 12894400101, "lat": 7.094167, "lon": 125.6219295, "tags": {"addr:postcode": "8000", "addr:street": "Latundan Street", "amenity": "cafe", "level": "1", "name": "&Matcha"}}, {"type": "node", "id": 12901595294, "lat": 7.1020273, "lon": 125.6145677, "tags": {"amenity": "cafe", "check_date": "2025-06-10", "name": "Daleachious cafe"}}, {"type": "way", "id": 37018744, "nodes": [430547458, 430547459, 430547456, 430547457, 430547458], "tags": {"amenity": "cafe", "building": "commercial", "name": "Blugr\u00e9 Coffee"}}, {"type": "way", "id": 107680677, "nodes": [1237073842, 1237073848, 1237073841, 1237073844, 1237073842], "tags": {"addr:city": "Davao City", "addr:province": "Davao del Sur", "addr:street": "P. Sobrecarey Street", "amenity": "cafe", "branch": "Obrero", "building": "yes", "cuisine": "coffee_shop", "name": "Green Coffee"}}, {"type": "way", "id": 146611414, "nodes": [1598781131, 1598781169, 1598781143, 1598781097, 1598781131], "tags": {"amenity": "cafe", "building": "yes", "name": "Coffee for Health"}}, {"type": "way", "id": 159165528, "nodes": [1712661061, 1712661062, 1712661065, 1712661064, 1712661061], "tags": {"addr:barangay": "Alfonso Angliongto Sr.", "addr:city": "Davao City", "addr:district": "Buhangin District", "addr:postcode": "8000", "addr:province": "Davao del Sur", "addr:street": "Angliongto Road", "amenity": "cafe", "brand": "Starbucks", "brand:wikidata": "Q37158", "building": "retail", "cuisine": "coffee_shop", "internet_access": "yes", "internet_access:fee": "no", "name": "Starbucks", "official_name": "Starbucks Coffee", "takeaway": "yes"}}, {"type": "way", "id": 275382748, "nodes": [2800158790, 2800158791, 2800158789, 2800158792, 5181200142, 2800158790], "tags": {"addr:city": "Davao", "addr:postcode": "8000", "addr:street": "Garnet Street", "amenity": "cafe", "building": "yes", "cuisine": "bubble_tea", "internet_access": "no", "name": "NB Milktea Ma-a", "operator": "Raymundo"}}, {"type": "way", "id": 339674874, "nodes": [3468855612, 3468855614, 3468855613, 3468855611, 10660125901, 10660125900, 5203070165, 3468855612], "tags": {"addr:barangay": "8-A", "addr:city": "Davao City", "addr:district": "Poblacion", "addr:neighbourhood": "Marfori Heights", "addr:postcode": "8000", "addr:province": "Davao del Sur", "addr:street": "Ruby Street", "addr:street:corner": "Turquoise Street", "air_conditioning": "yes", "amenity": "cafe", "branch": "Davao - Marfori", "brand": "Green Coffee", "building": "house", "building:use": "retail", "contact:facebook": "https://www.facebook.com/TheGreenCoffee", "contact:website": "https://www.thegreencoffee.com", "internet_access": "wlan", "name": "Green Coffee", "opening_hours": "Mo-Su 00:00-02:00; 07:00-24:00"}}, {"type": "way", "id": 406212503, "nodes": [4083153128, 4083153094, 4083153088, 4083153098, 4083153097, 4083153133, 4083153134, 4083153119, 4083153121, 4083153125, 4083153128], "tags": {"addr:city": "Davao City", "addr:postcode": "8000", "addr:street": "T. Palma Gil Street", "amenity": "cafe", "branch": "Polo", "building": "yes", "cuisine": "coffee_shop", "name": "Green Coffee"}}, {"type": "way", "id": 406272717, "nodes": [4083630363, 4083630365, 4083630360, 4083630356, 4083630363], "tags": {"amenity": "cafe", "branch": "Ecoland", "building": "commercial", "cuisine": "coffee_shop", "name": "Green Coffee"}}, {"type": "way", "id": 429005649, "nodes": [4281359199, 4281359201, 4281359182, 4281359181, 4281359199], "tags": {"amenity": "cafe", "building": "yes", "name": "Majestea Cafe"}}, {"type": "way", "id": 437408184, "nodes": [4352204352, 4352204353, 4352204354, 4352204355, 4352204356, 4352204357, 4352204352], "tags": {"amenity": "cafe", "building": "yes", "internet_access": "yes"}}, {"type": "way", "id": 735140610, "nodes": [6885127853, 6885127854, 6885127855, 6885127856, 6885127853], "tags": {"addr:city": "Davao City", "addr:postcode": "8000", "addr:street": "Kamagong", "amenity": "cafe", "building": "commercial", "cuisine": "coffee_shop;savory_pancakes;pasta;breakfast;sandwich;coffee", "internet_access": "yes", "name": "Silverjade Caf\u00e9", "outdoor_seating": "yes"}}, {"type": "way", "id": 749658667, "nodes": [7010260603, 7010260604, 7010260605, 7010260606, 7010260603], "tags": {"addr:city": "Davao City", "addr:postcode": "8000", "addr:street": "San Pedro Avenue", "amenity": "cafe", "building": "yes"}}, {"type": "way", "id": 1126389812, "nodes": [10299648843, 10299648842, 4929036497, 10299648841, 10299648839, 10299648838, 10299648840, 10299648843], "tags": {"addr:barangay": "19-B", "addr:city": "Davao City", "addr:district": "Poblacion", "addr:postcode": "8000", "addr:province": "Davao del Sur", "addr:street": "F. Torres Street", "amenity": "cafe", "brand": "Starbucks", "brand:wikidata": "Q37158", "brand:wikipedia": "en:Starbucks", "building": "retail", "check_date": "2024-08-30", "cuisine": "coffee_shop", "name": "Starbucks", "official_name": "Starbucks Coffee", "takeaway": "yes"}}, {"type": "way", "id": 1231065413, "nodes": [11416972176, 11416972169, 11416972170, 11416972171, 11416972172, 11416972173, 11416972174, 11416972175, 11416972188, 11416972187, 11416972186, 11416972185, 11416972184, 11416972183, 11416972182, 11416972181, 11416972180, 11416972179, 11416972178, 11416972177, 11416972176], "tags": {"amenity": "cafe", "branch": "Davao Global Township", "brand": "Seattle's Best Coffee", "brand:wikidata": "Q766329", "building": "yes", "cuisine": "coffee_shop", "name": "Seattle's Best Coffee", "takeaway": "yes"}}, {"type": "way", "id": 1330073031, "nodes": [11340846669, 12306237417, 12306237416, 12306237415, 11340846669], "tags": {"addr:barangay": "Talomo Proper", "addr:city": "Davao City", "addr:district": "Talomo District", "addr:neighbourhood": "Balusong", "addr:postcode": "8000", "addr:province": "Davao del Sur", "addr:street": "Carlos P. Garcia Highway", "air_conditioning": "yes", "amenity": "cafe", "branch": "Davao - Diversion", "building": "retail", "contact:facebook": "https://www.facebook.com/TheGreenCoffee", "contact:website": "https://www.thegreencoffee.com", "cuisine": "coffee_shop", "internet_access": "wlan", "name": "Green Coffee", "opening_hours": "Mo-Su 07:00-04:00"}}, {"type": "way", "id": 1361091714, "nodes": [4281674300, 12600160780, 12600160781, 12600160782, 4281674300], "tags": {"addr:city": "Davao City", "addr:district": "Poblacion", "addr:housenumber": "77", "addr:neighbourhood": "Marfori Heights", "addr:postcode": "8000", "addr:province": "Davao del Sur", "addr:street": "Topaz Street", "amenity": "cafe", "building": "commercial", "cuisine": "coffee_shop", "name": "AtCurbSide", "opening_hours": "Mo-Fr 07:00-20:00", "outdoor_seating": "yes"}}, {"type": "way", "id": 1386981243, "nodes": [12839833928, 12839833912, 10019758117, 12839833911, 12839833910, 12839833937, 12839833936, 12839833935, 12839833934, 12839833933, 12839833932, 12839833931, 12839833930, 12839833929, 12839833928], "tags": {"addr:barangay": "Tacunan", "addr:city": "Davao City", "addr:district": "Tugbok District", "addr:place": "Purok 2", "addr:postcode": "8000", "addr:province": "Davao del Sur", "amenity": "cafe", "contact:facebook": "https://www.facebook.com/coffeebytheway", "cuisine": "coffee_shop", "landuse": "retail", "name": "Coffee By The Way", "opening_hours": "Tu-Fr 15:00-23:00; Sa-Su 07:00-10:00, 15:00-23:00, Mo off", "outdoor_seating": "yes"}}]}