{"version": 0.6, "generator": "Overpass API 0.7.62.7 375dc00a", "osm3s": {"timestamp_osm_base": "2025-07-19T10:07:09Z", "copyright": "The data included in this document is from www.openstreetmap.org. The data is made available under ODbL."}, "elements": [{"type": "node", "id": 4225363481, "lat": 2.2881175, "lon": 111.8266354, "tags": {"amenity": "cafe", "name": "Kafe Sion Hin", "name:en": "Sion Hin Cafe", "name:ms": "Kafe Sion Hin"}}, {"type": "node", "id": 4295515591, "lat": 2.2910967, "lon": 111.8260733, "tags": {"addr:postcode": "96000", "amenity": "cafe", "name": "Ling Conner Cafe"}}, {"type": "node", "id": 4316569792, "lat": 2.3006702, "lon": 111.8180278, "tags": {"addr:housenumber": "40B", "addr:postcode": "96000", "addr:street": "Jalan Kampung Hilir", "amenity": "cafe", "cuisine": "coffee_shop;cake;grill;pancake;pasta;steak_house;barbecue", "internet_access": "wlan", "name": "TheResidence coffee house", "opening_hours": "Sa-Th", "operator": "Syahizanst"}}, {"type": "node", "id": 4430077490, "lat": 2.2942572, "lon": 111.8236507, "tags": {"addr:street": "Jalan Archer", "amenity": "cafe", "name": "Hon Hin cafe", "name:en": "Hon Hin cafe"}}, {"type": "node", "id": 4469526689, "lat": 2.2932946, "lon": 111.8414257, "tags": {"amenity": "cafe", "name": "Warung BM", "name:en": "Warung BM"}}, {"type": "node", "id": 6372881605, "lat": 2.2910011, "lon": 111.8216349, "tags": {"amenity": "cafe", "name": "Dataran Cafe"}}, {"type": "node", "id": 6372881606, "lat": 2.2909592, "lon": 111.8214237, "tags": {"amenity": "cafe", "name": "Mum Mum Food Street"}}, {"type": "node", "id": 6372881608, "lat": 2.2924739, "lon": 111.8229711, "tags": {"amenity": "cafe", "name": "Macao Imperial Tea"}}, {"type": "node", "id": 6432218231, "lat": 2.291661, "lon": 111.8433571, "tags": {"amenity": "cafe", "name": "Zen Q Desserts"}}, {"type": "node", "id": 6432234321, "lat": 2.2878944, "lon": 111.8263362, "tags": {"amenity": "cafe", "name": "Cool Desert House"}}, {"type": "node", "id": 6479937764, "lat": 2.3515296, "lon": 111.8715949, "tags": {"amenity": "cafe", "name": "Friends Cafe"}}, {"type": "node", "id": 6958997532, "lat": 2.2933907, "lon": 111.8279095, "tags": {"amenity": "cafe", "name": "Yummy's Kafe"}}, {"type": "node", "id": 7502832910, "lat": 2.266043, "lon": 111.8628695, "tags": {"addr:city": "Sibu", "addr:housenumber": "31", "addr:postcode": "96000", "addr:street": "Jalan Salim 17", "amenity": "cafe", "cuisine": "chinese;noodles;fried_food", "name": "Hong Lee Cafe"}}, {"type": "node", "id": 7502942256, "lat": 2.2664974, "lon": 111.8606405, "tags": {"addr:city": "Sibu", "addr:housenumber": "7", "addr:postcode": "96000", "addr:street": "Jalan Salim 5B3", "amenity": "cafe", "cuisine": "coffee_shop;ice_cream;fish_and_chips;cake;western", "name": "Cake Times Too", "opening_hours": "09:30-22:00"}}, {"type": "node", "id": 7502958620, "lat": 2.2671355, "lon": 111.8610982, "tags": {"addr:city": "Sibu", "addr:housenumber": "LOT 25", "addr:postcode": "96000", "addr:street": "Jalan Salim 5B1", "amenity": "cafe", "name": "Bebendai Music Cafe"}}, {"type": "node", "id": 7503057796, "lat": 2.2676066, "lon": 111.8625865, "tags": {"addr:city": "Sibu", "addr:postcode": "96000", "addr:street": "LORONG SENTOSA TIMUR 6", "amenity": "cafe", "name": "Sentosa Cafe"}}, {"type": "node", "id": 7503421949, "lat": 2.2905496, "lon": 111.8226521, "tags": {"addr:city": "SIBU", "addr:postcode": "96000", "addr:street": "Jalan Lau King Howe", "amenity": "cafe", "cuisine": "drinks;bubble_tea", "name": "H!CAA\u8d3a\u8336"}}, {"type": "node", "id": 7503483008, "lat": 2.2906305, "lon": 111.8225173, "tags": {"addr:city": "SIBU", "addr:postcode": "96000", "addr:street": "Jalan Lau King Howe 1", "amenity": "cafe", "cuisine": "chinese", "name": "\u8c6a\u54c1\u8336\u5ba4"}}, {"type": "node", "id": 7503488668, "lat": 2.2907188, "lon": 111.8223748, "tags": {"addr:city": "SIBU", "addr:postcode": "96000", "addr:street": "Jalan Lau King Howe1", "amenity": "cafe", "branch": "Sibu", "brand": "Xing Fu Tang", "brand:en": "Xing Fu Tang", "brand:wikidata": "Q95720330", "brand:wikipedia": "zh:\u5e78\u798f\u5802", "brand:zh": "\u5e78\u798f\u5802", "cuisine": "bubble_tea", "int_name": "Xing Fu Tang", "name": "Xing Fu Tang", "name:en": "Xing Fu Tang", "name:zh": "\u5e78\u798f\u5802", "takeaway": "yes"}}, {"type": "node", "id": 7503505265, "lat": 2.2915671, "lon": 111.8197241, "tags": {"addr:city": "SIBU", "addr:housenumber": "LOT 66", "addr:postcode": "96000", "addr:street": "Lorong Lau King Howe 1", "amenity": "cafe", "cuisine": "bubble_tea;coffee_shop", "name": "RONCHA", "name:zh-Hant": "\u660e\u6708\u74cf\u8336"}}, {"type": "node", "id": 7503551890, "lat": 2.2909339, "lon": 111.8210223, "tags": {"addr:city": "SIBU", "addr:postcode": "96000", "addr:street": "JALAN LAU KING HOWE 1", "amenity": "cafe", "name": "Outright Coffee"}}, {"type": "node", "id": 7503553553, "lat": 2.290799, "lon": 111.8203861, "tags": {"addr:city": "SIBU", "addr:housenumber": "24", "addr:postcode": "96000", "addr:street": "Jalan Lau King Howe 1", "amenity": "cafe", "name": "Lim teh Kopitiam"}}, {"type": "node", "id": 7503603474, "lat": 2.2914888, "lon": 111.8197775, "tags": {"addr:city": "SIBU", "addr:housenumber": "LOT 62 & 64", "addr:postcode": "96000", "addr:street": "Lorong Lau King Howe 1", "amenity": "cafe", "cuisine": "coffee_shop;bubble_tea", "name": "Royaltea Sibu"}}, {"type": "node", "id": 7503614745, "lat": 2.2916658, "lon": 111.8209687, "tags": {"addr:city": "SIBU", "addr:postcode": "96000", "addr:street": "JALAN LAU KING HOWE", "amenity": "cafe", "name": "Utepia"}}, {"type": "node", "id": 7503748144, "lat": 2.2928384, "lon": 111.8221757, "tags": {"addr:city": "SIBU", "addr:postcode": "96000", "addr:street": "Jalan Kpg. Datuk5", "amenity": "cafe", "name": "Mas Corner Cafe (2000)"}}, {"type": "node", "id": 7515219711, "lat": 2.2933349, "lon": 111.821375, "tags": {"addr:city": "SIBU", "addr:postcode": "96000", "addr:street": "Jalan Kpg. Datuk 4", "amenity": "cafe", "name": "Warung Pak Omet"}}, {"type": "node", "id": 7515229789, "lat": 2.2930551, "lon": 111.8213359, "tags": {"addr:city": "SIBU", "addr:postcode": "96000", "addr:street": "Jalan Kpg. Datuk4", "amenity": "cafe", "name": "Twin Corner Kopitiam"}}, {"type": "node", "id": 7522958359, "lat": 2.2973109, "lon": 111.8251311, "tags": {"addr:city": "SIBU", "addr:housenumber": "1", "addr:postcode": "96000", "addr:street": "Jalan Tun Abang Haji Openg 1", "amenity": "cafe", "name": "The Coffee Code"}}, {"type": "node", "id": 7523003870, "lat": 2.2974504, "lon": 111.824385, "tags": {"addr:city": "SIBU", "addr:postcode": "96000", "addr:street": "Jalan Tun Abang Haji Openg1", "amenity": "cafe", "name": "A ONE CAFE"}}, {"type": "node", "id": 7523010947, "lat": 2.2974722, "lon": 111.8242847, "tags": {"addr:city": "SIBU", "addr:housenumber": "NO 29", "addr:postcode": "96000", "addr:street": "Jalan Tun Abang Haji Openg1", "amenity": "cafe", "name": "L A Cafe"}}, {"type": "node", "id": 7523052690, "lat": 2.2969225, "lon": 111.8257589, "tags": {"addr:city": "SIBU", "addr:housenumber": "NO 4", "addr:postcode": "96000", "addr:street": "Jalan Intan6", "amenity": "cafe", "cuisine": "sandwich", "name": "Backerei"}}, {"type": "node", "id": 7523085917, "lat": 2.2972212, "lon": 111.8258179, "tags": {"addr:city": "SIBU", "addr:postcode": "96000", "addr:street": "Jalan Intan6", "amenity": "cafe", "cuisine": "dessert", "name": "Nica Plus"}}, {"type": "node", "id": 7538056297, "lat": 2.3002238, "lon": 111.8426051, "tags": {"addr:city": "SIBU", "addr:housenumber": "2", "addr:postcode": "96000", "addr:street": "Jalan Dr Wong Soon Kai", "amenity": "cafe", "name": "Truedan Sibu"}}, {"type": "node", "id": 7538111675, "lat": 2.3015978, "lon": 111.8431197, "tags": {"addr:city": "SIBU", "addr:housenumber": "NO 52", "addr:postcode": "96000", "addr:street": "LORONG DR WONG SOON KAI", "amenity": "cafe", "name": "Old Century Sibu"}}, {"type": "node", "id": 7538130521, "lat": 2.3014218, "lon": 111.8430525, "tags": {"addr:city": "SIBU", "addr:housenumber": "NO 36", "addr:postcode": "96000", "addr:street": "LORONG DR WONG SOON KAI", "amenity": "cafe", "cuisine": "bubble_tea", "name": "FengCha"}}, {"type": "node", "id": 7538130709, "lat": 2.301326, "lon": 111.8430673, "tags": {"addr:city": "SIBU", "addr:housenumber": "46", "addr:postcode": "96000", "addr:street": "LORONG DR WONG SOON KAI", "amenity": "cafe", "cuisine": "bubble_tea", "name": "Regiustea Sibu"}}, {"type": "node", "id": 7538182455, "lat": 2.301517, "lon": 111.8436708, "tags": {"addr:city": "SIBU", "addr:housenumber": "NO 36", "addr:postcode": "96000", "addr:street": "LORONG DR WONG SOON KAI", "amenity": "cafe", "name": "\u9326\u767c\u8336\u5ba4"}}, {"type": "node", "id": 7538187963, "lat": 2.3009954, "lon": 111.8435858, "tags": {"addr:city": "SIBU", "addr:housenumber": "NO 36", "addr:postcode": "96000", "addr:street": "LORONG DR WONG SOON KAI", "amenity": "cafe", "name": "Idrink \u543e\u996e\u826f\u54c1 Sibu"}}, {"type": "node", "id": 7538237369, "lat": 2.3008292, "lon": 111.8435469, "tags": {"addr:city": "SIBU", "addr:housenumber": "NO 28", "addr:postcode": "96000", "addr:street": "LORONG DR WONG SOON KAI", "amenity": "cafe", "cuisine": "bubble_tea", "name": "The Yunique Tea \u5fa1\u9ed1\u5802 Sibu"}}, {"type": "node", "id": 11257000948, "lat": 2.2904637, "lon": 111.8207491, "tags": {"addr:city": "Sibu", "addr:postcode": "96000", "addr:street": "Jalan Lau King Howe 1", "amenity": "cafe", "brand": "Tealive", "brand:wikidata": "Q95722097", "cuisine": "tea;coffee_shop", "name": "Tealive", "takeaway": "yes"}}]}