{"version": 0.6, "generator": "Overpass API 0.7.62.7 375dc00a", "osm3s": {"timestamp_osm_base": "2025-07-19T10:04:10Z", "copyright": "The data included in this document is from www.openstreetmap.org. The data is made available under ODbL."}, "elements": [{"type": "node", "id": 3406053919, "lat": 30.6615585, "lon": -88.1903267}, {"type": "node", "id": 3406053920, "lat": 30.6615616, "lon": -88.1901242}, {"type": "node", "id": 3406053921, "lat": 30.6616477, "lon": -88.1901259}, {"type": "node", "id": 3406053922, "lat": 30.6616446, "lon": -88.1903285}, {"type": "node", "id": 3475323022, "lat": 30.6816469, "lon": -88.2260847}, {"type": "node", "id": 3475323023, "lat": 30.6816466, "lon": -88.2258694}, {"type": "node", "id": 3475323024, "lat": 30.6817302, "lon": -88.2258693}, {"type": "node", "id": 3475323025, "lat": 30.6817305, "lon": -88.2260846}, {"type": "node", "id": 3601268707, "lat": 30.6953612, "lon": -88.0432125}, {"type": "node", "id": 3601268708, "lat": 30.6952584, "lon": -88.043168}, {"type": "node", "id": 3601268709, "lat": 30.6953016, "lon": -88.0430327}, {"type": "node", "id": 3601268710, "lat": 30.6954044, "lon": -88.0430772}, {"type": "node", "id": 3611551186, "lat": 30.6920961, "lon": -88.0407451}, {"type": "node", "id": 3611551187, "lat": 30.6921316, "lon": -88.0406288}, {"type": "node", "id": 3611551188, "lat": 30.6920803, "lon": -88.0406093}, {"type": "node", "id": 3611551189, "lat": 30.6921312, "lon": -88.0404381}, {"type": "node", "id": 3611551190, "lat": 30.6920818, "lon": -88.0404172}, {"type": "node", "id": 3611551191, "lat": 30.6919902, "lon": -88.0407102}, {"type": "node", "id": 3625755617, "lat": 30.703295, "lon": -88.1251735}, {"type": "node", "id": 3625755618, "lat": 30.7032938, "lon": -88.1250924}, {"type": "node", "id": 3625755619, "lat": 30.7034536, "lon": -88.1250894}, {"type": "node", "id": 3625755620, "lat": 30.7034547, "lon": -88.1251704}, {"type": "node", "id": 3686110304, "lat": 30.6759634, "lon": -88.1229285}, {"type": "node", "id": 3686110305, "lat": 30.6757666, "lon": -88.1229255}, {"type": "node", "id": 3686110306, "lat": 30.6757658, "lon": -88.1229987}, {"type": "node", "id": 3686110307, "lat": 30.6759626, "lon": -88.1230016}, {"type": "node", "id": 4331598722, "lat": 30.6543351, "lon": -88.1169214}, {"type": "node", "id": 4331598725, "lat": 30.6543775, "lon": -88.1168535}, {"type": "node", "id": 4331598730, "lat": 30.6544991, "lon": -88.1170597}, {"type": "node", "id": 4331598731, "lat": 30.6545413, "lon": -88.1169917}, {"type": "node", "id": 5309559191, "lat": 30.6808167, "lon": -88.073382}, {"type": "node", "id": 5309559192, "lat": 30.6807048, "lon": -88.0733373}, {"type": "node", "id": 5309559193, "lat": 30.6807084, "lon": -88.073325}, {"type": "node", "id": 5309559194, "lat": 30.68065, "lon": -88.0733017}, {"type": "node", "id": 5309559195, "lat": 30.6806292, "lon": -88.0733722}, {"type": "node", "id": 5309559196, "lat": 30.680639, "lon": -88.0733761}, {"type": "node", "id": 5309559197, "lat": 30.6806337, "lon": -88.073394}, {"type": "node", "id": 5309559198, "lat": 30.6806512, "lon": -88.073401}, {"type": "node", "id": 5309559199, "lat": 30.6806445, "lon": -88.0734238}, {"type": "node", "id": 5309559200, "lat": 30.6806781, "lon": -88.0734372}, {"type": "node", "id": 5309559201, "lat": 30.6806826, "lon": -88.073422}, {"type": "node", "id": 5309559202, "lat": 30.680792, "lon": -88.0734656}, {"type": "node", "id": 5309594344, "lat": 30.6806928, "lon": -88.0733188}, {"type": "node", "id": 5501685944, "lat": 30.6757037, "lon": -88.1447413}, {"type": "node", "id": 5501685945, "lat": 30.6757037, "lon": -88.1448924}, {"type": "node", "id": 5501685946, "lat": 30.6755052, "lon": -88.1448924}, {"type": "node", "id": 5501685947, "lat": 30.6755058, "lon": -88.1447403}, {"type": "node", "id": 5517609312, "lat": 30.6764949, "lon": -88.1492484}, {"type": "node", "id": 5517609313, "lat": 30.6764998, "lon": -88.1491843}, {"type": "node", "id": 5517609314, "lat": 30.6764949, "lon": -88.1491171}, {"type": "node", "id": 5517609315, "lat": 30.6764119, "lon": -88.149112}, {"type": "node", "id": 5517609316, "lat": 30.6763803, "lon": -88.1491177}, {"type": "node", "id": 5517609317, "lat": 30.6763726, "lon": -88.1491818}, {"type": "node", "id": 5517609318, "lat": 30.6763837, "lon": -88.1492437}, {"type": "node", "id": 5517609319, "lat": 30.6764074, "lon": -88.1492417}, {"type": "node", "id": 5517609320, "lat": 30.6764358, "lon": -88.149243}, {"type": "node", "id": 6570564386, "lat": 30.6703712, "lon": -88.1014815, "tags": {"addr:housenumber": "2545", "addr:postcode": "36606", "addr:street": "Government Boulevard", "amenity": "cafe", "cuisine": "american;sandwich;coffee_shop", "internet_access": "wlan", "name": "Greyhound Cafe", "opening_hours": "Mo-Su 10:00-05:00", "website": "https://www.greyhound.com/"}}, {"type": "node", "id": 11769137983, "lat": 30.6987151, "lon": -88.1405222, "tags": {"amenity": "cafe", "cuisine": "coffee_shop", "name": "Carpe Diem Coffee and Tea Company"}}, {"type": "node", "id": 11965413255, "lat": 30.597666, "lon": -88.1601181}, {"type": "node", "id": 11965413256, "lat": 30.597509, "lon": -88.1601194}, {"type": "node", "id": 11965413257, "lat": 30.597509, "lon": -88.1601141}, {"type": "node", "id": 11965413258, "lat": 30.5974212, "lon": -88.1601148}, {"type": "node", "id": 11965413259, "lat": 30.5974207, "lon": -88.1600236}, {"type": "node", "id": 11965413260, "lat": 30.5974507, "lon": -88.1600234}, {"type": "node", "id": 11965413261, "lat": 30.5974505, "lon": -88.1599992}, {"type": "node", "id": 11965413262, "lat": 30.5975336, "lon": -88.1599985}, {"type": "node", "id": 11965413263, "lat": 30.5975339, "lon": -88.1600334}, {"type": "node", "id": 11965413264, "lat": 30.5976655, "lon": -88.1600323}, {"type": "node", "id": 11975585648, "lat": 30.6885184, "lon": -88.1224754}, {"type": "node", "id": 11975585649, "lat": 30.6885057, "lon": -88.1224765}, {"type": "node", "id": 11975585650, "lat": 30.6885052, "lon": -88.1224884}, {"type": "node", "id": 11975585651, "lat": 30.6884838, "lon": -88.1224884}, {"type": "node", "id": 11975585652, "lat": 30.6884833, "lon": -88.1224777}, {"type": "node", "id": 11975585653, "lat": 30.6884414, "lon": -88.1224754}, {"type": "node", "id": 11975585654, "lat": 30.6884405, "lon": -88.1224103}, {"type": "node", "id": 11975585655, "lat": 30.6884828, "lon": -88.1224103}, {"type": "node", "id": 11975585656, "lat": 30.6884828, "lon": -88.1223995}, {"type": "node", "id": 11975585657, "lat": 30.6885047, "lon": -88.122399}, {"type": "node", "id": 11975585658, "lat": 30.6885038, "lon": -88.1224103}, {"type": "node", "id": 11975585659, "lat": 30.6885417, "lon": -88.1224086}, {"type": "node", "id": 11975585660, "lat": 30.6885417, "lon": -88.1224409}, {"type": "node", "id": 11975585661, "lat": 30.6885559, "lon": -88.1224409}, {"type": "node", "id": 11975585662, "lat": 30.6885559, "lon": -88.1224816}, {"type": "node", "id": 11975585663, "lat": 30.6885198, "lon": -88.1224828}, {"type": "node", "id": 13007038177, "lat": 30.689805, "lon": -88.0425438, "tags": {"addr:city": "Mobile", "addr:housenumber": "202", "addr:postcode": "36602", "addr:state": "AL", "addr:street": "Government Street", "amenity": "cafe", "internet_access": "yes", "internet_access:fee": "no", "name": "Knucklebones Elixir Co.", "opening_hours": "Mo-Fr 07:00-18:00; Sa 08:00-15:00; Su off", "phone": "+1-251-283-0983", "website": "https://www.knuckleboneselixir.com/"}}, {"type": "way", "id": 333486278, "nodes": [3406053919, 3406053920, 3406053921, 3406053922, 3406053919], "tags": {"addr:city": "Mobile", "addr:housenumber": "1363", "addr:postcode": "36695", "addr:state": "AL", "addr:street": "Hillcrest Road", "amenity": "cafe", "branch": "Hillcrest & Grelot", "brand": "Starbucks", "brand:wikidata": "Q37158", "building": "yes", "cuisine": "coffee_shop", "internet_access": "wlan", "name": "Starbucks", "official_name": "Starbucks Coffee", "phone": "+1 251-776-1161", "takeaway": "yes", "website": "https://www.starbucks.com/store-locator/store/10395/hillcrest-greelot-1363-hillcrest-rd-mobile-al-366953925-us"}}, {"type": "way", "id": 340316288, "nodes": [3475323022, 3475323023, 3475323024, 3475323025, 3475323022], "tags": {"addr:city": "Mobile", "addr:housenumber": "390", "addr:postcode": "36695", "addr:state": "AL", "addr:street": "Schillinger Road", "amenity": "cafe", "branch": "Airport Boulevard & Schillinger", "brand": "Starbucks", "brand:wikidata": "Q37158", "building": "yes", "cuisine": "coffee_shop", "name": "Starbucks", "official_name": "Starbucks Coffee", "opening_hours": "Fr,Sa 05:30-21:30; Mo-Th 05:30-21:00; Su 06:00-21:00", "phone": "+1 251-633-7087", "ref": "15933", "takeaway": "yes", "website": "https://www.starbucks.com/store-locator/store/15933/airport-blvd-schillinger-390-schillinger-road-mobile-al-366958960-us"}}, {"type": "way", "id": 354392070, "nodes": [3601268707, 3601268710, 3601268709, 3601268708, 3601268707], "tags": {"addr:city": "Mobile", "addr:housenumber": "200", "addr:postcode": "36602", "addr:state": "AL", "addr:street": "Saint Joseph Street", "amenity": "cafe", "building": "yes", "cuisine": "coffee_shop", "name": "Yellowhammer Coffee"}}, {"type": "way", "id": 355559749, "nodes": [3611551186, 3611551187, 3611551188, 3611551189, 3611551190, 3611551191, 3611551186], "tags": {"addr:city": "Mobile", "addr:housenumber": "3", "addr:postcode": "36602", "addr:state": "AL", "addr:street": "South Royal Street", "amenity": "cafe", "building": "yes", "name": "Serda's Coffee Company"}}, {"type": "way", "id": 357255569, "nodes": [3625755617, 3625755618, 3625755619, 3625755620, 3625755617], "tags": {"addr:city": "Mobile", "addr:housenumber": "3451", "addr:postcode": "36608", "addr:state": "AL", "addr:street": "Spring Hill Avenue", "amenity": "cafe", "branch": "I 65 & Spring Hill", "brand": "Starbucks", "brand:wikidata": "Q37158", "building": "yes", "cuisine": "coffee_shop", "name": "Starbucks", "official_name": "Starbucks Coffee", "phone": "+1 251-344-3419", "ref": "18132", "takeaway": "yes", "website": "https://www.starbucks.com/store-locator/store/18132/i-65-spring-hill-3451-spring-hill-ave-mobile-al-366081559-us"}}, {"type": "way", "id": 364574871, "nodes": [3686110304, 3686110305, 3686110306, 3686110307, 3686110304], "tags": {"addr:city": "Mobile", "addr:housenumber": "3255", "addr:postcode": "36606", "addr:state": "AL", "addr:street": "Airport Boulevard", "amenity": "cafe", "branch": "I-65 at Airport Boulevard", "brand": "Starbucks", "brand:wikidata": "Q37158", "building": "yes", "cuisine": "coffee_shop", "internet_access": "wlan", "name": "Starbucks", "official_name": "Starbucks Coffee", "phone": "+1 251-473-6204", "ref": "7197", "takeaway": "yes", "website": "https://www.starbucks.com/store-locator/store/7197/i-65-at-airport-blvd-3255-airport-blvd-mobile-al-366063201-us"}}, {"type": "way", "id": 435224294, "nodes": [4331598722, 4331598730, 4331598731, 4331598725, 4331598722], "tags": {"addr:city": "Mobile", "addr:housenumber": "3075", "addr:postcode": "36606", "addr:state": "AL", "addr:street": "Government Boulevard", "addr:unit": "B100", "amenity": "cafe", "branch": "Government & I-65", "brand": "Starbucks", "brand:wikidata": "Q37158", "building": "yes", "cuisine": "coffee_shop", "name": "Starbucks", "official_name": "Starbucks Coffee", "phone": "+1 251-421-3831", "ref": "1013322", "takeaway": "yes", "website": "https://www.starbucks.com/store-locator/store/1013322/government-i-65-3075-government-blvd-suite-b-100-mobile-al-3660626"}}, {"type": "way", "id": 549660602, "nodes": [5309559191, 5309559192, 5309559193, 5309594344, 5309559194, 5309559195, 5309559196, 5309559197, 5309559198, 5309559199, 5309559200, 5309559201, 5309559202, 5309559191], "tags": {"addr:city": "Shoppes", "addr:housenumber": "1510", "addr:postcode": "36604", "addr:state": "AL", "addr:street": "Government Street", "amenity": "cafe", "branch": "Government & Catherine", "brand": "Starbucks", "brand:wikidata": "Q37158", "building": "yes", "cuisine": "coffee_shop", "name": "Starbucks", "official_name": "Starbucks Coffee", "phone": "+1 251-470-0227", "ref": "10391", "takeaway": "yes", "website": "https://www.starbucks.com/store-locator/store/10391/government-catherine-1510-government-st-mobile-al-366042006-us"}}, {"type": "way", "id": 572685591, "nodes": [5501685944, 5501685945, 5501685946, 5501685947, 5501685944], "tags": {"addr:city": "Mobile", "addr:housenumber": "3901", "addr:postcode": "36608", "addr:state": "AL", "addr:street": "Airport Boulevard", "amenity": "cafe", "branch": "Airport Boulevard & Downtowner", "brand": "Starbucks", "brand:wikidata": "Q37158", "building": "yes", "cuisine": "coffee_shop", "name": "Starbucks", "official_name": "Starbucks Coffee", "outdoor_seating": "yes", "phone": "+1 251-341-5672", "ref": "12876", "takeaway": "yes", "website": "https://www.starbucks.com/store-locator/store/12876/airport-blvd-downtowner-3901-airport-blvd-mobile-al-366081621-us"}}, {"type": "way", "id": 574905759, "nodes": [5517609312, 5517609313, 5517609314, 5517609315, 5517609316, 5517609317, 5517609318, 5517609319, 5517609320, 5517609312], "tags": {"amenity": "cafe", "brand": "PJ's Coffee of New Orleans", "brand:wikidata": "Q7119454", "building": "yes", "cuisine": "coffee_shop", "name": "PJ's Coffee of New Orleans", "takeaway": "yes"}}, {"type": "way", "id": 1290550063, "nodes": [11965413255, 11965413256, 11965413257, 11965413258, 11965413259, 11965413260, 11965413261, 11965413262, 11965413263, 11965413264, 11965413255], "tags": {"amenity": "cafe", "brand": "Starbucks", "brand:wikidata": "Q37158", "building": "yes", "cuisine": "coffee_shop", "name": "Starbucks", "official_name": "Starbucks Coffee", "source": "microsoft/BuildingFootprints", "takeaway": "yes"}}, {"type": "way", "id": 1291787551, "nodes": [11975585648, 11975585649, 11975585650, 11975585651, 11975585652, 11975585653, 11975585654, 11975585655, 11975585656, 11975585657, 11975585658, 11975585659, 11975585660, 11975585661, 11975585662, 11975585663, 11975585648], "tags": {"amenity": "cafe", "building": "yes", "cuisine": "coffee_shop", "name": "Yellowhammer Coffee"}}]}