{"version": 0.6, "generator": "Overpass API 0.7.62.7 375dc00a", "osm3s": {"timestamp_osm_base": "2025-07-19T10:04:10Z", "copyright": "The data included in this document is from www.openstreetmap.org. The data is made available under ODbL."}, "elements": [{"type": "node", "id": 1139278243, "lat": 33.2111423, "lon": -87.5682468, "tags": {"amenity": "cafe", "name": "Edelweiss"}}, {"type": "node", "id": 1382313087, "lat": 33.2181648, "lon": -87.5783433, "tags": {"addr:housenumber": "408", "addr:postcode": "35476", "addr:street": "Main Avenue", "amenity": "cafe", "cuisine": "american", "name": "City Cafe", "wifi": "no"}}, {"type": "node", "id": 1863565716, "lat": 33.1941173, "lon": -87.527991, "tags": {"amenity": "cafe", "cuisine": "bubble_tea", "name": "Bobamania"}}, {"type": "node", "id": 4450108065, "lat": 33.2068617, "lon": -87.5329134}, {"type": "node", "id": 4450108066, "lat": 33.2066761, "lon": -87.5329563}, {"type": "node", "id": 4450108067, "lat": 33.2066703, "lon": -87.532923}, {"type": "node", "id": 4450108068, "lat": 33.2067495, "lon": -87.5329033}, {"type": "node", "id": 5589371076, "lat": 33.2082272, "lon": -87.5649002, "tags": {"amenity": "cafe", "cuisine": "coffee_shop", "internet_access": "yes", "internet_access:fee": "no", "name": "Monarch"}}, {"type": "node", "id": 5764920497, "lat": 33.1977461, "lon": -87.5244346}, {"type": "node", "id": 5764920498, "lat": 33.1977468, "lon": -87.5245158}, {"type": "node", "id": 5764920499, "lat": 33.1975557, "lon": -87.5245184}, {"type": "node", "id": 5764920500, "lat": 33.1975549, "lon": -87.5244331}, {"type": "node", "id": 5764920501, "lat": 33.1976367, "lon": -87.524432}, {"type": "node", "id": 5764920502, "lat": 33.1976364, "lon": -87.5244029}, {"type": "node", "id": 5764920503, "lat": 33.1976957, "lon": -87.5244021}, {"type": "node", "id": 5764920504, "lat": 33.197696, "lon": -87.5244352}, {"type": "node", "id": 5764920505, "lat": 33.1975879, "lon": -87.524518}, {"type": "node", "id": 5764920506, "lat": 33.1976323, "lon": -87.5245173}, {"type": "node", "id": 5764920507, "lat": 33.1976325, "lon": -87.5245407}, {"type": "node", "id": 5764920508, "lat": 33.1975882, "lon": -87.5245413}, {"type": "node", "id": 5817007443, "lat": 33.209345, "lon": -87.5686515}, {"type": "node", "id": 5817007444, "lat": 33.2094307, "lon": -87.5683599}, {"type": "node", "id": 5817007445, "lat": 33.2093103, "lon": -87.5683161}, {"type": "node", "id": 5817007446, "lat": 33.2092142, "lon": -87.5686551}, {"type": "node", "id": 5817007447, "lat": 33.2093297, "lon": -87.5687036}, {"type": "node", "id": 5817007448, "lat": 33.2092352, "lon": -87.5685885}, {"type": "node", "id": 6003062775, "lat": 33.165718, "lon": -87.5490143, "tags": {"addr:city": "Tuscaloosa", "addr:housenumber": "804", "addr:postcode": "35405", "addr:state": "AL", "addr:street": "Skyland Boulevard", "amenity": "cafe", "branch": "Highway 69 and Skyland", "brand": "Starbucks", "brand:wikidata": "Q37158", "cuisine": "coffee_shop", "name": "Starbucks", "official_name": "Starbucks Coffee", "phone": "+1 205-650-0671", "ref": "1017433", "takeaway": "yes", "website": "https://www.starbucks.com/store-locator/store/1017433/hwy-69-and-skyland-804-skyland-boulevard-tuscaloosa-al-354053905-us"}}, {"type": "node", "id": 6009125490, "lat": 33.234422, "lon": -87.5416761, "tags": {"amenity": "cafe", "name": "Edgar's Bakery"}}, {"type": "node", "id": 6009125491, "lat": 33.233003, "lon": -87.5366081, "tags": {"addr:city": "Tuscaloosa", "addr:state": "AL", "amenity": "cafe", "name": "Hertiage House Coffee"}}, {"type": "node", "id": 6009126393, "lat": 33.1996892, "lon": -87.526582, "tags": {"addr:city": "Tuscaloosa", "addr:state": "AL", "amenity": "cafe", "name": "Juice Bar"}}, {"type": "node", "id": 6685911949, "lat": 33.2129541, "lon": -87.5711234, "tags": {"amenity": "cafe", "name": "Heritage House Coffee & Tea"}}, {"type": "node", "id": 11040410803, "lat": 33.2120532, "lon": -87.5630697, "tags": {"addr:city": "Tuscaloosa", "addr:housenumber": "405", "addr:postcode": "35401", "addr:state": "AL", "addr:street": "20th Avenue", "amenity": "cafe", "cuisine": "coffee_shop", "name": "UPerk", "outdoor_seating": "yes", "website": "https://www.uperk.org/"}}, {"type": "node", "id": 11040410804, "lat": 33.2104801, "lon": -87.5526004, "tags": {"addr:city": "Tuscaloosa", "addr:housenumber": "1101", "addr:postcode": "35401", "addr:state": "AL", "addr:street": "University Boulevard", "amenity": "cafe", "cuisine": "coffee_shop", "name": "Strange Brew"}}, {"type": "node", "id": 11040444305, "lat": 33.206031, "lon": -87.5473371, "tags": {"addr:city": "Tuscaloosa", "addr:housenumber": "807", "addr:postcode": "35401", "addr:state": "AL", "addr:street": "Paul W Bryant Drive", "amenity": "cafe", "branch": "Univ. of Alabama Bryant Drive", "brand": "Starbucks", "brand:wikidata": "Q37158", "cuisine": "coffee_shop", "name": "Starbucks", "official_name": "Starbucks Coffee", "phone": "+1 205-348-9842", "takeaway": "yes", "website": "https://www.starbucks.com/store-locator/store/1015444/univ-of-alabama-bryant-drive-807-paul-w-bryant-dr-tuscaloosa-al-35401-us"}}, {"type": "node", "id": 11040444306, "lat": 33.214615, "lon": -87.5460751, "tags": {"addr:city": "Tuscaloosa", "addr:housenumber": "751", "addr:postcode": "35401", "addr:state": "AL", "addr:street": "Campus Drive", "amenity": "cafe", "branch": "Univ of Alabama Student Center", "brand": "Starbucks", "brand:wikidata": "Q37158", "cuisine": "coffee_shop", "name": "Starbucks", "official_name": "Starbucks Coffee", "phone": "+1 205-348-6206", "takeaway": "yes", "website": "https://www.starbucks.com/store-locator/store/11407"}}, {"type": "node", "id": 11124159288, "lat": 33.2107144, "lon": -87.5534749, "tags": {"addr:city": "Tuscaloosa", "addr:housenumber": "1201", "addr:postcode": "35401", "addr:state": "AL", "addr:street": "University Boulevard", "amenity": "cafe", "brand": "PJ's Coffee of New Orleans", "brand:wikidata": "Q7119454", "cuisine": "coffee_shop", "name": "PJ's Coffee of New Orleans", "opening_hours": "Mo-Su 07:00-18:00", "outdoor_seating": "no", "phone": "+1-205-248-7788", "takeaway": "yes", "website": "https://locations.pjscoffee.com/al/tuscaloosa/coffee-shop-al0002.html"}}, {"type": "node", "id": 12345586913, "lat": 33.2068536, "lon": -87.532867}, {"type": "node", "id": 12345586914, "lat": 33.206872, "lon": -87.5329442}, {"type": "node", "id": 12345586915, "lat": 33.2068664, "lon": -87.5329122}, {"type": "node", "id": 12345586916, "lat": 33.2067633, "lon": -87.5329713}, {"type": "node", "id": 12345586917, "lat": 33.2067582, "lon": -87.5329418}, {"type": "node", "id": 12345586918, "lat": 33.2067337, "lon": -87.5329479}, {"type": "node", "id": 12345586919, "lat": 33.2067327, "lon": -87.5329422}, {"type": "node", "id": 12345586920, "lat": 33.2067478, "lon": -87.5328934}, {"type": "node", "id": 12345586925, "lat": 33.2067431, "lon": -87.5329455}, {"type": "node", "id": 12729795356, "lat": 33.2085525, "lon": -87.5623055, "tags": {"addr:city": "Tuscaloosa", "addr:housenumber": "2010", "addr:postcode": "35401", "addr:state": "AL", "addr:street": "8th Street", "amenity": "cafe", "branch": "Tuscaloosa", "cuisine": "coffee_shop", "name": "Turbo Coffee", "opening_hours": "Mo-Su 07:00-17:00", "outdoor_seating": "no", "phone": "+1-205-860-5117", "website": "https://www.turbo-coffee.com/"}}, {"type": "node", "id": 12776352689, "lat": 33.1992574, "lon": -87.5462688}, {"type": "node", "id": 12776352690, "lat": 33.1992104, "lon": -87.5462725}, {"type": "node", "id": 12776352691, "lat": 33.1992036, "lon": -87.5461494}, {"type": "node", "id": 12776352692, "lat": 33.1992507, "lon": -87.5461458}, {"type": "way", "id": 447952260, "nodes": [4450108065, 12345586915, 12345586914, 12345586916, 12345586917, 12345586925, 12345586918, 12345586919, 4450108066, 4450108067, 4450108068, 12345586920, 12345586913, 4450108065], "tags": {"addr:city": "Tuscaloosa", "addr:housenumber": "325", "addr:postcode": "35401", "addr:state": "AL", "addr:street": "University Boulevard East", "amenity": "cafe", "branch": "U of A University Boulevard", "brand": "Starbucks", "brand:wikidata": "Q37158", "building": "commercial", "building:levels": "1", "cuisine": "coffee_shop", "drive_through": "yes", "name": "Starbucks", "note": "Drive-thru only", "official_name": "Starbucks Coffee", "phone": "+1 205-348-0220", "ref": "1044881", "takeaway": "yes", "website": "https://www.starbucks.com/store-locator/store/1044881/u-of-a-university-blvd-325-university-blvd-e-tuscaloosa-al-35401-us"}}, {"type": "way", "id": 608495436, "nodes": [5764920497, 5764920498, 5764920506, 5764920507, 5764920508, 5764920505, 5764920499, 5764920500, 5764920501, 5764920502, 5764920503, 5764920504, 5764920497], "tags": {"amenity": "cafe", "brand": "Starbucks", "brand:wikidata": "Q37158", "brand:wikipedia": "en:Starbucks", "building": "yes", "contact:website": "https://www.starbucks.com/store-locator/store/1017602/15th-mc-farland-816-veterans-memorial-parkway-tuscaloosa-al-354045", "cuisine": "coffee_shop", "name": "Starbucks", "official_name": "Starbucks Coffee", "takeaway": "yes"}}, {"type": "way", "id": 615084326, "nodes": [5817007444, 5817007445, 5817007448, 5817007446, 5817007447, 5817007443, 5817007444], "tags": {"addr:city": "Tuscaloosa", "addr:housenumber": "514", "addr:postcode": "35401", "addr:state": "AL", "addr:street": "Greensboro Avenue", "amenity": "cafe", "building": "yes", "name": "Big Daddy's Cafe"}}, {"type": "way", "id": 1380009219, "nodes": [12776352689, 12776352690, 12776352691, 12776352692, 12776352689], "tags": {"amenity": "cafe", "brand": "Scooter's Coffee", "brand:wikidata": "Q117280308", "building": "yes", "cuisine": "coffee_shop", "name": "Scooter's Coffee", "takeaway": "yes"}}]}